ID,NAME,ADDRESS,LAST_INSPECTION,LATITUDE,LONGITUDE,CATEGORY,MATCH_SOURCE,MATCHED_NAME
fcb51cd5-cf0d-46b9-891f-30e6fad69acb,107 FOURTH AVENUE,107 FOURTH AVE,27/08/2025,45.4026788,-75.6876511,,,
098fbfa0-84c5-4dcc-afac-e615a77e7870,3 CENTS,1940 BANK ST,12/08/2025,45.3675508,-75.6623274,,,
f7a9abb2-74c8-43b7-b726-9b2e50f32e79,56 BYWARD,56 BYWARD MARKET SQUARE,17/05/2023,45.4272709,-75.6926123,,,
abb371ed-bc9b-4e98-9129-2ffaaf944974,A&#39;REY,419 MCARTHUR AVE,04/10/2025,45.4324805,-75.6476067,,,
b00c501a-633d-4037-9370-c5392a78428f,ACCACIA,1020 ST. LAURENT BOULEVARD,08/06/2023,45.4273797,-75.6396049,,,
94c1c15d-b1d3-4d85-b806-9c65badf385f,AFRO BASE,2564 ST JOSEPH BLVD,28/05/2025,45.4704306,-75.5252736,,,
452cb073-c234-4213-ba3f-f95552699d6e,AL BATOUL MARKET,536 MONTR&#207;&#191;&#189;AL RD,17/11/2025,45.4407379,-75.6455913,,,
a5837dbd-a79d-4665-a8a3-c6d0cdffd1c0,AL-NOOR,70 WYLIE AVE,05/05/2025,45.3545843,-75.806847,,,
733522b2-28ec-4907-8000-3c6d1d152bff,ALEKS (PLATE 41) METCALFE/SPARKS,METCALFE AND SPARKS OTTAWA,01/07/2025,45.4228551,-75.697386,,,
b245b4a7-51f5-43e2-91f9-cbbad18a678f,ALL SEASONS,1460 CYRVILLE RD,17/04/2024,45.4199145,-75.6187437,,,
6d21a262-7ce2-441f-8198-f0500eafbfc3,ALL SEASONS SHOP,101 LYON ST,12/06/2023,45.4183357,-75.7045855,,,
03c901ba-7499-4c1a-9ee8-18cd34fa6797,ALL U NEED G,345 DALHOUSIE,31/01/2025,45.4282825,-75.6904717,,,
8d8fa299-9979-4f30-ae51-0140b53f8ad7,ALLSAINTS,317 CHAPEL ST,18/11/2025,45.4272482,-75.6775306,,,
3523fd17-c243-470f-8e56-36b082c4eead,AMEN,345 RICHELIEU AVE,23/12/2024,45.4355195,-75.6549449,,,
f9553879-793c-4a8c-9cca-e9df34d022a6,ANDAZ,325 DALHOUSIE ST,30/04/2025,45.4288,-75.6909,,,
032322d3-ada1-44e4-9bb0-5f8986a14be3,ANNX,221 RIDEAU ST,12/12/2025,45.4279358,-75.6881561,,,
f78f02b3-d02f-44c9-9532-e0b72660370e,ANTHEIA,863 SOMERSET ST W,14/11/2025,45.4090019,-75.7127586,,,
2ba73a17-87d8-486c-885a-8e1563cf2307,AROUND THE BLOCK,1117 COBDEN RD,17/05/2023,45.3527102,-75.7779049,,,
85183ba9-e6b5-4293-a56c-020fc7dbd29e,ATELIER INC.,540 ROCHESTER ST,11/07/2025,45.39959,-75.7065674,,,
096fefa1-746d-477d-8f38-64b898d01f42,ATYAB SHEE,1652 BANK ST,04/11/2025,45.3766567,-75.6669311,,,
fc2f4530-7db3-4ea6-a358-ef301472747b,AY DIOS MIO TACOS,462 HAZELDEAN RD,21/03/2025,45.2981401,-75.8872192,,,
4e8ba0f4-8cc6-41d9-8db2-50c39f25ca42,BAB MARAKECH,2182 LAMIRA ST,17/12/2025,45.3850045,-75.6712273,,,
5e9bb67e-5a8f-4610-b644-ace938411eb8,BAYSCORNER,245 BAY ST,20/03/2023,45.4155162,-75.7040992,,,
4931695f-00f1-41ac-836b-7b4a5c5ac345,BELLA&#39;S BOYS,250 GREENBANK RD,15/10/2025,45.324299,-75.7795477,,,
09cc5531-70f0-4a09-bd16-5122aee8e1cd,BIG DADDY&#39;S,780 BASELINE RD,19/11/2025,45.3705756,-75.7171916,,,
b97f9311-15a3-47d8-943c-8e51c1186ca3,BINA &amp; BROS,345 SLATER ST.,29/10/2025,45.4183907,-75.7023694,,,
a5cacf32-b498-4b4c-882c-6e4e90ed285b,BISOU DATES,529 GLADSTONE AVE,12/07/2023,45.4068786,-75.7060516,,,
1df21e6b-00f2-4950-8a32-4a6779a9b422,BUBBLESEA ADVENTURE,1547 MERIVALE RD,23/04/2025,45.3548458,-75.7335043,,,
1e520bd5-6948-41a3-952d-4017f5a5f828,BYTOWN JOS,55 BYWARD MARKET SQUARE,31/10/2024,45.4285258,-75.6936866,,,
1a4ee174-9c96-4ad8-9656-a0ed3461b947,CASSETTE,2557 BASELINE RD,13/08/2025,45.3418006,-75.7869182,,,
bafb3e5f-3920-4c11-bcb4-63f79b02d977,CENTRE DES PETITS D&#39;OTTAWA,445 PLEASANT PARK RD,17/10/2025,45.3939463,-75.6533892,,,
558733c2-7c8a-49ed-ba91-62a1cf0093ce,CENTRE L&#39;ETOILE FILANTE,17 BRIDGESTONE DR,24/09/2025,45.2785525,-75.8589571,,,
bffe1804-b41f-4325-be89-37308f6a99de,CHAIGUYS,85 UNIVERSITY PRIVATE,29/09/2025,45.4225565,-75.6833275,,,
a5c10b4d-3d8b-458a-b430-c5bbaf11677f,CHANCES R EAST,540 MONTR&#207;&#191;&#189;AL RD,18/11/2025,45.4408965,-75.6454368,,,
b5cd1045-29bd-4f21-8c90-d5ac685012ee,CHATEAU LAURIER WILFRID&#39;S,1 RIDEAU ST,12/02/2025,45.4248697,-75.6948458,,,
0af0ab49-f904-4f19-affd-2ced2d026ad0,CHATEAU LAURIER ZOE&#39;S,1 RIDEAU ST,28/11/2025,45.4248697,-75.6948458,,,
79c78c89-a71a-4ac8-82e5-44901459a5cc,CHECKERS!,853 BOYD AVE,17/12/2025,45.3766081,-75.7506294,,,
a7123529-3669-4cff-b2f2-dd1ba26b6657,CHELOCHI,2900 GIBFORD DR,08/12/2025,45.3428122,-75.6684203,,,
36074cc7-7980-4c62-976f-8407badbbe58,CHUMMY JIGGERS,5527 MANOTICK MAIN STREET,08/12/2025,45.2260067,-75.6850432,,,
a460733e-abfd-4aa7-a23e-a00bf244dd44,CHUNG CHUN,1379 WOODROFFE AVE,13/01/2025,45.3502671,-75.7618672,,,
bbf4b74e-8e76-4399-9645-c327c3c211b5,CINE STARZ,1200 ST. LAURENT BOULEVARD,28/08/2023,45.4219466,-75.6387057,,,
0322eb15-3981-4090-b761-c303700504ff,CITY AT NIGHT,222 SLATER ST,08/10/2024,45.4194238,-75.6993712,,,
e8da19cc-2c45-4062-b593-71b7b85fd550,CITY VIEW CENTRE FOR CHILD &amp; FAMILY SERVICES,1099 LONGFIELDS DR,14/11/2025,45.274383,-75.73973,,,
ee1218b9-fc2a-45aa-a451-31a0cb3c70a2,COZA MIA,32 BYWARD MARKET SQUARE,19/09/2025,45.4277022,-75.692934,,,
bd971b90-c848-4951-822c-ad361b4f1dd9,DALDONGNAE,610 SOMERSET ST W,30/10/2025,45.4120955,-75.703913,,,
fdf14946-e0f9-4d61-b170-41627002885f,DALDONGNAE OTTAWA BYWARD,25 YORK ST,29/04/2025,45.4282151,-75.6943816,,,
7d404c76-c6d2-468a-a0a5-a3ce8e25e051,DEANOS TOO,853 BOYD AVE,20/08/2024,45.3766081,-75.7506294,,,
b60d155c-a072-4998-8a21-5d024473237e,DECCAN DELIGHTS,154 O&#39;CONNOR ST,10/12/2025,45.4183908,-75.6967322,,,
2403623c-e7b5-4cd7-a2c8-cabe9fead69e,DELIGHTS BY MAMA INC.,1530 STITTSVILLE MAIN ST,01/10/2025,45.2574605,-75.9204117,,,
2a478075-cda1-474b-8049-9809449e0f6f,DELTA HEARTLAND,101 LYON ST,12/06/2023,45.4183357,-75.7045855,,,
046a7812-1bc5-4e39-bd09-70ec1074acaa,DELYSEES,325 MARCHE WAY,08/12/2023,45.400646,-75.683835,,,
fae89dd6-c83b-45ee-ac2a-36c624e1025a,DESJARDINS CO-OP,100 EMPRESS AVE,10/04/2024,45.411306,-75.7089476,,,
bf94a35c-68b6-4320-a395-e551a8526251,DIVISORIA MARKET,943 CARLING AVE,30/10/2025,45.3954198,-75.7135237,,,
2da79dd8-ef3c-46f0-b0f7-e82b7fe0ed16,DJ NELS,313 MONTREAL RD,24/07/2025,45.4376211,-75.658169,,,
f19593dc-3156-4fce-830b-17e68f19c072,DOLLAR IT 601,297 BANK ST,18/01/2024,45.415184,-75.6960477,,,
54880220-d6e1-42a0-a30c-42aca503e97c,DOLLAR PAL INC.,1444 WALKLEY RD,16/01/2024,45.3740739,-75.6532386,,,
8bcbf7ea-0c72-4b4e-9590-f35c7718b57d,DOWNTOWN SERVICES AND DROP-IN,147 BESSERER STREET,06/05/2025,45.4268533,-75.6887013,,,
d003794f-cef7-4347-972e-b37f8c580a76,DR. YOON KIMCHI,853 BOYD AVE,09/01/2023,45.3765691,-75.7507367,,,
323ae71c-b0a8-40b9-98cc-2c9b63c9388b,DREW&#39;S CHEWZ,1930 ROBERTSON RD,30/06/2023,45.3257377,-75.8233013,,,
074ab772-f7df-4896-b4c6-14f1c2f7013c,DRIP HOUSE,100 FOURTH AVE,25/03/2025,45.4022117,-75.6877344,,,
ff9d66a7-08dc-4b72-9ef9-ba031fb0d6d3,DSERTE HANDCRAFTED DELIGHTS,101 SCHNEIDER RD,24/10/2025,45.3392303,-75.9020217,,,
ddce2c9f-c7a4-4b19-9fa7-8fe87600101e,DUKES OTTAWA,40 ADELINE ST,09/04/2025,45.3990455,-75.706572,,,
e928c042-e16b-4d7a-a95c-34307682fcc5,DULCES DELICIAS,40 COLONNADE RD,25/11/2025,45.3436224,-75.7173048,,,
0ba32f7e-abf7-4f32-a5d8-e7a24e6819b4,E18HTEEN,18 YORK ST,18/09/2025,45.4272606,-75.693914,,,
c569c55d-0671-40bb-88b2-8e35cc35213c,EARLYON CENTRE,180 KATIMAVIK RD,24/06/2025,45.3080518,-75.901615,,,
c4b329ac-78ff-4f6b-98fe-5b65a90b196b,ECONO GAS &amp; WASH,1111 OGILVIE ROAD,18/03/2024,45.426461,-75.632077,,,
746861f5-bab9-4698-824c-f417d8d66b0e,EDGEWOOD CARE CENTRE,9 STEVENS AVE,17/10/2025,45.42907,-75.6673,,,
201049f6-1b8f-45cb-a153-96601ff4adf7,EDIBLE ARRANGEMENTS,1950 MERIVALE RD,15/01/2025,45.326052,-75.7198339,,,
a7e751d9-47ee-4deb-a483-a0d4b8dfea87,EDIBLE ARRANGEMENTS,240 BANK ST,26/02/2025,45.41644,-75.6976257,,,
a71bf300-ddbb-47f0-b87a-ce433aeb789c,EGG POPS,358 RIDEAU STREET,23/08/2023,45.4295407,-75.6834852,,,
7d2e0ed7-3d82-4128-9a89-a5be9c4a085c,EGG ROLL PLUS,471 HAZELDEAN RD,04/09/2024,45.2981037,-75.8893611,,,
b3683b1b-51be-4199-8117-8dc47b4a1fba,EGGSPECTATIONS,171 BANK ST,20/10/2025,45.4186492,-75.6977959,,,
1a9705e7-9768-4175-bf59-fa8bf97da7cc,EGGSPRESS/PAREA,1675 TENTH LINE RD,11/09/2025,45.4690176,-75.4912331,,,
c0f42dc1-8768-4aca-8860-f7d702dac963,EL FURNITURE WAREHOUSE,77 CLARENCE ST,30/10/2025,45.4292398,-75.6933064,,,
652d41cc-4886-4ddb-a43c-46339b4227eb,EL MAZAJ,5307 CANOTEK RD,03/12/2025,45.452901,-75.588397,,,
415950ff-2b5f-4b72-a498-54ea22982421,ELSIE STAPLEFORD CENTRE,1000 TERON RD,06/11/2025,45.3269639,-75.897248,,,
2d3e3d48-0a25-4cd4-b649-d45304ff3388,EMBER,92 CLARENCE ST.,15/05/2025,45.4290036,-75.6926241,,,
d649d942-3e74-4c46-87e6-f01e3f7eee95,EUROBISTRO360,360 LAURIER AVE W,21/03/2023,45.4177165,-75.700467,,,
b6094ba5-9a3b-49cf-8750-10c838e954cb,EVERYTHING RAW,990 RIVER RD,23/12/2024,45.2339852,-75.6774721,,,
10c2006c-dcfd-41dc-af34-1ac7199befe2,EWA&#39;S CHIPWAGON,5496 BANK ST,05/08/2025,45.2815126,-75.5717116,,,
87721de3-8672-4720-8be3-18638ea63388,EY CENTRE,4899 UPLANDS DR,02/10/2025,45.3308707,-75.6574597,,,
8d2cb3f4-7ed0-4154-a38f-c19df6b2425d,FAIRWAY TRADING,53 WILLIAM ST,21/11/2024,45.4276495,-75.6918903,,,
12b2fb55-fbc0-41c6-b4e2-d1d24c7a9b9d,FARINELLA,450 PRESTON ST,02/05/2025,45.3987849,-75.7088193,,,
7ed1773e-57b9-4739-8ce0-d83e60f1170c,FARINELLA KANATA,806 MARCH RD,11/06/2025,45.3556067,-75.9322738,,,
a72c9467-91fe-485c-b42c-ca414bc96afb,FARMER&#39;S PICK,1430 PRINCE OF WALES DR,27/08/2025,45.3685671,-75.7026848,,,
7be58f12-6852-4a09-9dae-be84ae6cf4d4,FAT ALBERT&#39;S AND RALPH&#39;S S20,1990 RUSSELL RD,29/04/2024,45.4008336,-75.624182,,,
58a99053-4fe2-4bf2-998e-0c86ddf24142,FAVORITE ATTIC GOODS,323 MONTR&#207;&#191;&#189;AL RD,24/09/2025,45.437739,-75.6578434,,,
601dea02-beb5-4921-a01a-57799330fd8e,FIAZZA FRESH FIRED,3181 GREENBANK RD,13/06/2024,45.2687686,-75.7448545,,,
75f70ef4-b1fb-4924-9447-dba6058db4a6,FIAZZA FRESH FIRED,205 RICHMOND RD,11/01/2024,45.3947481,-75.7484908,,,
d4a7e7dd-6f66-4a7c-b677-c8249edcc279,FILIPINO FLAVOURITES,101 SCHNEIDER RD,29/05/2025,45.3392303,-75.9020217,,,
6ef3d635-bdd4-49fa-b094-1f85a4754774,FLAVADADDY,67 IBER RD,13/11/2025,45.2791157,-75.9062772,,,
df97b1a7-788c-493c-82b2-34215aa075b7,FLAVADADDY,101 SCHNEIDER ROAD,10/12/2023,45.3392192,-75.901988,,,
ccde2dfe-d2e6-4d79-be8e-e22ef246b66a,FLAVADADDY CENTRAL,2140 BASELINE RD,14/08/2025,45.3530355,-75.7594787,,,
bd13533b-3ab0-4664-9343-f60a597c9b98,FLYING SQUIRREL OTTAWA,1901 CYRVILLE RD,01/05/2025,45.4159528,-75.6020969,,,
0533e1fe-08fa-4714-9f3f-0a13442c0a7b,FOODLAND,6045 BANK ST,10/09/2025,45.2637388,-75.557103,,,
bb28d374-45cc-451e-b25f-10a230df7749,FOODLAND,5669 OSGOODE MAIN ST,05/06/2025,45.1491675,-75.601344,,,
26b96cbb-b199-47cd-9da1-ccbe47b85a8f,FOODWORKS,571 GLADSTONE AVE,20/08/2025,45.4095239,-75.7005736,,,
9f7d8a73-ba48-4740-8867-a33c99e0f683,FOURTY ONE,100 ELGIN ST,15/12/2025,45.4213704,-75.6937823,,,
99061a79-76b4-4c4b-aabb-c82094da5c68,FRATELLI,275 RICHMOND ROAD,16/12/2025,45.3934623,-75.7513216,,,
eb42e9fc-36ec-4716-95e6-e3c8153b0281,FRESH HOT POPCORN,110 LAURIER AVE W,02/05/2025,45.4208085,-75.6899964,,,
a946d6b9-83a5-4426-b182-43cee976574f,FRESH MANGO,795 TRIM RD,22/07/2023,45.5048995,-75.4898977,,,
cf7df174-d434-476d-95e5-a5d1ded715b6,FRESH SLICE,55 WILLIAM ST,14/08/2025,45.427514,-75.6918798,,,
90eeb843-93b1-4f52-bc2c-cda0921f82a5,FRESH SLICE,500 BANK ST,14/08/2025,45.4103942,-75.6928695,,,
38f7b1e7-1b28-4923-b372-6911c12fbe90,FRESHLY,255 CENTRUM BLVD,13/09/2024,45.4811496,-75.5102079,,,
f06d8085-ecff-4648-aa8d-25e01db34632,FRESHLY SQUEEZED,1200 ST. LAURENT,20/04/2023,45.4231604,-75.6394861,,,
0a908a98-b64c-4aca-81e0-9c3b25686afc,FRUIT COUTURE,1160 HERON RD,24/11/2025,45.3780708,-75.6704523,,,
1a359552-3c41-4ee5-a04a-750d5b158c5f,FRY2GO,1088 BRIDGE STREET,23/07/2025,45.22929,-75.68191,,,
a6a938ab-7e8d-492b-aad7-de77248552d4,FRYZ GUYZ,1696 MONTREAL RD,06/05/2025,45.4459666,-75.6123044,,,
d27049d7-0e8b-45ba-ba9a-b7f2f21dcb59,FUSION FEAST,2817 ST JOSEPH BLVD,01/10/2025,45.473672,-75.5203097,,,
a8b86e13-ad48-4740-84cd-11b2e49efc96,FUTURE SCHOLARS,1920 BANK ST,28/10/2025,45.3678483,-75.6625539,,,
ed82fcb4-f851-417c-8807-958eb5948b23,FUWA FUWA,1200 ST. LAURENT BLVD,20/10/2023,45.4225962,-75.6396792,,,
600afe54-575f-4c8f-b41d-cfc2046000d8,GABRIEL DRUGS,117 CENTREPOINTE DR,27/02/2025,45.3429403,-75.7624942,,,
cd24f475-f959-4a42-991f-bd0c7d22066e,GANAWENINDIWAG,510 RIDEAU STREET,02/10/2025,45.431613,-75.6783892,,,
0c0eeede-95dc-41a9-8bce-02b6743f5790,GATEWAY NEWSTAND,99 METCALFE ST,15/03/2023,45.4210201,-75.6954717,,,
e9fa3da9-9ce7-4680-9876-9a5c1c791bc5,GBURGER MANOTICK,1160 BEAVERWOOD ROAD,04/12/2025,45.2226821,-75.6839239,,,
3e78bb82-5e2f-4b5d-b83b-b3877e72ec26,GEDRO KOUPE DWET,143 PUTMAN AVE,16/05/2025,45.4423021,-75.6716235,,,
0f999eee-cc96-43e8-9964-15bdb853b472,GIULIA,61 YORK ST,30/10/2025,45.4286847,-75.692452,,,
37c05539-5feb-4685-9248-b546bfb858db,GLEN CAIRN CO-OP,186 MORRENA RD,30/05/2025,45.2963248,-75.8855436,,,
217a376d-2129-4d79-a8d3-e5e5d1b6f792,GNC,1200 ST. LAURENT BOULEVARD,31/12/2024,45.4219466,-75.6387057,,,
1ed43a17-32d3-45e9-830a-5ce51fea760e,GONGFU,365 BANK ST,01/10/2025,45.4140461,-75.6950674,,,
8a348cde-42d8-4efc-8b0f-28f3c20b2d3a,GOOD COMPANION CENTRE,670 ALBERT STREET,11/09/2025,45.4136357,-75.7101683,,,
f78cebf4-9f38-4710-9645-9affe3cb44bf,GOOD NEIGHBOUR,399 ELGIN ST,08/08/2025,45.4149882,-75.6874816,,,
c31d7ad6-b5d5-4f91-aa02-a9f39fbc8430,GRACIE BARRA OTTAWA EAST,1977 ST JOSEPH BLVD,27/06/2024,45.4648904,-75.5397303,,,
0866c9db-10b4-497c-a02e-49cda5a5ab9c,GREAT GLEBE GARAGE SALE,BANK @ FIFTH,24/05/2025,45.4016554,-75.687604,,,
395c61ae-1a0d-413e-ae17-f534e8d47941,GREAT MOUNTAIN GINSENG,224 HUNT CLUB RD,09/01/2024,45.3339133,-75.6905898,,,
73fa78ab-7929-45e8-8377-fca51bfa2fd0,GREELY GOOD MARKET,5770 BANK ST,24/08/2025,45.2725447,-75.5666614,,,
7d11e62f-3d95-450d-af70-3f99b0f5a91c,GREEN LEAF,591 MARCH RD,06/10/2025,45.3473338,-75.9240293,,,
4692164a-9bee-47cc-9849-ed2abc5f69cd,GREEN LEAF STITTSVILLE,1531 STITTSVILLE MAIN ST,29/08/2025,45.2577112,-75.9199051,,,
bf1dabb1-deb3-4b62-a35d-9afd28d0555f,GREEN REBEL,160 ELGIN ST,20/02/2025,45.4197494,-75.6928817,,,
11f08d2d-8eea-460e-a3b6-30f51011d372,GREENBORO CHILDRENS CENTER,1400 CAHILL DR,29/10/2025,45.3590961,-75.6450196,,,
fbb49286-75c4-4a8c-823c-ca9453c38eeb,GRUMPY&#39;S,4000 BRIDLE PATH DR,27/11/2025,45.3484031,-75.6455743,,,
39a79403-d77b-4b53-8262-c0164d91be08,GUNG CHA,1379 WOODROFFE AVE,13/01/2025,45.3502671,-75.7618672,,,
b6baebc4-a97a-49e9-a4d3-fdbdac8642e9,GUTSIE,2297 ST JOSEPH BLVD,05/03/2025,45.4682074,-75.5323444,,,
67c57fed-c580-435d-ad49-a661dc7d178b,GUTSIES KANATA,471 TERRY FOX DR,05/09/2025,45.3121145,-75.933744,,,
97b785c8-26c8-4e2c-a3c9-ced62520ea59,HABESHA,99 MONTREAL RD,12/11/2025,45.4341672,-75.6670279,,,
763371e6-08a9-43ef-a08a-915de6ebf454,HAHA KTV,1280 BASELINE ROAD,15/03/2023,45.3640718,-75.7326978,,,
5a20ccaf-06d0-4b1d-87df-d5f56ab26515,HANAHANA,474 HAZELDEAN RD,15/02/2024,45.2974556,-75.8893633,,,
f0d7e6ea-48cd-421e-9342-66530dda7a06,HANGOUT,1000 SOMERSET ST W,06/08/2025,45.4077306,-75.7154581,,,
081b990d-663f-4e67-822b-1281f4e834db,HAPPY FISH,330 ELGIN ST,05/12/2025,45.4159778,-75.6889807,,,
a2ae7470-e84a-4fb2-bd24-4bd2c24a9576,HAPPY ROLLS,1195 WELLINGTON ST. W,17/12/2025,45.4006149,-75.729904,,,
a54b6042-b946-4cf6-bcd4-a8d5d3186e3c,HAVEN,43 SENECA ST,09/09/2024,45.3914841,-75.6897956,,,
90f9d6bd-5d4f-4d27-9c6a-54e60fb3c5da,HAVEN&#39;S CREAMERY - SPECIAL EVENT VENDOR,755 BANK ST,08/06/2023,45.4040637,-75.6887379,,,
46c7b0e4-6508-4762-8434-b9d5b0bc9a64,HAWGS GONE WILD,100 SPARKS ST.,28/05/2025,45.4226274,-75.6975801,,,
6b15922a-e7f2-49fd-a688-e7719be3f986,HEART AND CROWN BARRHAVEN,3161 STRANDHERD DR,03/06/2025,45.2742628,-75.7191023,,,
e266ad88-076f-4220-9cc5-12401b6796d6,HECTO,654 MONTREAL ROAD,14/03/2024,45.4428084,-75.6401797,,,
a66c6603-658e-431f-a65d-0621cdb4c8b5,HEIST MANOTICK,5539 MANOTICK MAIN ST,08/10/2025,45.226299,-75.68602,,,
255dcff5-8b7e-4dd6-a128-18963b32fef2,HELLO CHEF,178 RIDEAU STREET,10/03/2023,45.427146,-75.689152,,,
18de55d5-61c6-4660-a8fe-0e44a7dac106,HELLO SUSHIMAN-KANATA,474 HAZELDEAN RD,16/12/2025,45.2973639,-75.8879612,,,
4859e4ac-8abd-4cb0-9431-773e67b8c1a0,HI T,1076 WELLINGTON ST. W,20/06/2023,45.4033311,-75.7247567,,,
0fe27614-e267-4d76-a256-db26323a6809,HI YOGURT,99 METCALFE ST,08/09/2025,45.4208781,-75.6954279,,,
8e83a707-4a70-4bc6-adb3-ab2648ed07f8,HICKORY FARMS,1200 ST. LAURENT BLVD,20/12/2023,45.4219466,-75.6387057,,,
b2db8384-30bd-4af7-a544-abf3f4b61be6,HIGH FIVES SPORTSPUB,1876 ROBERTSON RD,26/09/2025,45.3267215,-75.8208379,,,
c86b3291-84c6-4b6b-b06f-f69891e25cb7,HIGHJINX,290 KENT ST,09/05/2025,45.4148488,-75.6990187,,,
c7616239-e655-428b-b78a-db410389d02d,HING LUNG,199 DALHOUSIE ST,03/09/2025,45.4321401,-75.6936818,,,
7e335930-226a-4cf8-8502-032f92e313a0,HINTONBURG C.C,1064 WELLINGTON ST W,21/11/2025,45.4035207,-75.7243452,,,
4236b556-1c7b-46e8-a2ed-f184da91eccf,HOLLY&#39;S HOT CHICKEN,45 ARMSTRONG ST,01/05/2025,45.4061201,-75.7237327,,,
0793e11a-f42b-4c06-bdf1-bb337dba45ca,HOPE LIVING - SHEPHERDS OF GOOD HOPE,145 CASTLEFRANK RD,20/11/2025,45.2915435,-75.880387,,,
e50ed609-9393-49cb-ad53-c738e57a89f8,HOST INDIA,622 MONTREAL RD,19/12/2025,45.4424217,-75.6417417,,,
adcaabde-b50e-47ee-8eb9-e8f2e1f13e02,HOT DIGGITY DOG,BANK STREET AND LAURIER AVENUE WEST,03/06/2024,45.4185489,-75.6990604,,,
7bd6ecc7-6120-47df-be0a-5b7d3a221039,HOT PIZZARIA,1341 MEADOW DR,31/10/2025,45.2654098,-75.5620099,,,
1c4a0acf-1c00-4c7a-9427-528db6dda73c,HOUSE OF CHAA,250 BANK ST,01/10/2025,45.4161793,-75.6973251,,,
f79a827a-c847-4026-8412-5821023ccc37,HOUSE OF MANDI,1183 HUNT CLUB RD,06/12/2023,45.3529772,-75.6505396,,,
acfb24d5-5d69-4375-90e9-c23c44685974,HUMMINGBIRD MUSIC LIMITED,900 GREENBANK RD,14/05/2024,45.2847264,-75.7564617,,,
b078aea1-0fd5-4fcf-960d-5de710915cd6,HUNG FATT,2108 MONTREAL RD,02/05/2025,45.4478374,-75.5924534,,,
363226da-3768-417c-bceb-956f0ce6cd2e,HUNG HUNG HOUSE,22 ANTARES DR,26/04/2023,45.3343717,-75.7092142,,,
d90f75ba-00e0-43f8-bd4b-38716329ea36,HYDE &amp; SEEK,130 GEORGE ST,12/01/2023,45.4279654,-75.6895245,,,
e252092c-29fc-4194-a620-0e0e8426f1a4,ICEFLAME OTTAWA,1398 HIGHGATE RD,20/11/2025,45.3490475,-75.7698606,,,
39f7fecb-42cf-4261-a447-2fab7d3562b3,IHAM,590 GLADSTONE AVE,06/02/2023,45.4090052,-75.7008241,,,
2f4a9a76-189a-4eee-a2c5-270e3de52009,IL NEGOZIO NICASTRO,1355 WELLINGTON ST W,01/12/2025,45.3984101,-75.7387584,,,
e35f44bc-c8d2-424f-ac99-33b53d3b9239,INS MARKET,2277 RIVERSIDE DR.,07/05/2024,45.3856281,-75.6774777,,,
475a4fc9-35ed-4801-9e04-f142fa59fc77,INSTABOLZ,261 LAURIER AVENUE EAST,28/06/2023,45.4264499,-75.6817912,,,
ba275d1a-bcc9-41b9-8c93-2d2e08880d3f,IRISPIZZA.COM,1105 COBDEN RD,07/03/2024,45.3529962,-75.7779981,,,
6323a35e-2c71-4af5-9bfc-f84638bed4d1,J &amp; J SALES,2184 THURSTON DR,05/12/2024,45.3798272,-75.620639,,,
5a7c01d9-3b2c-40f0-8216-f9ee2cb2ff5e,J &amp; J WINE,1574 WALKLEY RD,11/04/2025,45.3766289,-75.646896,,,
8ade5ff0-6cba-4363-a752-2e0ea95e2b24,JACK ASTOR&#39;S,125 ROLAND MICHENER DR,03/11/2025,45.3283079,-75.8931392,,,
27617c8a-3935-47d4-b8c1-ad31b9c9980a,JACK THE RIBBER / KENTUCKY SMOKERS,100 SPARKS ST.,16/05/2025,45.4226053,-75.6975071,,,
651e1b86-bbb2-4c11-aa55-fcb2dd8ed6d3,JAYA KRISHNAN FINE ARTS,807 BANK ST,20/12/2024,45.4026912,-75.6880435,,,
9cc1a21e-f144-49b0-8a6c-bea2937ad0d9,JAZZ@248,248 BANK ST,12/08/2025,45.4162483,-75.6973525,,,
50c04805-ef23-4c8c-b037-ce944abe1766,JEAN COUTU,262 MONTREAL RD,12/04/2024,45.4363838,-75.660325,,,
e57d6735-5240-4ea4-9d7d-26591f3debf8,JFUSE,145 MAIN ST,13/05/2025,45.4099687,-75.6782361,,,
e286776c-fe27-4cd5-a9a4-d72665d6cf74,JIGSAW ESCAPE ROOM,12 BYWARD MARKET SQUARE,25/06/2024,45.4284135,-75.693634,,,
614dc3ae-9c2a-4191-bb6d-f57a05124125,JJ&#39;S MARKET,380 LAURIER AVE W,23/09/2025,45.4173464,-75.700451,,,
2a0ac279-b5e9-43c9-a4a3-a57a38c119c4,JOHN&#39;S QUICK LUNCH,1365 WELLINGTON ST W,06/12/2024,45.3983783,-75.7388399,,,
b3864e0f-450c-4a2f-93ae-1f50828d3e1d,JOSESANDANCE,105 MURRAY ST,09/12/2025,45.4300023,-75.6931741,,,
faecfbd6-654f-45dd-9a93-65cdbe5266ab,JOY ON SUSSEX,527 SUSSEX DR,12/07/2023,45.4268835,-75.6943237,,,
28489c9f-13b9-40c8-8701-0be12f0782bb,JUICE DUDEZ,115 CLARENCE ST.,03/09/2025,45.429564,-75.692172,,,
d8477ca3-bbe7-4133-be6a-987c11f4c052,JUICE DUDEZ,1702 BANK ST,02/04/2025,45.3749781,-75.6661709,,,
a7a5b03f-4975-44b2-b40d-f3674768d265,JUICE DUDEZ,4471 INNES RD,03/09/2025,45.4616667,-75.4866667,,,
86aa9aea-f267-46ed-a402-717834938591,JUST PEROGIES,325 MARCHE WAY,17/06/2023,45.400646,-75.683835,,,
0946a489-b095-4fe1-bf52-196d97b6932f,KALEMART24,49 WILLIAM ST,03/10/2025,45.427723,-75.6920509,,,
b7c84d0c-cadd-4f23-81ac-5e6d848ff6ec,KANATA KASH N KARRY,60 COLCHESTER SQUARE,29/10/2025,45.320946,-75.8896096,,,
75358c40-7dfb-4571-a645-9fb3ffb1c159,KANATA SOCCER CENTRE,1927 RICHARDSON SIDE RD,07/02/2024,45.3366301,-75.9015274,,,
9debf828-bd9c-4434-825f-568bbf6e72b3,KARA MIA,1910 ST LAURENT BLVD,22/11/2025,45.398886,-75.624066,,,
62c205de-06c9-4a4e-8097-a318c2a1fe54,KARAHI BOYS,345 PRESTON ST,15/12/2025,45.4022626,-75.7102795,,,
bbc9b3b9-3092-412f-89e6-4905ce9222ec,KATHA,225 PRESTON ST,24/10/2024,45.4056981,-75.7120052,,,
8623d891-e7a0-401a-9c18-c31695ef29ca,KATIMAVIK EARLY LEARNING CENTER,180 KATIMAVIK RD,03/11/2025,45.309167,-75.8893329,,,
49ba0b9d-7999-4df3-b965-c1f6687ae846,KATY&#39;S SWEET CORNER,152 CLEOPATRA DR,23/06/2025,45.3296791,-75.7276421,,,
e96d5865-e394-4e8a-a6fc-96b9c16ef05c,KAVHA FUELBAR,286 ELGIN ST,08/08/2025,45.4168143,-75.6897516,,,
8cbc4d88-63f5-4eda-9bdd-2824debf1508,KELSEY&#39;S,2206 BANK ST,18/09/2025,45.3563712,-75.6542454,,,
7c03d6cf-6786-4670-9128-1484ed2d0306,KERNELS POPCORN,110 PLACE D&#39;ORLEANS DR,17/11/2025,45.4781702,-75.5155527,,,
479c639b-714d-492a-a078-2c2dc1960216,KERNELS POPCORN,2121 CARLING AVE,22/11/2024,45.3730814,-75.7682887,,,
fc66721a-bed6-4114-aff7-efafec549795,KETTLEMAN&#39;S,912 BANK ST,02/12/2025,45.3999041,-75.6869872,,,
a7efe438-2094-431f-b2f6-9ba1b5704fd9,KIKKA,951 BANK ST,19/02/2025,45.3993485,-75.6854996,,,
012a28d5-bec9-4fe8-b668-e67b8083e63f,KLIMAT INC 2.0,265 CITY CENTRE AVE,23/09/2025,45.4086356,-75.7173357,,,
136c017b-e662-49b0-ace7-ebe5e6c9c18b,KOCHU,266 PRESTON ST,12/04/2025,45.4043098,-75.7119057,,,
de7823d0-f9d0-4bf4-9b79-2f1ae2c2750a,KOOL RUNNINGS,2200 MONTREAL RD,12/06/2025,45.449526,-75.586893,,,
27fac40d-e7b9-4dad-987b-3ce9af54e61a,KOOL VYBES,2559 INNES RD,11/04/2025,45.430565,-75.567497,,,
c796b740-a3f9-4a31-a113-4e80110e7af0,KOWLOON MARKET,712 SOMERSET ST W,28/07/2025,45.4105206,-75.7076798,,,
b45e0673-42a2-425b-9581-98158913ff6a,KOWLOON MARKET,712 SOMERSET ST W,15/12/2025,45.4105206,-75.7076798,,,
d50ec429-7380-4234-91a1-c64d0bfa1282,KUIDAORE,420 PRESTON ST,18/10/2025,45.400349,-75.709644,,,
37d62699-6107-463a-a4e5-7a7b8c7b2fae,KUNG FU TEA OTTAWA,YORK ST,28/06/2025,45.4300906,-75.6886396,,,
feab8863-f43c-4e0a-b954-ea4070e7971e,KUTO,5754 HAZELDEAN RD,21/11/2025,45.2810266,-75.9128456,,,
43c07121-cca8-4e1d-97c6-785b13d02671,LA BOCCA JUICE,2446 BANK ST,11/07/2025,45.3527295,-75.6469545,,,
c1dbadea-4749-4946-b103-171ac8c180e4,LA BOTTEGA,2685 IRIS ST,19/09/2025,45.3503157,-75.7846581,,,
88d3c5d5-5189-42d2-8285-283199f6f8d9,LA BOTTEGA NICASTRO,64 GEORGE ST,16/12/2025,45.4268387,-75.691821,,,
efeda41b-5410-428e-a91b-122c143a96a0,LA CATRINA,105B CLARENCE ST.,02/05/2025,45.4294686,-75.6923985,,,
fc917e84-921a-434f-b5d0-f3df3ede99ce,LA CATRINA,105B CLARENCE ST.,18/05/2024,45.4294686,-75.6923985,,,
dd5c9af9-540a-4dd9-bfd2-f6f253793b36,LA CATRINA,15 CAPELLA CT,17/12/2025,45.33197,-75.70645,,,
3026b826-142c-4142-861f-d2bd104b0f17,LA CREMIERE,100 BAYSHORE DR,05/05/2025,45.3469493,-75.8065581,,,
7f2faf98-d3f1-40fe-ad57-e30890fafc85,LA DIPERIE,238 LAURIER AVENUE EAST,01/10/2025,45.4258604,-75.6812365,,,
7d1bde14-e01f-4210-8856-6250599295ec,LA FIESTA LATINA - SPECIAL EVENT VENDOR,1000 EXHIBITION WAY,01/03/2024,45.4000555,-75.6827317,,,
4814cda8-2678-4b63-bd3f-4834166d7cb9,LA FRENCH BARRHAVEN,3350 FALLOWFIELD RD,11/09/2025,45.2970303,-75.7332231,,,
198963b7-d230-4f49-98a9-767321f502ad,LA FRENCH/LOKMA,1611 BANK ST,19/12/2025,45.3781675,-75.6667993,,,
7d299988-92d4-4381-a81f-a516567dc541,LA FROMENTINE INC.,1202 BANK ST,17/11/2023,45.3915776,-75.6813423,,,
8bcd9eb8-9b09-4dd7-9101-8df4fb26b4d7,LA MAISON DU KOUIGAN-AMANN INC,101 SCHNEIDER RD,12/09/2025,45.3392259,-75.901992,,,
acb1cf40-f1bf-408d-b1b5-af65c2cbe51b,LA ROMA,430 PRESTON ST,20/11/2025,45.3997851,-75.709276,,,
ee36e22d-8179-4497-9bde-31551612a098,LA TIENDITA,615 SOMERSET ST W,29/07/2025,45.4123352,-75.7041894,,,
81da3d21-695a-4ef3-9f73-bf2739466d15,LA TIENDITA,848 MERIVALE RD,18/04/2024,45.385366,-75.7326505,,,
434480fa-345a-4162-b681-3a17982e4543,LAHEEB ELITE,2895 BANK ST,25/10/2025,45.3490273,-75.626724,,,
2f95cd03-ddd4-4dd3-b592-213d341b8b37,LAHEEB FLAMING HOT,947 SOMERSET ST W,06/11/2025,45.4081598,-75.7155906,,,
d29679df-5d7a-48c1-8dd8-adb2b75d776f,LAPOINTE FISH WEST,1831 ROBERTSON RD,10/04/2025,45.3282718,-75.8193513,,,
e97fd3c7-dfb5-48b3-ac5e-bac9290e05c0,LASERMAXX CANADA INC.,1800 ST. LAURENT BLVD,18/09/2025,45.4039194,-75.6273465,,,
ed849a97-6027-4add-b4e1-fa60c95e4848,LAST TRAIN TO DELHI,107 FOURTH AVE,20/05/2025,45.402647,-75.687624,,,
45217bae-dbbf-4344-8659-b3a5547bf699,LASTING IMPRESSIONS,5552 MANOTICK MAIN ST,26/03/2024,45.2245773,-75.6834564,,,
7d369446-ff93-4e74-a639-39adc75e5afe,LAURA SECORD,100 BAYSHORE DR,27/02/2025,45.3469493,-75.8065581,,,
bb204111-73cf-4345-945f-a2126dcfce35,LAURA SECORD,2121 CARLING AVE,06/11/2023,45.3730814,-75.7682887,,,
201f0860-43ae-4cdc-8d84-a5f3050a43ad,LAURA SECORD,2269 RIVERSIDE DR,19/02/2025,45.3853232,-75.6794691,,,
b40c71e4-a082-4af6-83d2-a68ff9fbba10,LAURA SECORD,110 PLACE D&#39;ORLEANS DR,03/11/2023,45.4781702,-75.5155527,,,
0489ed44-3ed8-4a38-8576-c095828b7f2f,LAURA SECORD,1200 ST. LAURENT BOULEVARD,30/05/2023,45.4219466,-75.6387057,,,
49cb455f-19a2-4325-9b6e-65bb9b10ec1c,LAW &amp; ORDERS,2284 TENTH LINE RD,30/04/2024,45.4516361,-75.4831349,,,
c68d38ad-b39b-40ee-bbba-0b4caa949a4a,LAW AND ORDERS,220 TERENCE MATTHEWS CRESCENT,13/03/2025,45.2861186,-75.8754277,,,
23565749-baed-45cb-a45e-6398efeb8c5b,LAZY PANDA,174 RIDEAU STREET,15/09/2025,45.4274075,-75.6894075,,,
2c79f327-3bf3-4935-94a8-f7eef9047ef3,LE BLEU,164 LAURIER AVE W,05/03/2025,45.4202298,-75.6945294,,,
a7c958a3-3da3-4083-843b-586d1684024d,LE MIEN,43 WILLIAM ST,15/10/2025,45.4278057,-75.6921065,,,
6c386888-30cf-4f91-a927-89a3c3514ba3,LE MONDE,99 BANK ST,09/12/2025,45.4204966,-75.7000906,,,
b43f3819-5b66-4b2a-b327-861050724777,LE MOULIN DE PROVENCE INC.,55 BY WARD MARKET SQUARE,23/10/2025,45.427449,-75.6923646,,,
3684f9a6-51e0-47b4-8aed-00758295e976,LE PETIT PARIS,150 KATIMAVIK RD,07/10/2025,45.3123935,-75.8958416,,,
c223c7c9-4e24-49a2-b4ac-712fa217b26e,LE POKE STATION,151 SECOND AVE,12/11/2025,45.4036097,-75.6893479,,,
ac154c6a-8336-4f68-912e-be3bfe5c7d71,LES MOULINS LAFAYETTE,1000 WELLINGTON ST W,02/10/2025,45.4051191,-75.7228743,,,
03e334a0-56dd-4d4f-80b7-f6e8521794ba,LIAM MAGUIRE&#39;S,1705 ST. LAURENT BOULEVARD,15/09/2025,45.4043293,-75.6260111,,,
638e0e88-c164-452e-ba0f-c0dc33acd21b,LINDT &amp; SPRUNGLI,8555 CAMPEAU DR,13/11/2024,45.2974669,-75.9416792,,,
1e11c30e-7c88-493e-84a4-de68d7c03265,LIONHEARTS INC,119 IBER RD,17/10/2025,45.2773152,-75.9035844,,,
eefd31d0-29b4-4241-a4d7-86d5052b95f5,LITTLE GOT TALENT,1488 STITTSVILLE MAIN ST,20/10/2025,45.2589783,-75.9220978,,,
a980cb17-fd60-4175-9c43-a5ca627fd534,LIUYISHOU HOT POT,1568 MERIVALE RD,12/12/2025,45.3516736,-75.7348186,,,
49d2685e-5bad-4a98-ae9a-e41db84930c1,LOIS N FRIMAS,71 GEORGE ST,30/04/2025,45.4274075,-75.6916299,,,
b205988d-e8ab-41dd-b550-0ae0307784ce,LOKMA,1910 ST. LAURENT BLVD,22/10/2025,45.3982352,-75.6237995,,,
59b2dcbf-eca6-4831-aa03-32209b6fa7cf,LOKMA,471 TERRY FOX DR,07/01/2025,45.31243,-75.93349,,,
24ea1d59-a6cf-4b63-a972-0dd235644b8f,LOLLIES AND SCOOPS,1160 BEAVERWOOD ROAD,18/11/2025,45.2235963,-75.6847232,,,
88838bd7-08de-4dad-8e6d-3995a1c5f402,LORENZO&#39;S KANATA,100 CASTLEFRANK RD,21/10/2025,45.293711,-75.8818123,,,
3e42f52f-025f-4d46-9723-a4a02acf6dbd,LUCKY DRAGON DELIGHT,6081 HAZELDEAN RD,26/09/2025,45.2724542,-75.9329283,,,
11156ada-18c6-481b-9fac-e4640836371e,LUCKY KEY,1896 PRINCE OF WALES DR,06/03/2024,45.3538415,-75.7048504,,,
114b9cb2-4696-4260-b72f-a65eaa94740c,LUCKY PANDA,3023 CEDARVIEW RD,24/11/2025,45.2660293,-75.7713906,,,
5ec7b876-2332-4b9c-ac7d-b23445008ad0,LUCKY R CONVENIENT,375 &#207;&#191;&#189;PINETTES AVE,09/08/2024,45.4661877,-75.4957745,,,
7a1b62d3-9bdd-469f-b8f3-077afaafb5cd,LUMBERJAXE,250 CITY CENTRE AVE,25/07/2025,45.4082825,-75.71878,,,
63ed3a7d-9c82-4730-8093-d22a12c1b6b9,LUNCHBOX,5929 JEANNE D&#39;ARC BLVD S,11/12/2025,45.4642238,-75.5410521,,,
8c9b2413-d3f9-4e76-9697-ba36be76a69f,LUNCHINHO,70 BONGARD AVE,04/03/2025,45.331395,-75.7144086,,,
292be5d1-ee5c-4500-be87-97bdf2f5228c,LUXE,47 YORK ST,02/09/2025,45.4282706,-75.6934644,,,
1c373076-4d51-43a0-93a9-de30e4c074ca,LYNDALE CORNER,60 LYNDALE AVE,02/10/2024,45.4071673,-75.7308767,,,
e67cb5ce-7171-4075-a36e-b83eedd7217b,MACARTNEY&#39;S FARMS,1481 MICHAEL ST,10/07/2024,45.4144833,-75.6263015,,,
d0751bb7-45bd-4470-bc34-3c1ed01c3f37,MACHBOOS,1710 BANK STREET,04/11/2025,45.3748958,-75.6661191,,,
e320a24a-426b-41a1-8e65-20298e55dd9b,MACHI MACHI OTTAWA,49 WILLIAM ST,16/05/2025,45.427723,-75.6920509,,,
6000c997-31c1-4d9e-b2a2-2a62781f3475,MAD RADISH,34 HIGHBURY PARK DR,26/09/2025,45.2773898,-75.7497506,,,
a489bf9e-456d-4da9-a897-bbeff8f68cc4,MAD RADISH - ORLEANS,2026 TENTH LINE RD,15/07/2025,45.4591627,-75.4883327,,,
00ce82ed-29a1-4a2a-9262-b86f8f3c7197,MAGIC FRYER,330 COVENTRY RD,07/05/2025,45.420026,-75.6507,,,
92c700af-8322-4371-8170-6c1822d285ee,MAGIC OF THE EAST,3310 MCARTHY ROAD,10/09/2025,45.350496,-75.6718985,,,
b3fba7aa-884c-4317-986e-f3d3b57e2fe7,MAGS PLUS,420 RIDEAU STREET,12/03/2024,45.430465,-75.681326,,,
cdd05f39-8f6d-42b9-bcd5-a989f2176a76,MAHAL TANJORE,108 THIRD AVE,20/11/2025,45.4030767,-75.6876111,,,
e07ea716-a5ea-4f3f-9bc7-af431220f8eb,MAKER FEED CO.,2607 OLD MONTREAL RD,22/10/2025,45.5177296,-75.4045832,,,
89241653-2b60-4d95-941c-83eb469b106c,MALABAR HOUSE,2194 ROBERTSON RD,17/12/2025,45.3187573,-75.8401724,,,
c3f8b26d-dcbe-490a-9147-eb96c4064b62,MAMA MAI,100 BAYSHORE DR,12/02/2024,45.347237,-75.8068316,,,
296ae2a9-c670-4b58-b90f-7eb91d071d58,MAMIE CLAFOUTIS,400 RICHMOND RD,03/10/2025,45.3906403,-75.7566312,,,
79a5fb6e-94a9-496d-9d7a-48556a23015e,MANDARIN BISTO,12 LEBRETON ST N,18/03/2024,45.4097066,-75.7094866,,,
0e2e43ef-0c81-4521-988e-93496247e142,MANDY&#39;S SALADS,581 BANK ST,19/09/2025,45.4079674,-75.6909854,,,
05a0d6f1-707f-4b32-a822-77e001dbad24,MANHATTANS,240 SPARKS ST,27/02/2025,45.420296,-75.7024018,,,
363639a4-3e7a-4a8e-9df2-bff8ea2f7f7e,MANHATTANS,320 QUEEN ST,01/12/2025,45.4190986,-75.7034209,,,
3f0b7ee7-4dd9-49b3-932a-a01ca40fd099,MANOTICK NATURAL MARKET,1136 TIGHE ST,13/03/2024,45.2254574,-75.6833423,,,
47406e4e-e66a-481d-a0c0-1e95d5aaada0,MARCH&#207;&#191;&#189; HINTONBURG MARKET,1059 WELLINGTON ST W,26/03/2025,45.4039768,-75.724614,,,
5fc37252-9160-4361-b0fe-beadec3faa46,MARCHE ALI,375 DES &#207;&#191;&#189;PINETTES AVE,06/08/2025,45.4661877,-75.4957745,,,
f0b3b07d-a4fd-4c3a-b116-4d344cda5ae7,MARGO XPRESS,1563 BANK STREET,23/10/2024,45.3797472,-75.6678404,,,
15d81a06-cebe-48cc-b395-ffa5cb1f5059,MARGOFRESH,566 GLADSTONE AVE,02/04/2025,45.4092881,-75.7001909,,,
6a9be223-c089-42b3-9d37-a723391c63e3,MARIA&#39;S TACOS,221 RIDEAU ST,08/10/2025,45.4279358,-75.6881561,,,
711290ec-27a7-415f-8b40-c177a0590180,MARKIE&#39;S MONTREAL SMOKED MEAT,3905 INNES RD,09/12/2025,45.4539118,-75.5101657,,,
af5a51de-90c8-4d33-874f-bf3a18ba3ac9,MATI INC,428 PRESTON ST,18/12/2025,45.4000064,-75.7093793,,,
0602599a-70da-4ef9-bdb6-2f8df149e3e6,MAVERICKS CITY GRIDWRKS,221 RIDEAU ST,16/04/2025,45.4279358,-75.6881561,,,
5930d80c-0689-4e0b-967f-034ebd9e5d19,MAYA MARKET INC.,197 NORICE ST,24/01/2025,45.3397168,-75.7540739,,,
2ccd9b62-9f48-45ec-945f-18882985654a,MCDONOUGH&#39;S Y.I.G,3777 STRANDHERD DR,19/11/2025,45.2679703,-75.7478799,,,
fffb2f9d-57e1-436a-9b92-d4f0fa7d739d,MEHFIL,790 SOMERSET ST W,28/08/2025,45.4096854,-75.7100071,,,
5a311ee5-6a29-41fd-8846-a3b65ff939a9,MELT,2385 CITY PARK DR,12/02/2025,45.4314717,-75.6135189,,,
46626124-bd1e-4fa0-9a99-9d39c0a637d1,MEMAWS,2164 MONTR&#207;&#191;&#189;AL RD,19/11/2025,45.448597,-75.5893834,,,
b1e68677-df6c-4519-b13c-8c51bcc69d21,MERCADO LATINO,67 MONTREAL RD,30/04/2024,45.4337466,-75.6680196,,,
c4eb7213-0a89-4e2b-974b-a4c54f7b8882,MERGI SHOP,382 RIDEAU STREET,10/01/2024,45.4297893,-75.6827599,,,
dc1c999f-f1bf-4d4d-b4c0-9e0a465add19,MERYENDA,1448 PRINCE OF WALES DR,09/04/2025,45.3678668,-75.7016339,,,
d8994e73-d79e-47fa-b081-3a65a1963038,METRO,2515 BANK ST,09/06/2025,45.3542812,-75.6459712,,,
be1fdbc0-afe3-4729-b67d-42c6085cde25,METRO,6509 JEANNE D&#39;ARC BOULEVARD,18/03/2025,45.4792189,-75.5364444,,,
beebc26c-ef39-4a41-859e-9e1a8933241d,METRO,1675 TENTH LINE RD,17/10/2025,45.4808144,-75.4991239,,,
c33eb007-208f-42a6-b510-a4c1238bf95c,METRO,490 INDUSTRIAL AVE,04/12/2024,45.4115186,-75.6480198,,,
3664f7f6-a508-4a5d-b5f0-ce838e851104,METRO,3310 MCCARTHY RD,07/08/2025,45.3509205,-75.6715479,,,
91f9c686-7bb0-423a-9c11-d18a63fd9178,METRO,2261 WALKLEY ROAD,31/10/2025,45.3888755,-75.6178195,,,
23a320dd-82c7-480f-91f4-e3495a7737b7,METRO,2636 INNES RD,10/11/2025,45.4317186,-75.5635089,,,
a1fc8fd8-9f17-4bc4-bbeb-e6fbc249b1ea,METRO,4510 INNES RD,24/10/2025,45.45995,-75.4898379,,,
42321fcb-026b-4bb8-bd7f-b5855209caeb,MEWS DOLLR DAZE,1160 BEAVERWOOD RD,23/09/2024,45.223509,-75.6846823,,,
b4ce39e2-3cd9-4885-838c-ca0bf233e75f,MEXI&#39;S,1001 QUEEN ELIZABETH DRIVEWAY,05/11/2025,45.3963486,-75.7057019,,,
2efcb609-dd01-48ec-bcd7-138c097ca659,MEXICALI ROSA,540 W HUNT CLUB RD,26/09/2025,45.3330368,-75.7266581,,,
f69b514e-6111-4046-9cb3-46a31783c711,MICHELLE HEIGHTS CENTRE,2955 MICHELE DR,24/10/2024,45.3546299,-75.8021083,,,
e2134507-b353-4d03-b0aa-a3e835305be8,MILKY WAY,55 BYWARD MARKET SQUARE,01/07/2025,45.4274508,-75.6923695,,,
b042cfde-1af3-4459-a24e-dad7e56b48ff,MILKY WAY,2786 LANCASTER RD,19/06/2024,45.3945962,-75.6054865,,,
9126a7a6-16a5-4058-a099-804cc51d53d2,MINI MARCELLO&#39;S,345 PRESTON ST,12/09/2025,45.4022087,-75.7102523,,,
e60e0ebe-1aff-47c1-a4c2-4e9e44a7a540,MINISO,100 BAYSHORE DR,10/10/2024,45.3469493,-75.8065581,,,
8e011890-e013-47e6-9696-173ae9b9c90d,MISS BEAN,87 MURRAY ST,01/05/2025,45.4298548,-75.6936677,,,
2ed1627b-521e-4855-b8b3-b65a7b1e8d68,MOBIL,1970 OGILVIE RD,27/01/2025,45.4334051,-75.6126527,,,
11ae3353-8ff6-4292-b5c5-f758774bf691,MOONEY&#39;S BAY EARLY LEARNING AND CARE CENTRE,2826 SPRINGLAND DR,06/01/2023,45.3626859,-75.6850847,,,
5bec7550-c444-439b-bcbb-17309e7dd131,MOOSE MCGUIRE&#39;S,3320 MCCARTHY,20/03/2025,45.3507771,-75.6708455,,,
1e04a466-2c14-4587-8be4-aaae19bf2886,MOOSE MCGUIRE&#39;S,4025 INNES RD,17/10/2025,45.4557705,-75.5065113,,,
30719a1d-7fca-44e5-af19-a200aea8a0b3,MORNING OWL COFFEEHOUSE &amp; PARLOUR,229 ARMSTRONG ST,09/01/2025,45.4019532,-75.730236,,,
461d5204-931c-4060-bff6-0382bf22a74b,MOSAIC CONVENTION AND WELLNESS CENTRE,2465 ST. LAURENT BLVD,24/02/2025,45.3808349,-75.6273885,,,
ab4c6faa-1d29-4129-ba24-e0cacb7b4dd0,MR KAAK,1020 PLEASANT PARK RD,11/08/2025,45.3952388,-75.6222261,,,
86d69657-a4f7-4f1d-bbc5-7a8525085837,MR MOZZARELLA,6601 FOURTH LINE RD,14/02/2025,45.1318832,-75.7162002,,,
ebbc9dcb-2f22-4dfc-a2f8-df5b72018a66,MR POKE,196 JEANNE MANCE OTTAWA,05/07/2023,45.4330576,-75.6616547,,,
f086d23f-fc4b-4ef9-a562-460e3895c5d8,MR. B&#39;S,2446 BANK ST,05/11/2025,45.3528026,-75.6464531,,,
82d260a8-4d71-4675-a967-0b49cf2919b4,MR. CHURRITOS,1525 PRINCESS PATRICIA WAY,26/04/2024,45.4007752,-75.6823441,,,
fa6023dc-dde1-4b9b-bd51-5bc18a14b694,MR. GAS,4042 INNES RD,15/08/2023,45.4551013,-75.5051859,,,
9d8dfe84-0250-4584-b3c9-e582b06c5688,MR. GAS,980 CAMERON ST,30/07/2025,45.5178264,-75.4113195,,,
b33726ec-265e-4262-809a-3eeca2687f82,MR. LAZIZ SUBS &amp; SHAKES,868  MERIVALE ROAD,26/08/2025,45.3845715,-75.7327753,,,
852bcf0a-810c-44ae-a1d7-3ca82571ae65,MR. LUIGI&#39;S,1105 COBDEN RD,23/01/2025,45.3529809,-75.7780019,,,
88041931-e126-400b-bb2e-23ba09b46224,MR. MANGO TEA &amp; JUICE,32 BYWARD MARKET SQUARE,11/09/2024,45.4277157,-75.6929794,,,
2aafb952-e79f-4508-ba66-5c8e29a102f6,MR. PUFFS,3890 INNES RD,01/10/2025,45.4535597,-75.5084574,,,
b58e1174-be72-497b-86bc-a528db8ff5b0,MR. PUFFS,200 MARCHE WAY,10/09/2025,45.3998185,-75.6843656,,,
35335175-2ca8-49f4-ae7b-cf8821fe4dd2,MUCKLESTON &amp; BROCKWELL,127 BEECHWOOD,16/10/2025,45.441975,-75.672293,,,
f0509497-e22b-4088-9295-bc3ff2b9bf5d,MUNCHEESE N&#39; MORE,1 HOBIN ST,19/01/2024,45.2647162,-75.9292944,,,
0d0dd644-f32e-450f-b2cd-147fbde2299b,MUNCHIES,8154 JEANNE D&#39;ARC BLVD N,27/03/2023,45.4875472,-75.5116649,,,
c8cb6bfd-b4b2-4349-a52b-ee54beb7186f,MUNCHIES N&#39;MORE,414 MCARTHUR AVE.,14/04/2025,45.4319595,-75.6480308,,,
ebf14115-5a54-4458-b00f-2fc18f6944ec,MY CHOC-O-LA,1054B OGILVIE RD,20/10/2025,45.4248109,-75.6346508,,,
bde9c2e1-df50-44e3-979a-3990828a76e3,MY CHOC-O-LA,2039 ROBERTSON RD,11/03/2025,45.3239552,-75.8300682,,,
53fff744-734b-44e8-8b32-8a6836a3d0f6,NAMASTE OTTAWA,1766 CARLING AVENUE,14/11/2025,45.3774413,-75.7534455,,,
4a8a163f-2a28-4322-b4b3-a087d15d5202,NANA&#39;S DELICACY,175 MCARTHUR AVE,29/11/2023,45.4320192,-75.6628052,,,
21d18462-9aca-4978-b211-3eb5eb1606eb,NARU,1896 PRINCE OF WALES DR,19/11/2025,45.3537805,-75.7048723,,,
c069bf2d-8d70-4265-a9fa-1551a780458d,NATIONAL ARTS CENTRE-GREENROOM,1 ELGIN ST,25/05/2023,45.4231893,-75.6939477,,,
e9db48f4-6720-48ad-ae4e-87851cf77083,NEW CHINA,2184 LAMIRA ST,03/12/2025,45.3866512,-75.6708811,,,
06c600de-3a31-48c5-bc53-3e0f6a3c8c03,NEW HONG KONG TAKE OUT,1433 WOODROFFE AVE,26/09/2025,45.3419357,-75.7560521,,,
f986d862-85f8-4d5a-b8d3-060887b78f0f,NEW MOUSSA MINI MARKET,300 MCARTHUR AVE,19/04/2023,45.4314481,-75.6559184,,,
fb508704-5627-494d-b4e0-91cbc2a627dc,NEW TOWN TAKE OUT,1022 PLEASANT PARK RD,12/12/2025,45.3952643,-75.6221558,,,
4b88ebf6-d799-46ad-b508-ebdc87454c5e,NEWS BREAK INC.,181 BANK ST,03/04/2023,45.4187923,-75.6975272,,,
b69fc3d6-582c-4cac-9c3e-8449fa1f9ded,NO.1,988 WELLINGTON ST W,14/10/2025,45.4056266,-75.7227045,,,
3449f477-a471-4942-bf60-99082cd6355a,NOODZA,101 SCHNEIDER RD,11/07/2025,45.3392303,-75.9020217,,,
290293c9-e663-448f-b02e-907cc3cbd1fe,NORCA,30 DALY AVENUE,24/10/2025,45.4256047,-75.6880177,,,
0fdae6fb-87fb-40f1-9abf-48d294b8650f,NORTH AF MARKET,103 MANN AVE,09/12/2025,45.4211628,-75.6724142,,,
e6f26dd7-14f5-4782-898e-bad7d17ee25a,NORTH STATION,5556 MANOTICK MAIN ST,21/11/2025,45.2241607,-75.6835864,,,
3c8185e4-114d-4507-8388-8b52d88c1812,NOTE,297 DALHOUSIE ST,19/12/2024,45.4297825,-75.6916745,,,
18e81427-2165-460f-8a95-4ec39a43cf22,NOTRE DAME CATHEDRAL BASILICA,385 SUSSEX DR,25/07/2023,45.4299092,-75.6962076,,,
93dd2b5e-0bae-4af0-bba1-a699f20f150f,NUTCASE,380 BANK ST,08/03/2024,45.4137136,-75.6952701,,,
1ea82ccd-1988-4219-bed0-831bc42e82e0,O C C D S B HEAD QUARTERS,570 WEST HUNT CLUB RD,23/01/2023,45.332593,-75.727587,,,
a5c3f91a-ea81-4bb3-b4c6-23200ce25b23,O-FRANGO,151 LAURIER AVENUE EAST,14/08/2025,45.42482,-75.6846245,,,
266521fa-a615-44f5-9b40-f739f1e74ac7,O-FRANGO,769 GLADSTONE AVE,08/10/2025,45.4070461,-75.7060148,,,
b23297e5-1620-4e28-9dd5-79b0104e51c6,O&#39;BRIEN&#39;S CORNER,1785 KILBORN AVE,03/12/2023,45.38807,-75.6456814,,,
dc91138a-39bd-4b06-9167-9ab19a4563ac,O&#39;GRADYS OUTPOST,25 TAPIOLA,30/10/2025,45.3640092,-75.6466335,,,
bdd565f2-a13f-488b-981c-f53aa5a73033,OCISO LINC,1800 BANK ST,20/11/2024,45.3720118,-75.6648764,,,
a7e81780-6882-423b-b864-95d2dc85c946,OFF THE HOOK,1480 MERIVALE RD,02/08/2024,45.3601646,-75.7359062,,,
04978af8-5ace-487e-b2dc-25359ec14bf7,OFFSIDE,1565 MAPLE GROVE RD,17/11/2025,45.2974897,-75.9091192,,,
2a975a88-480a-4abb-9cff-34e69b79578a,OH SO GOOD,54 BYWARD MARKET SQUARE,21/10/2025,45.4273124,-75.6926693,,,
7a960a51-066b-4ff4-a733-270fc43209fc,OLD FASHIONED FUDGE,110 LAURIER AVE W,02/05/2025,45.4208085,-75.6899964,,,
766de026-2045-44d6-82a4-4249bd2484ec,OMENYA DISTRIBUTION,1722 MONTR&#207;&#191;&#189;AL RD,23/05/2023,45.4458268,-75.6108064,,,
2cb05df8-326f-40cf-b9c7-169570891ec1,ON RICE,248 KENT ST,15/10/2025,45.4160066,-75.7000679,,,
7a1121ea-a8ed-4842-9061-8da0c8674746,OPERATION COME HOME,150 GLOUCESTER ST,03/12/2025,45.4182106,-75.6972766,,,
a1bc203a-07a8-4416-bb2c-b4cfaa3f8d8e,OPTIONS,1950 MERIVALE RD,14/01/2025,45.3263894,-75.7199704,,,
2d239671-2671-4d99-8fa7-fa08f6e76fe4,ORANGE MONKEY,250 CITY CENTRE AVE,27/01/2025,45.4096058,-75.7170858,,,
9821c839-eabb-4d22-a1bf-04d029be3fb2,ORLEANS CRAFT BEER FESTIVAL,255 CENTRUM BLVD,07/06/2024,45.4807315,-75.5098894,,,
2f1e85b0-794e-4df6-8eca-31fc8b057103,OSGOODE CARE CENTRE,7650 SNAKE ISLAND RD,07/10/2025,45.2218791,-75.5038466,,,
3fcfedbd-92d9-47ab-b344-9c5f11cfae8a,OSMOWS,1282 TRIM RD,13/12/2025,45.4903501,-75.4791145,,,
f14218b3-d828-4db1-b93b-2d72336fede8,OTT DOG,50 BEECH ST,08/07/2024,45.40091,-75.7081585,,,
4be5d059-5a71-4da5-8e1a-d8f63add6722,OTTAQ QUISINE,408 DALHOUSIE STREET,17/10/2025,45.4265278,-75.6894165,,,
24cfa8ea-bb0c-4ac4-b4f5-c0afe5161170,OTTAWA BAZAAR,323 MONTREAL RD,14/02/2024,45.4376514,-75.6577594,,,
ee9fe34c-5a80-4f63-ae21-a296bd27a181,OTTAWA BIRTH AND WELLNESS CENTER,2260 WALKLEY ROAD,11/09/2024,45.3894766,-75.6160443,,,
97ca9c96-c3df-4e4f-940b-023790c99cff,OTTAWA CARLETON DETENTION CENTRE,2244 INNES RD,26/11/2025,45.424327,-75.5796609,,,
510e093c-fb1f-414a-8091-6e9d62ea534d,OTTAWA MASONIC CENTRE,2140 WALKLEY ROAD,25/06/2025,45.3859075,-75.6232565,,,
8e844360-9f56-4bd1-ba4f-f034fd5bf482,OTTAWA NAAN -15589142 CANADA INC,64 BEECHWOOD AVE,14/11/2025,51.590434,-0.193782,,,
0c5d0c40-d421-45ad-b0bb-15f33fdc5fd5,OTTAWA NEPEAN CAN. SPORTS,1125 COBDEN ROAD,06/06/2024,45.3523889,-75.7777383,,,
a4c8e000-6b8d-4087-9730-ab4d7caaee83,OTTAWA STREET MARKETS,18056  GASPE AVENUE,06/06/2025,45.4556209,-75.6534675,,,
0f460530-a17a-42d2-9d3c-435ae92e40a7,OVER RICE,853 BOYD AVE,18/09/2025,45.3765894,-75.7506272,,,
cf34e7a9-2bd5-4d5a-9235-8414fb28aaf7,OZ DOME,221 WESTBROOK RD,03/11/2025,45.2733176,-75.958159,,,
80957f77-848c-47fd-8b18-873d044b4bf4,OZAN MARKET,500 EAGLESON RD,04/03/2025,45.2908396,-75.8706811,,,
ba51ccba-9fe5-4546-b5b4-969f4c52ea85,PANINARO,8 O&#39;CONNOR ST,03/09/2025,45.4223155,-75.699613,,,
cb9ec092-402e-4fe8-953c-be1c8b7624ee,PANTRY PLUS,2433 ST. JOSEPH BOULEVARD,28/03/2024,45.4699138,-75.5284557,,,
44bc8fed-8b0f-4287-9d24-8a8eaa456fa4,PAPA SPICY - SHUYI TEALICIOUS CANADA,366 DALHOUSIE ST,29/09/2025,45.4276233,-75.6902976,,,
d37540d5-563b-4ceb-88ff-94fe60b75883,PARADISE POKE,134 BANK ST,05/02/2025,45.4191262,-75.6998058,,,
23b290b1-aaf8-4e1e-8440-dcccfca4f9b5,PARADISE POKE,118 HOLLAND AVENUE,02/04/2025,45.4000083,-75.7322859,,,
7521f9bd-919b-4dcb-ad3d-cb24c9d95a31,PARLE -VIET FRESH - SPOON MII,313 DALHOUSIE ST,05/12/2025,45.4292828,-75.6913001,,,
d173201d-e724-480a-a579-d822e201feb9,PARLIAMENT SOUVENIR  &amp; NEWS,13 METCALFE STREET,08/07/2024,45.4231545,-75.6971884,,,
ec01b6e7-8380-4e17-bd67-01b0d1604b43,PATRICK&#39;S QUIK STOP,5531 OSGOODE MAIN ST,30/01/2024,45.1451266,-75.6086643,,,
334e615d-da9b-4e4e-8e57-e750f937b4fb,PELICANA OTTAWA,1508 MERIVALE RD,06/08/2025,45.3567334,-75.7378655,,,
afa164c8-1d27-4fca-8da5-af7893412114,PEPPER HOUSE,143 PUTMAN AVE,26/09/2024,45.4423021,-75.6716235,,,
1fc45916-4272-4496-a35f-90e5d8e2be7c,PEROGIES TAKE OUT,1129 BAXTER RD,29/10/2025,45.3508154,-75.7820707,,,
aaa6453e-d795-4ba8-9bbf-17a081da1cc3,PHILTHY PHILLY&#39;S OTTAWA,50 BYWARD MARKET SQUARE,29/09/2025,45.427361,-75.692785,,,
e900ba53-22a5-49f5-8821-2af7cd7e395c,PICCOLO GRANDE,55 MURRAY ST,28/04/2025,45.4295399,-75.694502,,,
e1d9bdcf-5b2b-4363-bdee-3397dde9c835,PIGGY MARKET,401 RICHMOND RD,10/12/2025,45.3910207,-75.7567297,,,
54fede13-1412-48b3-b90f-2496ce0968a2,PILI PILI,205 DALHOUSIE ST,20/07/2024,45.4319946,-75.6936263,,,
d6a140e6-d93c-4267-8c61-d29107a2a892,PILI PILI,205 DALHOUSIE ST,03/09/2025,45.4319946,-75.6936263,,,
04b52da0-ee0f-4d57-af90-2159ec268b34,PIONEER ENERGY,590 MONTREAL ROAD,14/03/2024,45.4416383,-75.6441817,,,
e71ada80-7c56-4133-abe1-494fd19463a8,PIONEER ENERGY,2688 ST. JOSEPH BOULEVARD,03/03/2025,45.471493,-75.5228848,,,
c186880d-e52f-4a99-bc9c-90cdc2b70a30,PIONEER ENERGY,2931 BANK ST,23/08/2025,45.347975,-75.625072,,,
4a43da60-1fbb-4de8-bbca-6ab4914bde18,PIRHOS,81 RIOCAN,12/09/2025,45.2697988,-75.7412208,,,
d0958a5d-2656-436e-aee5-c7bb23c5200f,PISTACHIO CHOCO,50 RIDEAU STREET,08/12/2025,45.4246936,-75.6907319,,,
a7783368-e00a-401e-b721-f85dc455e107,PISTACHIO CHOCO,1666 BANK ST,10/03/2025,45.3763586,-75.6668962,,,
431104e5-f538-4c65-91bd-ffe2b96a5a89,PIVIK,85 UNIVERSITY PRIVATE,31/01/2024,45.4225565,-75.6833275,,,
4b9128f3-c085-482b-9126-c6d3e5fe0caa,PLATE GASTROPUB,402 QUEEN ST,12/06/2023,45.4176922,-75.7066967,,,
bd2f986f-6bcc-4f6a-bbba-0d3580346029,POA,281A DALHOUSIE ST,23/10/2025,45.4300557,-75.691978,,,
f26794ef-c328-4150-9526-a8999d8a4443,POCO PAZZO,6081 HAZELDEAN RD,17/10/2025,45.2726573,-75.932554,,,
37567328-6a3b-485c-8939-9e8cffcbe110,POMONAS,191 SPARKS ST.,01/12/2025,45.4218888,-75.7005972,,,
ce99666f-003e-4b8a-b143-47218f4c3bfe,POULET ROUGE,100 BAYSHORE DR,10/01/2025,45.347237,-75.8068316,,,
3e662913-ac9e-4597-8cb2-83baabde0fa9,POULET ROUGE,1200 ST. LAURENT BOULEVARD,20/03/2025,45.422188,-75.638396,,,
213273aa-1dee-4b65-a331-d01d3182a207,POULET ROUGE,50 RIDEAU STREET,03/12/2025,45.4252795,-75.6929819,,,
93a744d8-3783-499b-9909-6aa41a360be2,PREMIERE MOISSON,120 UNIVERSITY PRIVATE,06/10/2025,45.4216965,-75.6838623,,,
eb67ef05-d578-4930-9cf1-0ed6aeb9d9a3,PRESOTEA,1200 ST. LAURENT BLVD,10/09/2025,45.4219466,-75.6387057,,,
799cd2a3-044f-4efa-a9a8-7219c31e6115,PRESOTEA,100 BAYSHORE DR,25/09/2025,45.347237,-75.8068316,,,
57bd3454-4d52-4b61-9d04-b81b086f1089,PRESOTEA,3940 INNES RD,09/12/2025,45.4539866,-75.5079847,,,
d1a286f1-e93d-42e2-aca1-bef706d8fad9,PRESOTEA,129 RIOCAN AVE,04/09/2025,45.2690063,-75.7395101,,,
bc78540b-2e98-4495-b240-32821ac6ab55,PRESOTEA WESTBORO,352 RICHMOND RD,13/01/2025,45.3917411,-75.7543818,,,
8596eb12-3c11-42de-8ffc-b853ccdba25f,PRESTON NEWSSTAND,347 PRESTON ST,10/05/2024,45.4020188,-75.7100954,,,
c762d2f9-bb0a-440c-81e1-5b6ad5f8c8c9,PRODUCE DEPOT,2446 BANK ST,23/01/2024,45.3527295,-75.6469545,,,
ea58ae63-3514-453b-8893-9d6d0ae2c2e2,PROVA - DELTA OTTAWA CITY CENTRE,101 LYON ST N,02/10/2025,45.4187219,-75.7040361,,,
f28caab8-7071-4863-9d85-74c1ae3d8853,PUBWELLS ON SUSSEX,431 SUSSEX DRIVE,26/08/2025,45.4289248,-75.6961062,,,
ce713f44-dbc6-4ec6-b2dd-ce75e6e00a7e,PUNJABI CHAAP CORNER OTTAWA,2446 BANK ST,24/07/2025,45.3524877,-75.6454879,,,
9da05819-eab3-4e49-86b1-3334fe003706,PUR &amp; SIMPLE,970 SMYTH RD,17/11/2025,45.4008868,-75.6241553,,,
5ca32de4-31e8-4ebf-a335-4d10107667a4,PUR &amp; SIMPLE,3101 STRANDHERD DR,12/08/2025,45.2755704,-75.7173602,,,
55180725-465a-48a6-bc28-3bdaec82ca69,PURPLE COW,111 COLONNADE RD,24/03/2025,45.3465137,-75.7025759,,,
63a1e0ba-d615-4d48-a51e-b35e776b03e6,PURPLE X,304 WILBROD STREET,15/08/2025,45.4274407,-75.6805,,,
e7353f6c-cac0-4ba2-96e1-3c8910953c93,QAISAR&#39;S,1531 ST. LAURENT BLVD,12/04/2024,45.4117066,-75.6297063,,,
f2e2043d-7032-455d-b494-e34369dba23d,QUE PASA TACOS,2280 CARLING AVE,12/05/2025,45.3681388,-75.7743721,,,
9db0b908-bb3f-4137-94cb-2d279be417bf,QUELQUE CHOSE,70 GEORGE ST,09/02/2024,45.4269536,-75.6918336,,,
13fcc166-ff1c-4d7b-8e90-86915d4aef65,RANG DE OTTAWA,700 MARCH RD,15/10/2025,45.3501092,-75.9243828,,,
51c90290-7e0c-45e0-9f51-f827b31578d8,RANGOON,634 SOMERSET ST W,06/10/2025,45.4118591,-75.7045301,,,
6f5092cb-7b1d-4497-966a-1c6c908cbb49,RED DOOR PROVISION,2920 SHEFFIELD RD,24/04/2025,45.3957983,-75.6017254,,,
04f01d8f-46a8-4880-8bad-144d93ca74ad,RED DOOR PROVISIONS,1155 LOLA ST,07/08/2025,45.4228895,-75.6501788,,,
d6876138-4feb-4f94-b8c8-db5ca4814523,REGGAE ROOSTER,321 SOMERSET STREET EAST,21/03/2024,45.4246294,-75.6743098,,,
fdcdb874-cf3f-4825-8542-ace947aa8c34,RELAY - ARRIVAL,1000 AIRPORT PKWY PRIVATE,19/11/2024,45.3223629,-75.6672958,,,
43476e17-cc63-4cfb-9f89-15fbbcfb8822,RESTO KENA613 INC,B-375 ST,09/12/2025,45.4486105,-75.6507178,,,
862cdae5-91d4-4357-a1eb-e2d18a27980d,RICE &amp; ROLL,234 QUEEN ST,08/12/2025,45.4226113,-75.696026,,,
1fd3a1c6-3ca5-4a69-bb30-153f4c64688c,RICHELIEU CENTRE,300 DES PERES BLANCS AVENUE,07/10/2025,45.4437938,-75.6594659,,,
673bb5ec-4a27-41b4-a873-da7fd7e005d8,RIDEAU CARLETON ENTERTAINMENT CENTRE - CONSTANT GRIND,4837 ALBION RD,23/02/2023,45.294921,-75.607835,,,
905d5894-8b32-4e36-a1f7-003322cf4331,RIO ACAI,1200 ST LAURENT BLVD,03/01/2025,45.422514,-75.6392566,,,
c2352fd3-6d2f-4442-9a68-c32e3b1dcd8e,RISTORANTE MARZITELLI,360 ELGIN ST,20/01/2023,45.4152918,-75.6884525,,,
4114f6d4-7707-4452-b0a5-dd53447dbf9b,RIVERMIST EARLY LEARNING CENTER,989 KILBIRNIE DR,04/09/2025,45.23963,-75.73428,,,
e7c2c1ff-ceb9-4cfd-a019-c7b8bf4c2efd,ROAST&#39;N BREW,350 ALBERT ST,15/12/2025,45.4185627,-75.7034191,,,
56ef0a97-ab7a-4bb3-a4d5-1e5253ae0b1a,ROWAN,915 BANK ST,16/07/2025,45.4002059,-75.6866198,,,
01e4b18d-0609-407a-9253-e8af56aac691,ROYAL OTTAWA AUXIL KIOSK,1145 CARLING AVE,24/10/2025,45.3885381,-75.7298003,,,
0e4751b0-279a-48dd-8d35-0c33abc5eaf0,ROYAL OTTAWA KABBAH,1665 CYRVILLE RD,15/09/2025,45.418213,-75.6081073,,,
8241ea7c-6930-4ffd-8bc1-f78b73db5335,SA&#39;HARA,1716 MONTR&#207;&#191;&#189;AL RD,09/06/2023,45.4458879,-75.6111403,,,
98335be6-06b5-4e3a-9e26-f0e3a99ce48c,SAATOKDA,101 SCHNEIDER RD,09/12/2024,45.3392192,-75.901988,,,
86106783-7032-4819-9730-3b0f50c023ec,SABAYA SHACK,2285 ST,18/12/2025,45.3855009,-75.6138935,,,
e2566c72-57a3-4f67-83d5-8005e7e67ee4,SABOROSO,55 BYWARD MARKET SQUARE,01/07/2025,45.4274508,-75.6923695,,,
2a48e58d-e105-45d9-a107-df39dba1a2a8,SACHI&#39;S BEECHWOOD,18 BEECHWOOD AVE.,31/10/2025,45.4389741,-75.676833,,,
fc3d12de-94e9-489b-9655-df2b2d2046c2,SACHI&#39;S CITE COLLEGIALE,801 AVIATION PKWY,14/03/2025,45.4404753,-75.6263979,,,
fe4462f3-0883-45c3-a5b5-0c06f8e13efd,SACHI&#39;S MAURICE LAPOINTE,17 BRIDGESTONE DR,20/11/2025,45.2785525,-75.8589571,,,
6695b34a-bcd5-4cbf-ab85-10867d77ffc7,SADAQA FOOF BANK,174 COLONNADE ROAD,12/10/2025,45.3428972,-75.7137498,,,
152306f0-617e-4f11-a093-afc78c027296,SAFARI BUSINESS CENTRE,1792 BANK ST,22/10/2024,45.3723074,-75.6646746,,,
9d855800-948c-42ae-9184-ef2a67b9dc26,SAHARA DUNES,2090 ROBERTSON RD,28/07/2023,45.3220434,-75.8320653,,,
9ba8496d-e4b0-4f2a-95d5-320a7d8f5ccd,SAHARA MULTI CUSINE INC,2949 CARLING AVE,25/04/2025,45.3564905,-75.8026329,,,
f15a5fed-ed8d-4cbc-9c3c-59619dcedc2b,SALVATION ARMY BETHANY HOPE CENTRE,820 WOODROFFE,18/12/2025,45.368235,-75.7725565,,,
e7086ca6-bc72-4f94-acd4-55b92c0ccdbe,SALVATION ARMY BOOTH CENTRE,171 GEORGE ST,25/09/2025,45.4286755,-75.6891016,,,
68ac7978-394c-4a35-a390-4f3f2e6f33a1,SAM A FRUIT,1183 HUNT CLUB RD,29/08/2025,45.3529772,-75.6505394,,,
bbbe46a4-0aeb-4825-b185-005369448893,SAPPORO,1671 CARLING AVE,29/10/2025,45.3797388,-75.7493875,,,
199235c3-dc49-48d2-9cca-c76bc5e6362a,SAVOURY SWINE,729 GLADSTONE AVE,04/09/2025,45.407652,-75.7045187,,,
7e711b89-d797-4107-af1a-5386abd0802e,SCRUMPTIOUS,1610 STITTSVILLE MAIN ST,23/04/2025,45.2547656,-75.917057,,,
2ecdea47-c86a-48ec-8f23-35092d6c8e60,SEAR AND FRY,1533 MERIVALE RD,10/07/2025,45.3564112,-75.7362704,,,
4b29e783-ddb3-4a00-9cdb-c38ceed8bdf5,SEAU DE CRABE,2284 TENTH LINE RD,18/07/2025,45.4516361,-75.4831349,,,
88af5275-f0fa-4ef6-987b-28ff055ff92f,SECOND WIFE,511 BANK ST,10/10/2025,45.4100121,-75.6921749,,,
507a3cd9-8a55-4ba1-9b88-9606cc72229a,SELAM INJERA &amp;SIGA,590 GLADSTONE AVE,02/11/2025,45.4090045,-75.7008132,,,
75efa778-2b15-4725-b8b6-c25296c61286,SENAYT SHOP,1183 BANK ST,31/01/2024,45.3921405,-75.6814585,,,
38b100c6-71e6-4454-a3f8-b90a0ab59340,SEVEN TEA MILES,342 RICHMOND RD,09/05/2023,45.3919022,-75.7540164,,,
cc052aab-261d-4f3a-a277-cef4d107a72d,SHAFALI BAZAAR,55 BY WARD MARKET SQUARE,11/09/2025,45.427449,-75.6923646,,,
5fd60edf-91bb-4026-aa85-e84162182950,SHAKSHUKA,105B CLARENCE ST.,06/02/2025,45.4294686,-75.6923985,,,
02fcfa06-b403-42c9-9da7-8567829533de,SHANGHAI 360,100 BAYSHORE DR,05/12/2025,45.3469493,-75.8065581,,,
f5ef12b2-eb7e-4dc9-b738-9078ad6fd1dc,SHANGHAI 360,1200 ST.LAURENT,01/10/2025,45.4231604,-75.6394861,,,
d1b1a138-c89f-4b54-8fa2-fb354c058bc1,SHANGHAI 360,50 RIDEAU STREET,18/09/2025,45.4252795,-75.6929819,,,
b3d807ce-c7e7-4a25-a4c7-df7642f9b572,SHANGHAI ONE,1872 MERIVALE RD,03/09/2025,45.3334889,-75.724545,,,
155e3fe0-7dd5-4020-a31d-c286af181f68,SHARPFLE,111 YORK ST,04/09/2025,45.4293321,-75.6908627,,,
2c3e5cb6-da73-4a24-aa82-15b356a1e7e8,SHELL,2975 ST. JOSEPH BOULEVARD,29/01/2025,45.4759167,-75.5165289,,,
6fa01d85-84f5-45e6-8736-46381284fcaf,SHELL,1993 TENTH LINE RD,30/04/2025,45.4617146,-75.4875829,,,
9a62d29c-3beb-4f64-ad11-5e9ede71a39a,SHELL,3190 PRINCE OF WALES DR,11/01/2024,45.2868217,-75.7028558,,,
a861fc78-c36d-46a6-95a1-65adedb3e2ba,SHELL,2238 CARLING AVE,31/01/2024,45.3689217,-75.7733206,,,
4a3ae3fb-9bec-415b-a3f7-7a02556116b5,SHELL,473 TERRY FOX DR,18/11/2025,45.31037,-75.91947,,,
3ea54860-ffaa-43b5-99ea-b9f608b4aee9,SHELL,1440 PRINCE OF WALES DR,09/07/2025,45.3684868,-75.7017087,,,
39be0de8-d745-49bd-b67d-d6740ec75c27,SHELL,2145 CARP RD,08/11/2024,45.4614965,-75.48746,,,
9388b648-50c1-479a-ae95-dc0fbc3951e5,SHELL,2950 WOODROFFE AVE,30/11/2023,45.2915563,-75.7281769,,,
e9fcc489-88f7-4b2a-a273-e1bb5256022a,SHELL,106 EAGLESON RD,01/02/2024,45.3133698,-75.8824995,,,
d4c43911-4b20-46be-a227-ee2b366a6750,SHELL,720 MARCH RD,22/11/2023,45.3242017,-75.8771075,,,
2a3c5cc7-ca13-4da7-8afe-2962283b3e37,SHELL SELECT,5762 HAZELDEAN RD,13/03/2024,45.2811733,-75.9144884,,,
1553492d-203c-4c19-b68b-408a34916531,SHELL SELECT,1548 MERIVALE RD,04/02/2025,45.3543106,-75.7360503,,,
9e921680-23ef-47de-9ba1-505ca5d92efb,SHELL SELECT,2653 MARCH ROAD,19/09/2025,45.4332482,-75.6696903,,,
dbd318a8-5ee7-4494-acae-72565f06784d,SHELL SELECT,1857 MERIVALE RD,02/02/2024,45.3354809,-75.7236483,,,
58a771f6-cf68-4727-9e93-a56952ef738a,SHELL SELECT,1607 CARLING AVE,02/12/2024,45.3806219,-75.7474101,,,
df7cce2d-e2dc-40d5-809c-b27208d1e64b,SHELL SELECT,2232 ST. LAURENT BOULEVARD,07/04/2025,45.3892236,-75.6176637,,,
b7b10d33-dde8-448f-8c63-d52feca3ac7d,SHELL SELECT,2498 BANK ST,05/08/2025,45.3535092,-75.6434104,,,
7d3bd2ab-875c-48cc-a090-e611d3b74f90,SHELL SELECT,962 MERIVALE RD,12/06/2025,45.3811707,-75.7334122,,,
67876bd9-5004-41ff-8287-ef8b534c4509,SHELL SELECT,2770 IRIS ST,18/12/2025,45.3474765,-75.7882573,,,
6868c21d-3e70-489e-b6b3-f4829e95990e,SHELL SELECT,20 BEECHWOOD AVENUE,21/08/2025,45.4393876,-75.6767766,,,
1722a51e-3e85-4a9e-94f3-7b75a90bd243,SHENKMAN ARTS CENTRE,245 CENTRUM BOULEVARD,13/12/2024,45.479357,-75.5123576,,,
d3127463-ecdb-44d2-8f43-3707e1a22a1d,SHOPIFY,151 R. O&#39;CONNOR ST,15/12/2025,45.4191176,-75.6966166,,,
780f18f4-36b7-4ee2-b080-4f82a08f0618,SHUKAIR FRUITS,2 VIA,23/09/2025,45.2847745,-75.7455767,,,
6efe9b03-211c-445e-938d-89fb72e15b84,SILLY BILLY&#39;S,1980 OGILVIE RD,16/09/2025,45.4325275,-75.6098258,,,
2535e789-5394-43f1-aaf6-ba81a2d63cec,SIP TEA,203 BANK ST,26/09/2024,45.4175679,-75.6980854,,,
a73f9ea0-e878-497f-8eeb-5eced4bcaa0c,SLATER STREET MARKET,407 LAURIER AVE W,25/09/2025,45.4174285,-75.7025666,,,
c6acf090-7b4e-42ca-92d2-e9e5c74effb8,SM MARKET,1565 ALTA VISTA DR,24/09/2025,45.4086185,-75.6573288,,,
30e64241-7e9d-44e8-a3c5-21768fb6c820,SMASH DADDY,105B CLARENCE ST.,15/05/2025,45.4294686,-75.6923985,,,
dc610f78-59fb-42de-b719-4310bd67c923,SMASH DADDY,298 PRESTON ST,02/05/2025,45.4035776,-75.711455,,,
3b63aa42-7f73-4244-8f98-bd77fc232fb8,SMASH DADDY (TRUCK),2235 ROBERTSON RD,19/11/2025,45.3187662,-75.8427034,,,
a168acd1-3db6-4412-b13d-c3cec1cd17e7,SMOKE AVENUE,217 MONTREAL RD,21/03/2024,45.4357282,-75.6629573,,,
061622fe-1877-4d76-993b-92e9002cc518,SMOKED ROYALE,1203 WELLINGTON ST,14/06/2025,45.400506,-75.7304766,,,
edb23196-6d6e-4dd3-92dc-b5e445d296dc,SNACK O SHACK,407 LAURIER AVE W,17/10/2024,45.4174617,-75.7025069,,,
d341b465-c3fc-4de0-b3d9-7aeec0dcbaeb,SO GOOD ASIAN FUSION,15 SPRINGFIELD ROAD,09/10/2025,45.440366,-75.672796,,,
e7d7ca49-112c-4497-88c3-4857379dfa71,SOLOMON&#39;S OVEN,1065 WELLINGTON ST. W,05/12/2025,45.403636,-75.7247696,,,
afd17ace-b9c6-402d-ac2c-a568ed174ad5,SONRISA QUICK LUNCH,2350 STEVENAGE DR,28/01/2025,45.3794671,-75.6088034,,,
ff10842c-538e-492f-90cd-472181d24c61,SOUP FAIRY,425 CUMBERLAND STREET,04/06/2024,45.4276774,-75.6870865,,,
e9abbfce-724e-4cd5-a836-facad2c19130,SOUTH BANK NEWS PLUS,1555 BANK ST,22/11/2024,45.3798627,-75.6681991,,,
eae0bc2c-b78e-4b73-a679-9710de1dc07c,SOUTHEAST OTTAWA CENTRE,1355 BANK ST,21/11/2024,45.3879828,-75.6750515,,,
84233e51-9464-48ad-830b-4e159245e571,SPICY HO HO,1792 BANK ST,01/12/2025,45.3723006,-75.6646785,,,
68606a11-1d33-4513-a2f7-ed376a4f345b,SPOONMII,2960 RIVERSIDE DR.,06/09/2025,45.3664781,-75.691462,,,
981dd077-25ef-421a-a52b-a51e7bf8e19e,SPRINT SNACKS,304 WILBROD STREET,07/06/2023,45.427424,-75.680441,,,
19481da4-f72e-4d2c-b452-d01cf03e8c5e,SSP WAREHOUSE,1000 AIRPORT PKWY PRIVATE,18/02/2025,45.3223629,-75.6672958,,,
9f138762-fa40-4a82-940d-9d8ddde8079d,ST JOE&#39;S SUPPER TABLE,151 LAURIER AVENUE EAST,09/12/2025,45.425151,-75.68432,,,
3aff4641-f098-44db-82c4-79cb0043ad2b,ST JOE&#39;S WOMEN&#39;S CENTRE,RESTRICTED,09/12/2025,0,0,,,
59ab2473-23a6-467c-923a-8c9e46547a97,ST MOTHER TERESA CATHOLIC H. S,440 LONGFIELDS DR,28/05/2025,45.284036,-75.745116,,,
9542dff3-25d5-490f-a7cd-8a7217ae8890,ST. ELIAS CENTRE,750 RIDGEWOOD AVE,31/07/2025,45.3674637,-75.6880089,,,
9d63fd44-0531-43c9-a19a-260f6bb1ccff,ST. FRANCOIS-D&#39;ASSISE,1062 WELLINGTON ST W,27/11/2025,45.4043365,-75.7235705,,,
22537984-eddf-469c-a3cf-48de96486e55,ST. JAMES THE APOSTLE MANOTICK,1138 BRIDGE ST,08/12/2025,45.2265348,-75.6857268,,,
ad419fac-7f03-4917-b8aa-0351dd0bddea,ST.ANDREW&#39;S PRESBYTERIAN RIC,3529 MCBEAN ST,28/05/2025,45.4204242,-75.703768,,,
aa79c531-34aa-49f4-b435-756d9457922f,STARBITE RESTO,92 MONTREAL RAOD,08/05/2025,45.4338005,-75.6670277,,,
412f0342-ebf9-4aee-96a3-3d88428d9ff2,STARFRIES,1 BONNER ST,11/06/2024,45.325622,-75.82957,,,
0840ef99-c938-4a3c-b98f-bf3abffd10e1,STARLING,334 RICHMOND RD,25/09/2025,45.3985559,-75.7448376,,,
61857936-d7b0-4c39-8600-a1c957e25a6d,STEVE CHAN,1815 BANTREE RD,19/08/2025,45.4061091,-75.6167392,,,
a90b1208-0c0d-4e22-9864-fc24e059069e,STREETSIDE CONCESSIONS,66 LAURIER AVE. E,10/10/2023,45.423043,-75.685526,,,
8a1d11fd-bee5-4a05-851e-5e448cc8544c,SUPER MARKET MARYAM,1234 MERIVALE RD,23/04/2025,45.3705577,-75.7332868,,,
4ee3adc2-7c5d-4811-9a00-2100c2b545fb,SUSHIGO,340 ALBERT ST,05/11/2025,45.4186014,-75.7024866,,,
eefc2a7a-0dac-4cf8-990e-a8c0301f90da,SUSSEX &amp; CO.,15 RUE CLARENCE ST,05/09/2025,45.4283732,-75.695106,,,
77dda45f-761d-448a-bccb-b9a26ab1f995,TAARA,727 CHURCHILL AVE,23/10/2024,45.3808449,-75.746995,,,
7b8addab-b725-4fdc-b11a-3492813a5486,TAILGATORS,1642 MERIVALE RD,17/11/2025,45.3455841,-75.732034,,,
eed4c060-9181-44cf-b52d-0a0d9986f772,TAKE ANOTHER BITE,148 COLONNADE RD S,06/11/2025,45.3433133,-75.7080122,,,
1f20f86b-54cd-49f6-aef1-f38af4c05138,TANGLAD LTD,101 SCHNEIDER RD,04/09/2025,45.3392303,-75.9020217,,,
f0196617-8d42-4858-896d-5a52856f0272,TASTE JUNCTION,1196 BANK ST,24/07/2025,45.3916494,-75.6814053,,,
c3daf08e-f374-4980-b106-b79f2ab155ba,TAYEBAT AL-SHAM,4 LORRY GREENBERG DR,26/03/2025,45.369156,-75.620719,,,
e4bd5f34-c0e7-41c1-823f-1ffe5e11f248,THE BHARAT JUNCTION,853 BOYD AVE,21/08/2025,45.3765894,-75.7506272,,,
8ef494d4-6f51-43f5-aad2-ce776b9e009e,THE BULL DOG CAF&#207;&#191;&#189;,848 CLYDE AVE,11/06/2025,45.3774331,-75.749331,,,
8534206f-ebc2-4f59-994a-1818a964489a,THE CAESAR COMPANY,407 LAURIER AVE,07/07/2025,45.4175975,-75.7020408,,,
c8597f1a-f4a5-44af-a29c-bb5a9d01dba3,THE COMMONS,187 SPARKS ST,30/10/2025,45.42176,-75.7004181,,,
d3305ede-a29e-4d96-9f89-3f448df798a2,THE COVE,350 ALBERT ST,08/05/2023,45.4182526,-75.70315,,,
8dd36699-f48e-4686-b394-402b93b083be,THE DADAM,140 THAD JOHNSON PRIVATE,18/03/2024,45.3274973,-75.6505866,,,
3a8a0bf9-a1f2-4786-a1cc-37362381a250,THE EGYPTIAN CORNER,1533 MERIVALE RD,09/10/2024,45.3564112,-75.7362704,,,
092546aa-9c22-4232-bf08-9c060a53a1fc,THE EGYPTIAN CORNER,1563 BANK ST,24/09/2025,45.3797472,-75.6678404,,,
9bd9296e-1577-4a3e-8ade-112d54964f3e,THE GRAND AT WESTBORO,745 KICHI ZB MKAN,09/10/2025,45.3957662,-75.7614094,,,
914444cd-e7a2-4b2d-b5c8-b273b0cf3475,THE LATIN PARADISE,133 BESSERER STREET,03/12/2025,45.426631,-75.688989,,,
c0949309-6255-440e-b2f7-ff392d381b89,THE PIT STOP,876 MONTR&#207;&#191;&#189;AL RD,09/06/2025,45.4457968,-75.6301564,,,
35e00c82-bbbe-4625-bc0d-765c99ea8dfc,THE SALVATION ARMY - BETHANY HOPE CENTRE,820 WOODROFFE,07/06/2023,45.368235,-75.7725565,,,
52c32802-0df3-48b0-9dcb-130d231ac5bf,THE SHOW / ROOM 104,104 CLARENCE ST.,26/07/2023,45.4291232,-75.6922361,,,
c1d893eb-142d-4057-a442-3d74c6b7193d,THE SWAN ON THE RIDEAU,2730 RIVER RD,23/09/2025,45.1327985,-75.6337454,,,
ee646a17-6c75-4e4f-bf56-fed6baffc9aa,THE TWIN MUSES,3740 CARP RD,21/11/2025,45.3447868,-76.0357424,,,
21597315-7fdf-41af-9392-12aef784e8ba,THE WHALESBONE OYSTER HOUSE,430 BANK ST,15/10/2025,45.4122488,-75.6939341,,,
2f788347-5f3a-4118-86bd-29e372d908d9,THE WHALESBONE SUSTAINABLE OYSTER &amp; FISH SUPPLY,504 KENT ST,10/11/2025,45.409702,-75.6947412,,,
57ebfaf3-4ca1-4a4d-998a-e15f345fc6e7,THE WILD OAT,817 BANK ST,01/12/2025,45.4025275,-75.6879099,,,
ca19315c-9ae5-4886-a311-2ff76395ce9b,THE WINE STATION,2400 BANK ST,06/10/2025,45.354595,-75.6504734,,,
47ad56b2-a323-44ca-bd1c-78106b1f5ea2,THE WOODWARD,1621 WOODWARD DR,14/10/2025,45.3748471,-75.747969,,,
eed9c665-1360-47cf-925f-a0707b8ecd58,THI FUSION,500 WEST HUNT CLUB RD,21/04/2025,45.3342891,-75.7242946,,,
b27b16e7-9d45-4ef4-b0c6-6311bd79a5ce,THILAKS,2924 CARLING,27/08/2025,45.3565023,-75.801244,,,
c3adb3e9-d527-44e7-b35d-935b748154ba,THYME AND AGAIN,1845 CARLING AVE,13/11/2025,45.3768169,-75.7559995,,,
c1a2d6fd-17b6-4b87-964c-638fae5e4903,TICKER&#39;S,40 RUSKIN AVE,06/11/2025,45.3941611,-75.7206815,,,
1ec720f7-2e77-477d-87cb-d9e21d834b3f,TIFFIN MANIA,853 BOYD AVE,19/06/2023,45.3765598,-75.7507483,,,
7c0d952d-40c8-4492-8c23-4f9c61f07c4d,TIMOTHY&#39;S,2277 RIVERSIDE DR,13/01/2023,45.3855413,-75.6774625,,,
2aeb91eb-25d7-4e1a-8e82-92452a2cfc47,TIPIKLIZ,4025 INNES RD,12/11/2025,45.4557388,-75.5064922,,,
62ea2d41-3a2f-4ba7-8638-d418d03bd1b3,TIRWEKA,473 HAZELDEAN RD,29/10/2025,45.2980829,-75.8893828,,,
91f491b0-1f01-41b8-b03a-4d9a96d7dd8a,TOKYO CRISPY,1600 MERIVALE RD,25/09/2025,45.3498082,-75.733558,,,
21542d98-dd5f-4e46-b870-5560d8317fd6,TOPPINGS UNLIMITED,306 PRESTON ST,02/05/2024,45.4035067,-75.7114095,,,
c28729cc-1982-4856-a5dc-deaa5d77e28e,TORO TAQUEIRA,139 BANK ST,14/04/2023,45.4190924,-75.6993655,,,
1e8b43f1-094a-4332-b400-3c2238128513,TOWN &amp; CITIZEN,296 ELGIN ST,17/10/2025,45.4166423,-75.6894757,,,
ab472366-3918-4227-957a-f8f68d1c2bdc,TP TEA,50 RIDEAU STREET,04/09/2024,45.4252741,-75.6929843,,,
7141c976-e830-4ba5-8ceb-7153b03c04b7,TP TEA X MOCHI BAKEHOUSE,780 BASELINE RD,06/11/2024,45.3705526,-75.7164303,,,
dc13d850-70b1-48b8-bcac-1295c88879bd,TRUE LOAF,573 GLADSTONE AVE,10/04/2025,45.4094594,-75.700629,,,
b7a2a13b-b674-4e98-bac2-9e5614432859,TULIPS &amp; MAPLE,1701 WOODROFFE AVE,14/11/2025,45.3267752,-75.7452786,,,
87685403-d3b8-43e5-9666-d9004384b444,TURKISH ANATOLIA,4434 INNES RD,09/01/2025,45.4607617,-75.4869034,,,
c3ad359d-05e6-4c20-aaf1-041971db0d1f,TUTTI  FRUTTI,1463 MERIVALE RD,19/01/2023,45.3612325,-75.7344979,,,
d8e196be-315c-41c6-964d-275d0e6b7156,TWISTED TOMATO,100 SPARKS ST.,28/05/2025,45.4226274,-75.6975801,,,
bc24cf9f-612f-451d-ab35-07c9ffc5d4f4,ULTRAMAR,1543 MERIVALE RD,15/02/2024,45.3549894,-75.7354214,,,
c1166d58-0c89-4915-b7f8-0f1ec981215a,ULTRAMAR,225 HUNTMAR DR,19/01/2024,45.2940487,-75.9276308,,,
7daec922-ff24-4c4e-8c60-1aaa863987bc,ULTRAMAR,660 EAGLESON ROAD,18/06/2024,45.2879281,-75.8685249,,,
f4802090-dd93-4393-8c48-6e8a09829d67,ULTRAMAR,6469 JEANNE D&#39;ARC BOULEVARD,26/03/2024,45.4802779,-75.536767,,,
bbaa99ec-f209-4715-8faa-7685c381a9fa,ULTRAMAR,3199 HAWTHORNE RD,26/09/2025,45.3830396,-75.6015026,,,
0e6c2efd-c2ae-443d-8a9c-98c744bd7811,ULTRAMAR,1797 ST. JOSEPH BOULEVARD,02/02/2025,45.4618541,-75.5484463,,,
b6caaa02-8c26-413c-b266-13b38bae3cf0,ULTRAMAR,3467 HAWTHORNE RD,22/10/2025,45.3747887,-75.5969477,,,
f25c8b67-34ff-4070-85ca-c4e9941faa29,ULTRAMAR,3990 PRINCE OF WALES DR,21/11/2025,45.2404229,-75.7127358,,,
32ae1052-850f-4a28-a50c-e89e648bafae,ULTRAMAR,401 MARCH ROAD,30/10/2024,45.4103193,-75.7125998,,,
7f8263af-0961-4251-ac4f-ff4805409a5b,ULTRAMAR,1618 STITTSVILLE MAIN ST,19/11/2024,45.2544849,-75.9167063,,,
595bf213-830c-4cfc-b21a-d9c6aa63f0fd,UNCLE CARMINE&#39;S,2 ULLSWATER DR,09/10/2025,45.3519979,-75.840756,,,
62568345-7b84-4451-8512-cba9af0c8b77,UNCLE EDDIES&#39;S,1075 BANK ST,15/11/2023,45.3946107,-75.6834639,,,
6fb34675-8601-4556-897d-9e65bb297f9f,UNCOMMON,140 BANK ST,01/05/2025,45.4190603,-75.6996715,,,
0b0bd829-f6a5-4ee1-a993-992fea0e91e6,URBAN CRAVE,1000 AIRPORT PKWY PRIVATE,09/10/2025,45.3223629,-75.6672958,,,
8af36b95-3448-46ac-8299-4cb380fa803e,VALENTINA LTD,240 SPARKS ST,07/02/2025,45.420296,-75.7024018,,,
aef920cb-c32e-4f86-9fcb-b0e05f361784,VAN HOUTTE,575 WEST HUNT CLUB RD,23/04/2024,45.3335134,-75.7285174,,,
492ac985-0bbf-414e-878a-1ecab8e060cc,VEGAS ISLAND,5029 BANK ST,26/09/2024,45.2974134,-75.5797898,,,
6f2c8343-17d5-4aec-b0c1-92c7b7a2c51d,VIA CIBO,3210 GREENBANK RD,20/05/2025,45.2670157,-75.7443489,,,
853d4aed-6dc8-424c-91ee-7615d5552705,VIBE CITY,158 RIDEAU STREET,04/09/2025,45.426879,-75.6897721,,,
91a592bb-a555-4404-be4c-9eea9c8e5a51,VIBRATION STUDIOS INC.,5488 OSGOODE MAIN ST,22/09/2025,45.1436099,-75.6108563,,,
829791b2-9db0-4a40-84bc-0a2763be8a0a,VIE BELLA,121 BANK ST,12/09/2023,45.4196603,-75.6998674,,,
1c1b8a17-cf78-4363-ae63-a83ce917837f,VIE BELLA,87 SPARKS STREET,16/05/2025,45.4230608,-75.6971851,,,
3d60f8e5-b5cb-47db-a64b-c0b85f2bc365,VINO VOLO,1000 AIRPORT PKWY PRIVATE,15/12/2025,45.3223629,-75.6672958,,,
1f26c6e6-fab7-45e5-be9a-e4461130dbc6,VIRGIN RELAY,1000 AIRPORT PKWY PRIVATE,27/05/2024,45.3223629,-75.6672958,,,
c273b176-968f-49d5-ba8b-6b05b1c21700,VITTLE,1160 HERON RD,06/06/2025,45.3780708,-75.6704523,,,
e5bfcefc-03f8-422f-a510-69e9dca476d7,WABANO CENTER ABORIGINAL HEALTH,299 MONTREAL RD,30/07/2025,45.4373487,-75.6589864,,,
634f46ee-fba9-475b-a19c-67a17c722093,WANDERING CHEF,571 GLADSTONE AVE,12/12/2023,45.4095239,-75.7005736,,,
9affdca9-f43e-4cc7-9492-3b3c73099b53,WAYPOINT TAYLOR CREEK,1270 TRIM RD,06/06/2024,45.491154,-75.4800148,,,
aeb28d13-9278-481d-9e92-589d0ad8d0fa,WAYPOINT TAYLOR CREEK,1270 TRIM RD,18/02/2025,45.491154,-75.4800148,,,
008ef988-ca2d-4c4a-a5d2-b65a23a85b82,WEDEL TOUCH OF EUROPE,5 BYWARD MARKET SQUARE,15/10/2025,45.4286004,-75.6934389,,,
4c9dee44-afcc-47c4-a087-cc3adcbbd209,WEDEL TOUCH OF EUROPE-SPECIAL EVENT,BYWARD MARKET SQUARE,01/07/2025,45.4279382,-75.6929372,,,
d6b70e88-15f0-4301-9a69-57f165b3d21d,WHAMBURGER!,3779 STRANDHERD DR,11/03/2025,45.2670441,-75.7511302,,,
4db8e90f-7a69-4b79-8f2a-ffb0859e5496,WHERE I THRIVE,117 GLEBE AVE,24/03/2023,45.405505,-75.689391,,,
3ef5adf0-0233-428b-8399-26c336253600,WHITE CROSS DISPENSARY,264 ELGIN ST,02/12/2025,45.4177144,-75.6904127,,,
f03da9fd-d7cf-4bb6-b771-ef85cffcb615,WILLIAM E HAY CENTER,3000 HAWTHORNE RD,20/06/2025,45.3900704,-75.6045022,,,
c9c99cc8-ee19-47a9-acf2-53efae2dc58f,WIN TAI MARKET,1137 OGILVIE RD,09/08/2023,45.4267337,-75.631279,,,
a56d77b1-0d1f-4cd2-a422-4b91a5378802,WING LEE TAKE OUT 2002,990 RIVER RD,27/11/2025,45.2339852,-75.6774721,,,
67fc13ef-8f6e-422c-bfb5-1779d6d29faa,WING&#39;IN,1110 CARP RD,05/08/2025,45.2683683,-75.9421052,,,
e4a0f4b2-22a0-4397-b2e0-e5bcf59b0628,WING&#39;IN,3771 SPRATT ROAD,05/09/2025,45.2874903,-75.6733373,,,
ed92232a-a7b1-4b85-90ed-6e0a7b41433b,WINGSUP! KANATA,5104 KANATA AVE.,08/04/2025,45.3229235,-75.9264917,,,
b715026e-cb62-4908-8d5e-4232f9b842c2,WIZARD&#39;S TOWER,80 MARKETPLACE AVE,18/03/2025,45.2702149,-75.7429853,,,
35e68d39-3f1f-4fa5-ba44-de486f22f049,WORLDS FINEST SHOWS - PLUCKIN POTATO,110 LAURIER AVE W,15/08/2025,45.4208085,-75.6899964,,,
0eb76e52-784c-420e-bf29-4bdf8f09fa80,WORLDS FINEST SHOWS-SLUSH PUPPIE,110 LAURIER AVE W,15/08/2025,45.4208085,-75.6899964,,,
ad51a331-0127-457c-b4d7-8567bc029e2e,WOW SIP,159 MONTR&#207;&#191;&#189;AL RD,08/12/2025,45.4349036,-75.6651524,,,
5e96976b-23bf-41f4-b368-f3fdb97f30fe,XING FU TANG,2960 RIVERSIDE DR.,20/06/2025,45.3676328,-75.6897596,,,
a6a97a40-8619-4d04-815e-b86d939e539d,Y NOT GO FOR TEA,224 HUNT CLUB RD,29/09/2025,45.3339133,-75.6905898,,,
a0f96d13-65b6-48eb-86fd-8a78024b2e8f,Y&#39;S OWL MACLURE,1140 MORRISON DR,25/11/2025,45.3453697,-75.7975612,,,
30d886f6-0f49-4f6a-8eba-2bf274bb85cd,YA HABIBI,160 ELGIN ST,17/03/2025,45.4209839,-75.693007,,,
a5baa68d-3316-4c7f-93cb-09f4d1544c25,YAKKO TAKKO,52 BAYSWATER AVE,29/06/2023,45.4059667,-75.7205933,,,
41156a24-35e3-4bbc-a47b-131b327174ba,YAKOOYO ABOULA JOINT,1598 CYRVILLE RD,22/10/2025,45.4180529,-75.6106057,,,
0fee49ff-8a29-49b4-8266-71020c907a4b,YEAZECHA,181 RICHMOND RD,07/10/2025,45.3951381,-75.7475726,,,
a365723f-0c11-4d53-b82b-c9a376cb87db,YEMEN GATE,2871 ST JOSEPH BLVD,17/07/2025,45.4745278,-75.5191698,,,
d29507da-6b26-46c2-8b9c-daa4c499cb4e,YES!MAMAKITCHEN,1380 CLYDE AVE.,07/03/2024,45.3596399,-75.7393443,,,
3ea46e28-d0da-4e9c-b198-935ffa5784d2,YI CHANG TANG,685 SOMERSET ST W,17/04/2024,45.4114603,-75.7061854,,,
2c05ba73-f938-45cf-967a-0f08a74c27b3,YI RYO PAN FRIED BUNS,252 BANK ST,30/10/2024,45.4161824,-75.6972516,,,
ec47e270-60c6-4d69-9897-9b8a02ad0b49,YIKO TEA,507 RIDEAU STREET,11/08/2023,45.4318352,-75.6786567,,,
48fb8c32-489e-4f94-9ff5-765a3ed2c4a9,YORK ST. FARMERS&#39; MARKET,55 BYWARD MARKET SQUARE,21/07/2024,45.427449,-75.6923645,,,
b737aa7f-6599-4de4-8118-4c7dd3bf4353,YOUR INDEPENDENT GROCERS,1619 ORLEANS BOULEVARD,25/11/2025,45.460772,-75.524289,,,
5eadac7a-f822-4022-b564-2b41bfeae22a,YOUVILLE CENTRE,150 MANN AVE,04/09/2025,45.4219544,-75.6696125,,,
34f049c2-7d36-46d2-be98-303dff278ede,YOW POPCORN CO.,65 BENTLEY AVE,29/04/2024,45.334613,-75.717136,,,
7cda3778-df9b-4315-bb5c-a52f9f405b04,YRS GOLDEN SPOON,2285 ST. LAURENT BLVD,09/07/2025,45.3858291,-75.613547,,,
505f08b8-1c4f-4990-adbe-0375b56a0ba6,YUZUMI,83 HOLLAND AVE,02/02/2023,45.4009299,-75.7324018,,,
0da6dd4c-d92e-4158-8fce-65f155213979,YUZUMI,,10/04/2024,45.405643,-75.7226709,,,
4507056a-1b90-40a3-9698-d022048a4878,ZESTY MARKET,280 ELGIN ST,06/08/2025,45.4174027,-75.6901333,,,
ab0f08e8-850a-4180-baad-e8aa839ede0e,ZESTY MARKET,159 RIDEAU ST,16/10/2024,45.4272003,-75.6900154,,,
