ID,NAME,ADDRESS,LAST_INSPECTION,LATITUDE,LONGITUDE,CATEGORY
fdaf07c3-c3ba-4641-b144-6a62431d389c,1095,1095 MERIVALE ROAD,22/10/2025,45.377278,-75.7324869,unknown
39d88959-224c-453b-b443-e9d39dd2761f,1818 FARM AND CIDERY,1811 RICHARDSON SIDE RD,04/10/2025,45.3090119,-75.9496583,specialty_food
6a80398c-a34f-4c4a-95a1-aec29f30aade,233 FLAVORS,2960 RIVERSIDE DR.,06/09/2025,45.3698605,-75.6912714,restaurant
052e3d50-1b92-4026-bbcc-edd421ac43ae,23549 TD OTTAWA MANNED MARKET,1595 TELESAT CT,26/02/2024,45.4292858,-75.6051041,unknown
ce436aa2-fb71-4010-b556-3521e0c244db,A &amp; M CONFECTIONERY,1499 CLEMENTINE BOULEVARD,16/10/2025,45.3827358,-75.6739472,grocery
62080730-407a-46ef-a286-14639fb778ac,A2Z CORNER,605 LONGFIELDS DR,20/12/2024,45.2856286,-75.7436732,grocery
2df30efa-1480-4929-867b-bb044abfc07f,ABORIGINAL EXPERIENCES ARTS AND CULTURE ( MADAHOKI FARM ),4420 W HUNT CLUB RD,01/05/2025,45.3067027,-75.8101326,specialty_food
15dec6f3-3ef0-4512-bd9a-fdf047b04a1c,ABORIGINAL EXPERIENCES ARTS AND CULTURE ( MADAHOKI FARM ),401 CORKSTOWN RD,21/06/2025,45.3393093,-75.8529996,specialty_food
204507e1-8eba-466c-af48-fcfcbf999ecc,ABSTENTIONS,1125 COLONEL BY DR,05/04/2024,45.3790837,-75.7013855,bar
763f3cab-b2c0-4030-a3b8-0784dc0327c5,ADRIANNA&#39;S DEN,815 ST. LAURENT BLVD,24/05/2025,45.4346475,-75.6420051,unknown
3f06ab36-8cbc-48b9-8581-e01bee216cd5,AFRODEEZ FOOD &amp; EDUCATION CORPORATION,390 MARCH RD,12/06/2024,45.3403735,-75.9104368,unknown
af3b4e5e-f706-423f-bf17-816a16187d0b,AH-SO FINE FOOD,1642 MERIVALE RD,13/03/2025,45.3455841,-75.732034,restaurant
798c5e8d-d137-496f-9895-6ef081b8c825,AISLE 24,105 CHAMPAGNE AVE S,03/07/2025,45.3989201,-75.7114228,grocery
01fb2491-d5b2-4a98-bcd2-780331bd3006,AL-KALAA MINI MARKET,557 KIRKWOOD AVE,12/05/2025,45.3891527,-75.7429241,grocery
909aed7d-9aae-41bb-a68c-22855fd2fc95,ALADIN PLEASANT PARK SITE,564 PLEASANT PARK RD,24/03/2025,45.3926547,-75.6462206,unknown
8858e3f4-af8c-4c97-94ed-3d55f4d618aa,ALEXANDER HOUSE,716 EDISON AVE,12/11/2025,45.3813401,-75.7487148,institutional
6170a926-2fdb-472a-a0a0-bae31856a6bf,ALIMENTS RINAG FOODS INC.,88 JAMIE AVE,03/10/2025,45.3362414,-75.7156692,specialty_food
d429deef-b8ea-45e6-9687-11471da5e6f6,ALMANAC,5510 CANOTEK RD,26/03/2025,45.457309,-75.585126,restaurant
a9b2991e-0830-4977-8c85-f7a994b43cdd,AMBLESIDE TUCK SHOP,1081 AMBLESIDE DR,07/12/2024,45.3736078,-75.781158,grocery
5fd69372-ca59-47ab-8047-b6311e98eb88,AMEENZ,43 ROYDON PLACE,29/05/2023,45.3391771,-75.7232485,unknown
921a7c43-5a7f-4ebf-b56b-4e1bc9a6cabc,AMPED SPORTS LAB &amp; ICE COMPLEX INC.,2600 LEITRIM ROAD,17/07/2025,45.3181752,-75.6269472,sports_rec
b35a0f14-c741-4817-9ad3-01153015a3d4,ANDERSON FARM,8435 FRANKTOWN RD,07/03/2024,45.1293511,-75.9533593,specialty_food
c504cd62-0ca7-4f88-bc1b-4d31a7315e5e,ANDREW FLECK,40 GRANITE RIDGE DR,07/10/2025,45.2711819,-75.9084846,institutional
9edbbeeb-dc83-4cc9-85bb-d08a93da85a6,ANNE-MARIE&#39;S STREET EATS,2320 STEVENAGE DR,05/09/2025,45.3792606,-75.6101144,food_truck
91ea637a-3dae-4c0f-97b9-46311ead2877,ANNUNCIATION PARISH HALL,2414 OGILVIE RD,08/10/2024,45.4585995,-75.6010012,institutional
f6f78354-d256-4c8c-bdc7-d71627bae9cb,AQUATOPIA MITEL,4000 INNOVATION,01/05/2025,45.342201,-75.930288,hotel
c70b1f37-f975-4946-b199-af55109e764b,AREPAS PLACE,1000 EXHIBITION WAY,07/06/2025,45.4000568,-75.6828155,unknown
4e12f478-0308-4e75-a00c-2226df44052b,ASHTON GENERAL STORE,A-8981 FLEWELLYN RD,12/11/2025,45.157173,-76.0329456,grocery
5ebdde32-7894-4a64-a02b-8ce7f019b6d7,ATHIVE,1745 COURTWOOD CRESCENT,14/02/2025,45.3715547,-75.7499831,unknown
64d6adc0-77c9-43f8-9835-7d1e7a02b4c1,ATRIA - THE COURT AT BARRHAVEN,1111 LONGFIELDS DR,23/09/2025,45.2687571,-75.7348134,institutional
b0a90015-cbe3-4a67-b070-89f9f60e3ddc,AUX 4 VENTS,2093 BEL-AIR DR,06/10/2025,45.3625909,-75.7627184,institutional
432b8b55-25d8-44c7-9f58-a49a0841f9c6,AUX 4 VENTS-BARRHAVEN,11 CLARIDGE DR,07/10/2025,45.2880422,-75.726773,institutional
1671bf50-bffd-4eec-993f-210c995051c4,AUX 4 VENTS-BARRHAVEN SOUTH,110 ROBIN EASEY AVE,02/09/2025,45.238435,-75.7373454,institutional
65c19df2-26a4-43f4-84e1-4aeda04f6135,BAGEL ONE PLUS,1200 MONTR&#207;&#191;&#189;AL RD,29/07/2025,45.4500132,-75.6217242,unknown
6311f288-348d-4d86-8ce6-6924646007da,BAGHLAN MARKET,5929 JEANNE D&#39;ARC BLVD S,24/10/2025,45.4642238,-75.5410521,unknown
4dabc015-b393-4081-b569-38f55914601f,BAIRD&#39;S CHIPS,405 DONALD B. MUNRO DR,12/12/2025,45.3439474,-76.0329171,fast_food
6bb1db6d-99e6-4323-a6d3-9fb67c9ae28b,BAKKER&#39;S GENERAL STORE,1004 MANOTICK STATION RD,09/10/2025,45.255696,-75.624512,grocery
556f5a56-8e98-4efe-a077-5f74d30dd14e,BARRHAVEN FOOD CUPBOARD,100 MALVERN DR,12/12/2024,45.2799047,-75.7618269,institutional
3c3313e7-3507-4f76-a6f3-72489f73794c,BAY &#39;YO,1222 BAYVIEW DR,23/07/2025,45.4939685,-76.0956113,unknown
c82ba05d-2141-41ef-9216-2b7766013881,BEER GRAINS SUPPLY,30 CONCOURSE GATE,29/08/2025,,,specialty_food
e472489b-f651-43e2-aab6-c5c70d90c664,BENNY &amp; CO (MC) KANATA,5671 HAZELDEAN RD,10/04/2024,45.28492,-75.9099752,fast_food
107c25b2-d1af-425e-9f4b-08839515748b,BENTO NOUVEAU,2210 BANK STREET,17/01/2025,45.3556337,-75.6546138,fast_food
7778f434-c6c8-49e1-b3b2-915121380786,BENTO NOUVEAU,4270 INNES RD,23/06/2025,45.4571245,-75.4952251,fast_food
3e82a99c-9f0f-4238-b1f0-93bef4e86eda,BENTO NOUVEAU,840 MARCH RD,23/04/2025,45.3565983,-75.9344608,fast_food
e047c5bc-dc45-490d-916a-b0d02ccc72c7,BENTO NOUVEAU,1125 COLONEL BY DR,04/11/2025,45.3874592,-75.6982987,fast_food
98c26c87-cdc8-4f10-8744-6e0765ecc17d,BENTO NOUVEAU COMPANY,6045 BANK ST,17/10/2025,45.2637388,-75.557103,fast_food
791046cf-d0c6-4523-b4c1-a372491bb6c8,BENTO NOUVEAU COMPANY,1619 ORLEANS BOULEVARD,10/01/2025,45.460772,-75.524289,fast_food
cb49bf99-258d-473b-a521-cfe55a2be140,BENTO NOUVEAU COMPANY,1980 OGILVIE RD,04/03/2025,45.4421439,-75.5973599,fast_food
c923c7c0-e00b-414d-b4da-bf12dfa45b95,BERRIES ON WHEELS,9  HUBERTINE GATE,12/07/2025,45.2018168,-75.9822353,food_truck
c460d7c4-7d62-4fb7-a1bb-8ba613cc6697,BERRY &amp; BRINE,858 CAMPBELL AVE,04/09/2025,45.3764907,-75.7499726,unknown
64107cc8-1efe-4f61-bbcf-00223b6c3407,BEST THERATRONICS,413 MARCH ROAD,05/12/2023,45.3388809,-75.9144088,institutional
16e95117-762f-4b5e-8b1d-3b0d0a0bfd9c,BETTYE HYDE ELC A PROGRAM OF ANDREW FLECK CHILDRENS&#39; SERVICES,43 BLACKBURN AVE,03/11/2025,45.4260091,-75.6753261,institutional
49971c51-181b-446b-8487-1faf380ea72e,BIG LEMON 2,6710 TOONEY DR,10/07/2025,45.4582756,-75.5079097,ice_cream
bc9adc00-8484-4c01-90fe-e219a0b3b6b0,BIG LEMON 3,6710 TOONEY DR,10/07/2025,45.4582756,-75.5079097,ice_cream
a50e776d-3d9d-4473-9153-15df1840d9bf,BIG RIDEAU BBQ LTD,5632 MANOTICK MAIN ST,07/02/2025,45.2208225,-75.6779674,fast_food
7e970c7e-a0d6-4693-9046-bf17520a77f3,BIGBABAPIZZA,2609 FENTON RD,12/03/2023,45.3175248,-75.6214072,unknown
f8295aef-f696-43c2-a2e0-4fcb16141359,BILLINGS ESTATE TEA-ON-THE-LAWN,2100 CABOT ST,29/10/2025,45.3898461,-75.6722203,cafe
4833b937-53cc-45e3-a612-93213cd36e60,BILLINGSWOOD MANOR,1370 BANK STREET,18/11/2025,45.3849184,-75.6732727,institutional
36a25ed6-fb4d-4d72-876e-156955a9bf0e,BISHOP HAMILTON,2199 REGENCY TERRACE,29/09/2025,45.348599,-75.7722492,institutional
326e7bdc-52bf-41a2-9440-9718a7dd9ef6,BITE&amp;BITE,1465 MERIVALE RD.,03/10/2025,45.3609612,-75.7340239,unknown
00025204-1fcd-4286-be5d-cd1ce65f55cc,BLACK BELT MINI BEIGNETS,65 ALBERNI ST,30/05/2025,45.2771763,-75.7508302,bakery
f2db4dc0-aee7-4110-b41f-554fbc8205d2,BLACKBURN HAMLET FUN FAIR,190 GLEN PARK DR,31/05/2024,45.4296742,-75.5634649,institutional
b82d3e9b-9d7e-4454-8238-eea6aa635e1e,BLISS TEA DT,238 BESSERER ST,20/06/2025,45.4277221,-75.6856222,cafe
f9e80142-5aa3-4608-a994-b675ce34b882,BLOOM CENTRES FOR EARLY LEARNING,2345 ALTA VISTA DR,23/10/2025,45.3841777,-75.6613957,institutional
624f1e05-531b-4bee-ba58-7146a80c6692,BLOOMING ONION,255 CENTRUM BLVD,12/09/2025,45.4808998,-75.5102608,unknown
192010c4-f6f3-421e-a6ff-1684048568b1,BLOSSOM PARK,3810 SIXTH ST,06/11/2024,45.35187,-75.6247544,unknown
ef82a8b2-4373-46f0-b0a0-0aff5486addb,BLUESFEST VIP SECTION,1 VIMY PL,10/07/2025,45.4171032,-75.7169418,institutional
a23ecbd2-759b-4b1f-a938-9eb95292a88c,BOOM J&#39;S CUISINE,2960 RIVERSIDE DR.,07/09/2024,45.3698605,-75.6912714,restaurant
6ffef022-71bf-424c-8242-bb2f4a5f7075,BOSBAN MART INC.,2960 RIVERSIDE DR.,07/09/2024,45.3698605,-75.6912714,grocery
fce0f446-9b72-469c-a6ef-8d415b43e63d,BOSS HOGS,373 LEGGET DR,12/09/2025,45.3417434,-75.908033,fast_food
14cf9979-299e-4389-b88d-d1f84dccdaf8,BREAKFAST AT NAVAN,1211 COLONIAL RD,15/08/2025,45.4460975,-75.3271851,restaurant
4acdacb5-ab83-43bf-a3ad-c20a4c04a5b6,BRIERLEY&#39;S YOUR INDEPENDANT GROCER,671 RIVER RD,27/06/2025,45.2708593,-75.6990013,grocery
bc7b5c49-5fe3-4219-a228-56efc624549e,BRIN DE SOLEIL,350 DEN HAAG DR,07/10/2025,45.440619,-75.6304143,institutional
2089b27f-2b27-430e-bbba-23a4c0c52c39,BRITANNIA WOODS COMM. ASSOC.,115 RITCHIE ST,21/10/2024,45.3579418,-75.8008462,institutional
ef76a565-c413-4679-bb93-746c85fb48c7,BRONSON PLACE TUCK SHOP,440 GLOUCESTER ST,17/05/2024,45.4144824,-75.7064979,grocery
9a6d518c-9d0e-45ef-8129-9bea64a850f3,BROTHER ANDRE CATHOLIC SCHOO,1923 ELMRIDGE DR,18/06/2024,45.4440904,-75.5993874,unknown
4fb4d553-06e6-4cd6-93af-eceab0673f25,BROWNS PLUS INCORPORATED,501 PALLADIUM DR,09/10/2025,45.2984345,-75.9105846,unknown
e514c66b-c6bf-47a5-940e-6a3bf5e7d4c6,BSE IMPORT/EXPORT,196 JEANNE MANCE ST,18/08/2025,45.4330405,-75.6618142,unknown
357810c7-dc6f-49c6-894a-58f5074bfa6e,BUBBALOUS,373 LEGGET DR,19/05/2023,45.3417434,-75.908033,unknown
07e0a514-ee25-4ad1-81e1-772295e63d5f,BURGERS ON THE GO,255 RICHMOND RD,22/05/2024,45.3939638,-75.7505177,fast_food
5c7720b3-b239-43bd-9abe-072e288812d2,BY THE BOOK,363 LORRY GREENBERG DR,20/09/2024,45.3630759,-75.6354225,unknown
581bf148-b4fe-4e91-9e43-590649e0bc7a,CABELA&#39;S RETAIL CANADA INC.,3065 PALLADIUM DR,02/01/2024,45.2898892,-75.9321211,grocery
76e5d952-2a13-4138-be27-99266a6aab20,CANADIAN BANK NOTE,145 RICHMOND RD,12/12/2025,45.3964361,-75.746289,institutional
ce123063-698d-4d65-b735-b76865886818,CANADIAN BANK NOTE COMPANY,975 GLADSTONE AVE,18/11/2025,45.403365,-75.7164792,institutional
f88ab7aa-e2a7-47c5-b801-692005516cbc,CANADIAN FRYER,2010 OGILVIE RD,28/03/2025,45.435066,-75.606445,fast_food
ea387256-d80a-487f-ad4f-4f087c5b1f98,CANADIAN TIRE,2501 GREENBANK RD,11/12/2024,45.2706289,-75.7463559,grocery
80104a22-0a86-4e83-890e-7a1f4a519647,CANADIAN TIRE,8181 CAMPEAU DR,12/06/2025,45.3068951,-75.9185459,grocery
af661db7-0e0c-42f2-b75c-cc65dec4b3ee,CANADIAN TIRE,330 COVENTRY RD,05/12/2024,45.4200357,-75.650735,grocery
7530bac9-0d25-4326-862d-d06f69df9640,CANADIAN TIRE,2135 ROBERTSON ROAD,11/08/2025,45.3224828,-75.8359127,grocery
a3468c5d-7aa8-4de6-b0c2-ff73e94adb71,CANADIAN TIRE,2010 OGILVIE RD,26/03/2024,45.435066,-75.606445,grocery
56347c93-5230-47c3-af6b-9f904c5cdbdc,CANAPOLA CORP,59 SPARKS STREET,01/07/2025,45.4235729,-75.6963957,unknown
4ad31f37-1052-4b45-9215-fb9d1afa605b,CANTINE JOSEE DOMINIC,312 LETT ST,10/09/2023,45.4154251,-75.7120706,unknown
22437e61-2ffd-40b9-ad9d-72a8e5d06084,CAPITAL TREATS,84 KENILWORTH ST,19/05/2023,45.3948265,-75.7242833,unknown
f81ed7eb-6f48-435c-8983-90b3b1ee8dd3,CARLETON MEMORIAL DAY CARE,740 MELFA CRESCENT,17/10/2025,45.3661072,-75.6998789,institutional
2958c59a-ad5d-472b-ac38-df7c61c8e347,CARP AGRICULTURAL HALL,3790 CARP RD,21/09/2023,45.3467009,-76.037618,institutional
cab7bc20-d358-494a-91bf-cbc95a69e084,CARSON GROVE,1401 MATHESON ROAD,19/03/2024,45.4369237,-75.6226883,institutional
6ca13d18-d3f2-411b-823f-227a755d3c37,CARTY HOUSE,RESTRICTED,31/01/2023,0,0,institutional
0fec5a1e-dcdf-4a79-924f-7b0c1a2fc728,CCI TRANSITIONAL HOUSING PROGRAM - ST JOSEPH,1754 ST JOSEPH BLVD,13/11/2025,45.4612908,-75.5486642,institutional
6d695c4b-6776-4452-acc6-7499e8b435a6,CHEF RIC&#39;S,1 VIMY PL,10/07/2025,45.4171032,-75.7169418,unknown
96320672-4dd4-45c8-9547-f920030ecf96,CHEF RIC&#39;S,180 ARGYLE AVE,09/10/2025,45.4112163,-75.6893175,unknown
34e530dc-26ad-4da7-8ae2-8bd33cd2063f,CHEO KNOWLEDE INSTITUTE,695 INDUSTRIAL OTTAWA,12/11/2025,45.4103348,-75.638722,institutional
943e9c48-fe97-4c7f-8e79-632e4893c12e,CHEZ LIONEL- BRASSERIE CHEZ LIONEL,101 KANATA AVE.,07/07/2025,45.311643,-75.9047234,restaurant
d47aea87-7246-404f-8922-3d1867b31347,CHEZ-13,815 ST LAURENT,06/11/2025,45.4346475,-75.6420051,restaurant
d52f1043-0018-479c-815d-74ad741dbf8d,CHIP N DOGS,3490 INNES RD,02/06/2023,45.447247,-75.525324,fast_food
fe83c745-d420-4b3e-b1f0-c637b5297d1d,CHIPS &amp; DAIRY FAST FOOD,2920 BANK ST,09/06/2025,45.420962,-75.702902,fast_food
d9dcc5ff-e868-43df-8f9f-ba62ee5fa56c,CHOCOLATS FAVORIS,180 VANGUARD RD,06/11/2025,45.4574747,-75.4888025,bakery
ea2a478c-acc1-4980-a351-e20d8cb1d740,CHOCOLATS FAVORIS BARRHAVEN,1055 GREENBANK RD,06/11/2023,45.2767294,-75.7501723,bakery
d2a1bf3f-8fce-4271-9c74-61a8b96d1b18,CHOI&#39;S FOOD,1508 MERIVALE RD,06/09/2023,45.4542732,-75.5835943,unknown
eb6ad008-d982-4bc1-a204-1afafbce9d3d,CHOWDOWN KANATA,190 GLEN PARK DR,02/06/2023,45.4296742,-75.5634649,unknown
6cf7574b-d233-4ddf-b449-63334bbeee07,CIBUS,5360 CANOTEK RD,24/03/2025,45.4547396,-75.5836579,unknown
449bf025-95a7-4b57-922c-e6785ee7db64,CITE PARKWAY,380 LEBOUTILLIER AVE,08/12/2025,45.444836,-75.6337638,unknown
23102e27-cf19-4d2a-b0aa-2337d08c57cf,CLARMELL FARMS,3401 RIVER RD,08/12/2025,45.1275158,-75.6274357,unknown
67caaeb6-b5a0-4f03-b9de-8e15402074e3,CLEMENTINE FOOD PANTRY,1455 CLEMENTINE BLVD,12/12/2024,45.3843148,-75.6740606,institutional
5e025a8f-6ad6-4785-b471-5d4a94741adf,CLUB ALPHA,2130 ROBERTSON RD,19/12/2023,45.3204844,-75.8346112,bar
7821a0f2-3be2-4655-88c3-095d1940b66c,CMK FOODS,1500 ST. LAURENT BOULEVARD,09/08/2024,45.4126963,-75.631342,unknown
61aac6cd-6970-42ed-90f9-0329058838be,COLD DELIGHT,2535 BLACKWELL ST,01/05/2024,45.4059454,-75.6092273,unknown
ebb28d1b-da7f-43c1-b6c7-93f60b20ecee,COLD DELIGHT,2535 BLACKWELL ST,05/06/2024,45.4059454,-75.6092274,unknown
8adba7e2-a0a0-4406-88d6-5231383b563c,COMFORT CRAVINGS,100 CHARLIE ROGERS PL,01/07/2025,45.2943257,-75.9017286,unknown
a8eed788-d8ac-440c-9411-eb3ae5c38c0b,COMMISSIONAIRES OTTAWA PLACE,1720 RUSSELL RD,16/09/2025,45.4051774,-75.6342626,institutional
d5fc8817-08ce-4fed-b177-78bc25eba689,COMMUNICATIONS SECURITY ESTABLISHMENT OF CANADA - SALAD,1929 OGILVIE,28/06/2023,45.435383,-75.6159368,institutional
69bd57b6-2719-4a68-b707-02fb30cb8a47,COMPASS - ABBOTT POINT OF CARE,185 CORKSTOWN RD,01/04/2025,45.345269,-75.839245,institutional
466f4c2f-9dbc-41f2-a902-bfd26e7e7d89,CONFEDERATION COURT FOOD BANK,2312 RUSSELL RD,23/10/2024,45.368899,-75.3936262,institutional
20fd8662-71d8-416f-8527-c10133e7f3e9,CONFEDERATION COURT FOOD BANK (SATELLITE LOCATION),2100 RUSSELL RD,03/06/2025,45.3975867,-75.6185896,institutional
c72237cd-c06b-47be-b6c6-97a8b633eb4a,CONSTANCE BAY GENERAL STORE,115 CONSTANCE BAY RD,08/05/2024,45.486479,-76.0736062,grocery
14a1b26e-209d-49fb-a24b-065b51082429,COOL TREATS,2535 BLACKWELL ST,06/11/2025,45.4059454,-75.6092273,ice_cream
f3e0daa0-5a10-4045-a4c8-3f5e175f0f9f,COOL TREATS,2535 BLACKWELL ST,06/11/2025,45.4059454,-75.6092274,ice_cream
65db84df-6cc9-4c4f-a0cc-55976c567d3f,COOL TREATS,2535 BLACKWELL ST,02/05/2025,45.4059454,-75.6092274,ice_cream
ee74922e-5856-416c-ad47-684de8964d3c,COOL TREATS,2535 BLACKWELL ST,02/05/2025,45.4059454,-75.6092274,ice_cream
2db89499-3da0-45c7-a0db-af6b255ed6af,COOL TREATS,2535 BLACKWELL ST,02/05/2025,45.4059454,-75.6092274,ice_cream
810e8bf0-60dd-46e7-9093-f42f130490d0,COOL TREATS,2535 BLACKWELL ST,06/11/2025,45.4059454,-75.6092274,ice_cream
d2321a2a-22f2-4980-87cb-88eafb5cf636,COTE POULTRY,2770 LANCASTER ROAD,26/03/2025,45.395818,-75.606266,specialty_food
96970577-3b95-4684-be9a-76ab601c36c6,COUVENT MONT ST JOSEPH,50 MAPLE LANE,28/11/2024,45.4459466,-75.6796482,unknown
8e7efd0b-d440-4fa5-9f56-2fd0a205d07f,CREPE DADEY,7417 RUSSELL ROAD,02/07/2024,45.3675355,-75.4067012,bakery
3b17ec7d-1ac2-44ee-98ee-3308edbbb407,CRERAR&#39;S HONEY LTD.,8214 BANK ST,05/08/2025,45.183284,-75.475527,specialty_food
d67dfe67-b71b-48af-9af2-574c18626cfd,CRISPY CHIPS,1820 MERIVALE RD,28/04/2025,45.3364075,-75.7266791,fast_food
20b96459-9570-4e6b-95c0-5596e6b61711,CROFFALO,5510 CANOTEK RD,18/09/2025,45.4573198,-75.5850504,unknown
a692b669-3744-4d1d-accf-98442bf15407,CRUMBL ORLEANS,1615 ORL&#207;&#191;&#189;ANS BLVD,28/08/2025,45.460709,-75.5245723,bakery
6ba4f4a0-1fd8-4556-855e-83af0813d9b4,CRUNCHY CREATIONS &amp; SWEET EATS,MACKENZIE AVE,24/05/2024,45.4278367,-75.6963661,unknown
ef6ccaf9-b21a-40ca-956b-359a320dfa2a,CRUST AND CRATE,2018 OGILVIE ROAD,18/11/2025,45.4244368,-75.636078,unknown
173ad932-4216-44ab-bda3-e6442870d1bf,CULINARY CONSPIRACY,1460 CYRVILLE RD,09/05/2025,45.419928,-75.6187496,catering
ee285c02-be4a-419b-962e-9cc5ccd70a97,CUMBERLAND HUB,261 TOMPKINS AVE,19/09/2025,45.4744364,-75.5084546,unknown
cd3af420-9a09-4309-b010-460179fe9ccb,CUTIEPAI BAKEHOUSE,1295 COLONIAL RD,07/08/2025,45.4209969,-75.4214174,unknown
6b7270b2-3c0e-40a6-a22a-3cec0f5d8ec0,DAL BORGO,830 INDUSTRIAL AVE,24/09/2025,45.4073017,-75.6341237,unknown
95494c1a-b25d-42b7-b9ad-495c8c801723,DALHOUSIE FOOD CUPBOARD,211 BRONSON AVE,24/04/2024,45.4135609,-75.7063439,institutional
90544c12-6b8f-4140-9c80-52319334cfb3,DALHOUSIE PARENTS DAY CARE,391 BOOTH ST,21/10/2025,45.4063104,-75.7083722,institutional
0ff496e1-7078-4a3e-b813-9c548983b5ab,DALMENY ACRES FARM STORE,7280 DALMENY RD,26/07/2024,45.1603978,-75.4969755,specialty_food
75258b55-db10-47d8-9b4f-002826a4e988,DEBRA DYNES FAMILY HOUSE,955 DEBRA AVE,24/11/2023,45.3679283,-75.7054229,institutional
6c8e7535-697e-4b54-ad70-8c908b836502,DEFALCO&#39;S,435 MOODIE DR,23/10/2024,45.3199551,-75.8315424,unknown
ac4a756f-63d1-4cb9-9bfb-2c7a493ba6db,DEFALCO&#39;S WINE CELLARS,2030 LANTHIER DR,17/12/2024,45.4572559,-75.4923279,specialty_food
8c417161-cb21-4067-8379-ae3e9a18be00,DESI PRICE CLUB,1950 MERIVALE RD,29/07/2025,45.3470219,-75.7312908,grocery
0854fc1f-ab5c-4f19-a125-7ccbb58368a4,DIXIE DAIRY CONFECTIONERY,101 MAIN ST,22/07/2025,45.4116429,-75.6790988,grocery
25566e04-501f-4757-80f1-9bc42ba2ed20,DOLLAR TREE,1750 INNES RD,26/11/2024,45.4162282,-75.6005309,grocery
1c4000f0-7acc-49b2-be1b-af789a7f8a69,DOLLAR TREE,525 W HUNT CLUB RD,17/07/2025,45.3348658,-75.7263278,grocery
b7e1727d-2ca6-4556-9011-b6644c577a00,DOLLAR TREE,2950 BANK ST,01/08/2025,45.3459818,-75.6267278,grocery
25ec0b22-32a9-4716-8f5b-4337b6c4acee,DOLLAR&#39;S VARIETY MART,1309 CARLING AVE,02/12/2024,45.3867616,-75.7342061,grocery
2a112fb5-5265-42b3-aba8-6100c7e0b0cf,DOLLARAMA,1300 STITTSVILLE MAIN ST,27/02/2024,45.2656448,-75.9290512,grocery
f202a59f-a462-4167-95fe-656a138de5bb,DOLLARAMA,2020 MER BLUE RD,26/11/2024,45.4527792,-75.5038706,grocery
3743095a-da38-493e-b7c1-7aa28c54075b,DOLLARAMA,1670 HERON RD,24/12/2024,45.3792083,-75.644858,grocery
e0931888-7af3-4415-82f1-928ffff5f5fc,DOLLARAMA,2116 MONTREAL RD,17/12/2024,,,grocery
dd47173f-7706-4ab9-8445-960954201e2f,DOLLARAMA,500 TERMINAL AVE,20/11/2024,45.4144745,-75.6471402,grocery
2c264154-59b4-4f17-9371-cc124b6f6780,DOLLARAMA,6505 JEANNE D&#39;ARC BOULEVARD,12/03/2024,45.4799355,-75.5369293,grocery
c252583a-2cd4-4085-b31a-d8527894c795,DOLLARAMA,1009 DAZ&#207;&#191;&#189; ST,21/05/2025,45.3538958,-75.651747,grocery
74183bfa-ce2c-4058-a672-2b8c958696b9,DOLLARAMA,1980 OGILVIE RD,06/03/2024,45.4244368,-75.636078,grocery
9acb7d24-dd5c-4a5a-af91-4ece5eaf9246,DOLLARAMA,2276 TENTH LINE RD,27/11/2024,45.4516009,-75.4840336,grocery
25656606-06ff-41ad-bdee-6320133bc502,DOLLARAMA,565 HUNT CLUB RD,02/02/2024,45.3386272,-75.6832979,grocery
cd909df9-4560-4ceb-bb39-79eba354ac66,DOMAINE PERRAULT INC,1000 PERRAULT RD,09/09/2025,45.3886715,-75.4282696,unknown
cca42ba3-17c1-4677-afd5-825e36a10130,DOMAINE PERRAULT INC,1000 PERRAULT RD,09/09/2025,45.3886715,-75.4282696,unknown
a6b649e7-bf06-4c16-af99-1176ed3ad759,DONNA&#39;S FRIENDLY STORE,157 CATHCART ST,14/11/2024,45.4336358,-75.695023,unknown
ad1b32ce-f15b-4563-9a63-c26faf91ef59,DOTTIES,1265 COLONIAL RD,16/05/2023,45.4212862,-75.423209,unknown
c0d955d6-a17b-4193-b919-84487eb57cad,DOUBLE M,850 INDUSTRIAL AVE,19/06/2023,45.4071971,-75.6328941,unknown
3d26f8dd-7163-495e-9674-876c0ad8091f,DOVE TALE COLLECTIONS,5350 CANOTEK RD,06/05/2024,45.4540804,-75.5837871,unknown
e8d26e8f-9cdb-4ad7-99ec-ab6165a289aa,DOWS LAKE DAY CARE,580 BOOTH ST,15/09/2025,45.3998614,-75.7059026,institutional
a7149b13-9bf7-455c-8464-64dd4899146a,DR. E. COUTURE CHILD DEVEL,2185 RIVERSIDE DR,08/10/2025,45.3889283,-75.6751203,institutional
02184b49-ea7f-4c83-8cb3-68104ea0e422,DRUMMOND GAS-MANOTICK,5220 MITCH OWENS RD,05/12/2024,45.2339116,-75.6759527,grocery
a06b7101-c45c-4762-b2fd-6e534879984c,DRUMMOND&#39;S GAS,1925 MERIVALE RD,05/02/2024,45.3296023,-75.720473,grocery
b3baa432-113b-4800-a460-1f4c8ba36e0d,DRUMMONDS FUELS(OTTAWA) LTD.,5789 PERTH ST,15/06/2023,45.2046248,-75.8225595,grocery
6cb0e733-7829-4e56-94d5-1402c7124622,DUKE FINE FOODS,2120 ROBERTSON RD,18/03/2025,45.3213227,-75.8334196,restaurant
0edf0c92-5626-410a-a949-d3ad7478ad24,EARLY BEGINNINGS MULT.CHILD,11 NADOLNY SACHS PRIVATE,17/09/2025,45.3764874,-75.7522898,institutional
ff88555e-6d2a-46f8-9229-5762ac169c77,ECOLE CATHOLIQUE PIERRE-SAVARD,1110 LONGFIELDS DR,10/10/2025,45.273133,-75.7369827,institutional
4e42923a-e856-421e-bb11-b3889dcd077e,ECOLE ELEMENTAIRE PUBLIQUE MAURIL-BELANGER,307 MONTGOMERY ST,08/05/2023,45.4327365,-75.6672897,institutional
6b1ce0e3-dcd5-4a5d-a56e-c1036e085f29,ECOLE GABRIELLE ROY,3395 D&#39;AOUST AVE,05/11/2024,45.3485545,-75.6344603,institutional
4529b243-b1e6-4768-a8d5-3452c3a85ca6,ECOLE GISELLE LALONDE H.S.,500 MILLENNIUM BOULEVARD,01/05/2025,45.4689434,-75.4454481,institutional
5e3839b0-eced-43e9-9ce9-6e929c5844d6,ECOLE SECONDAIRE BEATRICE DELOGES,1999 PROVENCE AVE,06/10/2025,45.4685327,-75.4583417,institutional
abc80b8e-55a2-423e-9a28-9f4e8dbdccda,ECOLE SECONDAIRE CATHOLIQUE PAUL-DESMARAIS,5315 ABBOTT STREET EAST,17/10/2025,45.2744446,-75.8967717,institutional
467de67c-fee6-4dc5-ae16-24973cf325b6,ECOLE SECONDAIRE PUBLIQUE PIERRE-DE-BLOIS,1310 CHAPMAN MILLS DR,10/10/2025,45.262621,-75.759247,institutional
b3e0c638-6a39-428a-a1e9-c3046dce2493,ECOLE ST FRANCOIS D&#39;ASSISE,35 MELROSE AVE,13/12/2024,45.4024522,-75.7240564,institutional
dc384fe5-a59b-4072-879d-a2f3001b3def,EDGEWOOD LINKS,3654 DUNROBIN RD,06/05/2025,45.4596387,-76.0611298,sports_rec
ee2e02a4-3eb8-46fc-b3e5-02115a73b1c3,ELEMENTS,451 SMYTH RD,16/10/2025,45.4023177,-75.6505617,unknown
59eefd6e-4624-4983-ba03-3a0e3eeed685,ELIZABETH WYNWOOD ALTERNATIVE PROGRAM,20 ROSSLAND AVE,18/11/2025,45.3529338,-75.7377383,unknown
fb09a588-9daa-47b3-9e38-e055ed0449ef,EMPATHY HOUSE,360 SUNNYSIDE AVENUE,22/05/2024,45.3928624,-75.6861274,institutional
a76a6a4b-288b-4c9f-adfa-cc0d486b2799,ETOILE FILANTES,1385 HALTON TERRACE,13/11/2025,45.348933,-75.936554,institutional
352d0615-2253-4af4-91e7-bece77b25cdb,EUREST DINING - R.C.M.P LEIKIN.,73 LEIKIN DR,10/12/2025,45.2959365,-75.7040863,institutional
ea86d91f-569b-47b5-84ad-0959408e2413,EUREST JOHN G DIEFENBAKER CAFFETERIA,111 SUSSEX DR,18/02/2025,45.4396428,-75.6942166,institutional
db1a904c-daf5-4284-8717-28f9009e2e36,EUREST NATURAL RESOURCES CANADA,580 BOOTH ST,02/10/2025,45.4000021,-75.7058879,institutional
037e9b3c-d25e-402e-a180-4f4e5c10b2cb,EUROPEAN UNION CULTURAL FAIR,1000 EXHIBITION WAY,14/06/2023,45.4000555,-75.6827317,institutional
17719b3e-14f3-48fa-b261-4aedbdc96ada,EVERGREEN CRAFT ALES,767 SILVER SEVEN RD,07/08/2024,45.301879,-75.9133395,unknown
a585645d-7674-4ad3-8fca-383e21781558,EXPLOSION PERSIAN STYLE,355 COOPER ST,30/11/2024,45.4169504,-75.6955827,restaurant
ee3a68e4-11ee-4d8c-936f-45f63128885c,EXTENDICARE CARLINGVIEW MANOR,2330 CARLING AVE,30/10/2025,45.3671285,-75.776681,institutional
51742b1a-11b2-41ff-b880-e6959ecfa6f0,EXTENDICARE CROSSING BRIDGE,2510 WELLINGS PRIVATE,08/11/2025,45.2829797,-75.9143284,institutional
cb61626c-5bf3-4872-8ef7-b7eeb9bb6b72,EXTENDICARE LAURIER MANOR,1715 MONTREAL RD,19/11/2025,45.4463977,-75.6108387,institutional
6746cb7a-899e-469e-81f7-a4b3f39f8ece,EXTENDICARE MEDEX,1865 BASELINE RD,21/11/2025,45.3543428,-75.7582175,institutional
55440394-d939-45a7-9038-9562245fdfbe,EXTENDICARE STARWOOD,114 STARWOOD RD,01/10/2025,45.353651,-75.7505848,institutional
987a6f3e-e1f1-47e8-b32b-ed1a3d1f8526,FADI&#39;S FABULOUS FOODS,3690 CARLING AVE,09/05/2025,45.3452445,-75.8773747,unknown
ac6e2760-9b26-4cd9-9518-da4cdeed774c,FAMOUS OZZY ON WHEELS 1,3867 ALBION RD,29/04/2025,45.343278,-75.6365584,food_truck
a3d0d1c1-dc3b-43ae-93e2-111fbe241fbb,FAMOUS OZZY ON WHEELS 2,3867 ALBION RD S,02/10/2025,45.3433383,-75.6365333,food_truck
dc1e534d-4bd9-4991-a3b1-14c57585cb42,FAMSAC,3865 OLD RICHMOND RD,27/09/2024,45.3216497,-75.826392,institutional
6f43d9cb-e622-4b76-84af-55e1a4a5ce67,FAMSAC,3891 RICHMOND ROAD,27/09/2024,45.3207325,-75.8262881,institutional
a3e22d67-6360-44dc-a73b-0518dc7f253d,FAST &amp; FRIENDLY FOOD SERVICES,61 BILL LEATHEM DR,02/12/2025,45.2961135,-75.7108971,catering
3836a699-083d-46c8-abf5-2c71f78d85df,FERME PROULX,1865 O&#39;TOOLE RD,09/08/2025,45.4846918,-75.4208514,unknown
099660d6-0a17-4795-98c9-452655e9a293,FESTIVAL FOODS,1 VIMY PL,04/07/2024,45.4171032,-75.7169418,institutional
1ac7db56-ac7a-485d-a383-da0e743a3a42,FETCH LOCAL MARKET,245 CENTRUM BLVD,19/07/2025,45.4806423,-75.5113908,unknown
596f649e-22e1-419d-8bd4-f5c06bc96854,FETTUCCINE&#39;S,5370 CANOTEK RD,01/04/2025,45.4553317,-75.5821342,restaurant
655dab60-554c-4597-b90a-0310b3db0db2,FIRE BOX PIZZA OT,5 YOUVILLE DR,16/07/2025,45.4654839,-75.5472144,fast_food
a3f02887-2100-47f3-8214-ec6ba4e515d7,FITZROY HARBOUR COMM. CTRE,100 CLIFFORD CAMPBELL STREET,10/12/2025,45.4701637,-76.2066239,institutional
885a4d9a-7b3c-4c49-8e8c-1187c83a9f0f,FITZROY PROVINCIAL PARK FOOD SHOP,5201 CANON SMITH DR,15/08/2025,45.483054,-76.2184575,institutional
419b2663-9d56-4a4f-9b2a-02916db899a4,FOREST EXPLORERS OUTDOOR LEARNING,415 CORKSTOWN RD,10/11/2025,45.3287993,-75.867723,institutional
580c76b0-7595-434a-909d-97acfafea6d6,FOREST HILL,6501 CAMPEAU DR,12/12/2025,45.3143823,-75.9096649,institutional
8cdaeacb-256c-43c4-b719-385267dca420,FOREST VALLEY TERRACE,1510 ST JOSEPH BOULEVARD,14/11/2025,45.459187,-75.5588247,institutional
2601d4e2-a769-4090-9007-b745ee6b8c03,FRANCO CITE,623 SMYTH RD,15/04/2025,45.4010672,-75.6411627,unknown
4e44f860-a6b9-47b4-b6f8-645e7df78736,FRANKBERRY BAKING,1000 EXHIBITION WAY,07/06/2025,45.4000568,-75.6828155,unknown
dc960dd7-5d13-4bd2-91ee-94980fb5cd3c,FRESH GROCER,40 JOLLIET AVE,26/08/2025,45.4431425,-75.6687168,grocery
74b17d52-43ff-42fa-b14a-e0a54841bc9c,FRIENDS BINGO HALL,70 MONTREAL RD,21/08/2025,45.4332992,-75.6676389,institutional
f57354f8-3c37-481a-a67d-2d1ca67c6b62,FROM AFRICA,2960 RIVERSIDE DRIVE,06/09/2025,45.3698605,-75.6912714,restaurant
30ffdd57-ea09-47c0-b65b-babd067b7046,FROZEN DREAMS,5905 BUCKLAND RD,05/06/2025,45.3507076,-75.3549511,ice_cream
a57a6230-d875-4ed2-8c78-837b9c1442ff,FROZEN DREAMS/BEAN HERE,5905 BUCKLAND RD,07/08/2025,45.3507076,-75.3549511,ice_cream
496233d4-b83a-4fbd-8ae7-43c33a03c313,FRY YAY,3003 ST JOSEPH BLVD,04/04/2024,45.4764965,-75.5155348,fast_food
604944e0-97e4-457c-9db7-1fb0224b2de5,FUN DAYS,3632 KINBURN SIDE RD,09/10/2024,45.3701915,-76.2227261,institutional
603bce5a-9d4b-4536-9b61-dee51bd4e5be,FUN DAYS,,25/04/2025,45.3701915,-76.2227261,institutional
b410a9d4-e392-4925-b395-98c2cd709714,FUN HAVEN,1050 BAXTER RD,20/11/2025,45.3542614,-75.7797581,institutional
a83e090a-5d4f-4666-a10b-03d6e7b46dab,GAGA TROPICAL,267 MONTR&#207;&#191;&#189;AL RD,29/04/2024,45.4367749,-75.6604855,restaurant
7ecbe676-9cd2-40b2-9136-4b57a24c7722,GALETTA HALL,119 DARWIN ST,23/05/2023,45.4250233,-76.2616842,institutional
d8767916-9f2f-43cb-b1e9-6ec73068293a,GARDEN TERRACE,100 AIRD PL,14/11/2025,45.3097513,-75.9009769,institutional
cabc74fd-175c-4c99-b04b-497048724210,GARDEN VIEW SENIORS APARTMENTS,1521 MANOTICK STATION RD,29/09/2025,45.2351765,-75.6108942,institutional
07657c4c-b3f0-4280-8f1c-28c887b5a7e4,GARRY J. ARMSTRONG,200 ISLAND LODGE RD,04/11/2025,45.4378456,-75.683211,unknown
fe66932c-4f03-42d7-b8e4-7705b3912560,GARVIN BARBECUE,1138 CLAP LANE,08/05/2025,45.2274934,-75.7229312,unknown
94360e46-0fb5-4905-9de7-0ba5f99bda86,GEE&#39;S PASTRIES,196 JEANNE MANCE ST,06/09/2024,45.4330304,-75.6618075,bakery
5911b80c-eda4-450a-a032-a42d1c552625,GEES BEES HONEY,538 RIVER,08/08/2024,45.2886429,-75.6938254,specialty_food
1447f739-b8ce-4f18-bd9e-1a1cbef21481,GIANT TIGER,2480 WALKLEY RD,25/03/2025,45.3910584,-75.610644,grocery
1dd745b7-a357-45a6-b3de-836bfa5c9605,GIANT TIGER,2396 ST. JOSEPH BOULEVARD,17/06/2025,45.4688827,-75.5289403,grocery
fd5d8c80-6f41-4044-a8f7-c0480f381bf8,GIANT TIGER,1168 MAPLE ST,25/09/2024,45.2248015,-75.68698,grocery
c8b6e1f4-ca05-4999-a1b8-d2adb1195690,GIANT TIGER,2950 BANK ST,01/08/2025,45.3910584,-75.610644,grocery
5340e048-a450-4386-889e-e7f9396fdb7e,GIANT TIGER,1021 ST LAURENT BLVD,16/04/2024,45.4284564,-75.6379081,grocery
1dd04e87-cff4-44e3-85ce-f79e619f074f,GIGSPACE PERFORMANCE STUDIO,953 GLADSTONE AVE,12/12/2024,45.4039174,-75.7149668,institutional
a268cdca-a900-4912-b10a-39f674d7a9ff,GLOUCESTER EMERGENCY FOOD,2040 ARROWSMITH DR,03/07/2024,45.4378881,-75.5956847,institutional
12766044-c53e-4511-b61f-e840292732f1,GLOUCESTER FINE FOODS,1228 OLD INNES RD,20/11/2025,45.410138,-75.617999,restaurant
4ffa4c36-8150-4432-afd9-5e9b5c1e30ca,GO NUTS,1009 DAZ&#207;&#191;&#189; ST,05/11/2025,45.3538958,-75.651747,unknown
29fcd62a-7b34-4484-8740-3f27b0971f3f,GOLDEN POTATO,1000 EXHIBITION WAY,21/11/2025,45.4000568,-75.6828155,fast_food
b41516e5-9ea8-40fd-ab84-95f828388955,GONZALEZ BBQ,93 HOULAHAN ST,11/08/2023,45.2615118,-75.7671704,fast_food
6b4bbef7-00c1-4da2-95e9-53f6df4dc424,GOOD FOOD 2 U,2391 P&#207;&#191;&#189;PIN CT,15/10/2024,45.4285501,-75.5757227,unknown
36e7e132-b55f-49f3-8d24-f034dbfa2a5e,GOOD GRAZES,5510 CANOTEK,24/03/2025,45.457309,-75.585126,unknown
06dfbb32-94c3-4a89-bfe0-6cb9589cf6b7,GOOD TIME FOODS,3436 DWYER HILL RD,24/11/2025,45.1264831,-75.9456111,unknown
7a2dfe7a-77bb-4066-ba73-f49f12f64eda,GOOD TIME FOODS,2862 DWYERHILL ROAD,02/11/2023,45.1457105,-75.9699705,unknown
cd0503db-7fe9-43af-8ab4-ff9961277650,GRAMPA DAN&#39;S FRESH CUTS,139 REIS RD,08/10/2024,45.3047116,-75.9807001,specialty_food
f206841a-f7d0-47e8-8cd8-331852f01e9c,GRANDIR ENSEMBLE,880 THORNDALE,04/11/2025,45.3638637,-75.672559,institutional
027b53fc-b3c6-4fe0-b399-087d9722f148,GRANDIR ENSEMBLE -  ECOLE ELEMENTAIRE CATHOLIQUE SAINT-JEAN-PAUL II,5473 ABBOTT RD,18/08/2025,45.2706116,-75.9034762,institutional
4af19fbe-8e1d-475f-ba63-daf78aefc2e4,GRANDIR ENSEMBLE - ECOLE ELEMENTAIRE CATHOLIQUE PIERRE-ELLIOTT-TRUDEAU,601 LONGFIELDS DR,27/10/2025,45.2854792,-75.743476,institutional
e2261ff3-1bd8-486e-b2d8-1a9607f731d6,GRANDIR ENSEMBLE - ECOLE JEAN-ROBERT-GAUTHIER,651 CHAPMAN MILLS,07/10/2025,45.2703347,-75.7314071,institutional
295672d0-415d-427c-af5d-34c479285896,GRANDIR ENSEMBLE - ECOLE SAINTE-KATERI,2450 RIVER MIST RD,16/10/2025,45.2453771,-75.7361187,institutional
f6778ce7-9b9a-4e68-b76c-a5df131a5b83,GRAVEL FOOD,373 LEGGET DR,05/05/2023,45.3417434,-75.908033,unknown
b65a6a7f-ec49-4bac-b6b7-79c26c51848d,GROCER DIRECT,4899 UPLANDS DRIVE,27/09/2024,45.3321203,-75.6539379,grocery
e121c63b-1e55-4883-9d6c-2d1b94931899,GULLY BOYS,20 LINDBERGH PRIVATE,31/10/2023,45.3349983,-75.6871568,unknown
51d53532-ac7d-490b-bf48-1425c4a8868d,HAICO&#39;S HOT SAUCE,255 CENTRUM BLVD,03/05/2024,45.4811496,-75.5102079,unknown
7574bc8c-ba41-43a5-a6ec-f3c75103d44a,HARD ROCK CASINO (HR OTTAWA LP),4837 ALBION RD,05/12/2025,45.294921,-75.607835,bar
fde42067-8d54-4a63-9630-bac1c40b3de0,HARMER HOUSE,848 SEYTON DR,24/07/2025,45.312924,-75.8327528,institutional
348213e0-e88d-4849-9750-f86c35cf0b65,HARVEST HOUSE MINISTRIES,3435 RAMSAYVILLE RD,10/12/2025,45.3683819,-75.565686,institutional
177b4a4f-04c9-49ee-95eb-8f140c026d5c,HASTY TASTY,7 BAYVIEW STATION RD,07/11/2023,45.4096858,-75.7280263,unknown
ae32a61b-9ec2-4725-952e-a48f625f7d64,HAWTHORNE MEADOWS NURSERY,2244 RUSSELL RD,19/09/2025,45.3953841,-75.6138217,institutional
0269c3d6-bfd7-433b-96b8-2d3b4729a724,HAZELDEAN GARDENS,6130 HAZELDEAN RD,16/09/2025,45.2711456,-75.9329027,institutional
11dcd7ed-08ec-4dd6-9f4f-6bcf67d4b183,HCO - MAY COURT HOSPICE,114 CAMERON AVE,12/08/2025,45.3900324,-75.6831834,institutional
cc2b6b94-4147-4b9e-8920-8bc6cc04bc1c,HEALTHY PLANET,590 INDUSTRIAL AVE,06/12/2024,45.4107468,-75.6425309,unknown
22e25cca-dcad-4271-a9f6-a888914f9235,HERITAGE PARK FIELD HOUSE,6160 ORLEANS BOULEVARD,08/10/2024,45.4536199,-75.5339432,institutional
5e0c8c01-1059-44a0-a31e-55a38bdf7d17,HIGHLAND PARK CEMETERY,2037 MCGEE SIDE RD,26/03/2025,45.3199044,-75.9885192,institutional
052f2082-45ca-403a-850a-ceecb576d12b,HILLCREST H.S.,1900 DAUPHIN RD,04/12/2024,45.3986848,-75.6392846,unknown
3fb05aed-7c29-4361-a4b9-fce18d7cf691,HOGANS FOODS,315 POWELL AVE,10/05/2024,45.4021862,-75.7017407,unknown
1408c763-51fd-45a2-ac33-46c3758889eb,HOLLY&#39;S GEM,2435 HOLLY LN,22/10/2025,45.3767608,-75.638851,unknown
9537792c-21aa-438b-a5c9-85664046f96f,HOLY SPIRIT PARISH,1489 SHEA RD,16/12/2025,45.2654528,-75.9078862,institutional
60585349-921f-4530-a399-45dcf20cca8d,HOPEWELL DAY CARE,17 HOPEWELL AVE,11/09/2025,45.3935814,-75.6839798,institutional
3982ec43-6cec-43ba-8020-49ff39433b81,HORIZON JEUNESSE,349 OLMSTEAD,03/12/2024,45.4326751,-75.6598475,unknown
3ba0ec17-d946-4962-91e8-86d194b5122c,I COOK PERSIAN CUISINE,731 RIDGEWOOD AVE,03/01/2023,45.36851,-75.6881584,restaurant
972455eb-df10-4f22-bdf2-ba45b693c914,I HEART BEER LIMITED,110 LAURIER AVE WEST,10/03/2023,45.4216122,-75.6916922,unknown
c9afa0f0-cc36-4770-a0c2-bbb1e52951a6,I HEART NUTS,1000 EXHIBITION WAY,04/03/2023,45.4000351,-75.6828265,unknown
f6729568-adf1-4e80-ab63-66b1e8dcc1e3,IBJ MARKET &amp;MULTI-SERVICES,23 MONTR&#207;&#191;&#189;AL RD,11/07/2025,45.4333274,-75.6690153,unknown
1c4082f3-51ad-4b9a-89b1-a0e83d3eb712,IKEA CANADA LIMITED,2685 IRIS ST,02/12/2025,45.3503254,-75.7849634,unknown
6454da69-6dac-46bf-aad0-1ac16166bc03,IMAGINATION STATION,1107 CARP RD,23/09/2025,45.2697565,-75.9412532,unknown
f90b8e99-e00a-4a23-aad8-1b2cb3edd019,INTERVAL HOUSE,RESTRICTED,12/12/2025,0,0,institutional
643ad6b7-922b-40fb-8b5d-7a1dee7f5652,ITALFOODS LTD,266 WESTBROOK  RD,18/12/2025,45.2688409,-75.9614852,unknown
59bf1c2d-2fcb-46c0-8aa7-8b8573fe8f50,J.F.NORWOOD,211 BRONSON AVE,16/04/2024,45.4135609,-75.7063439,unknown
53ce3894-2efd-4e0c-9dda-124520e837be,JABULANI VINEYARD &amp; WINERY LTD,8005 JOCK TRAIL,13/05/2025,45.1308721,-75.9165892,unknown
0351c30b-8bba-4371-ac23-2356da0de393,JACOBSONS,103 BEECHWOOD AVE,28/12/2023,45.441631,-75.673622,unknown
c58d4936-ac85-4982-9062-d7079f3afb68,JAI MATA DI,3084 KINBURN SIDE RD,21/08/2025,45.391489,-76.1885617,unknown
82527ba5-1c1b-4641-8edd-75afcd390245,JARDIN ROYAL GARDEN,2802 ST JOSEPH BLVD,23/09/2025,45.472956,-75.5201964,unknown
3e4fb388-c650-4e32-a079-fab5f33043c4,JASMIN MARKET,335 LACASSE AVE,03/03/2025,45.4344553,-75.6565371,unknown
0ff78491-4500-4eb6-976e-cb5fa7f98ea3,JEANNE MANCE FOODS,196 JEANNE MANCE ST,20/08/2025,45.4330405,-75.6618142,unknown
1007c375-82a2-4a95-862f-e9e12f643b39,JERK  STOP,YORK ST,28/06/2025,45.4300906,-75.6886396,unknown
43247b0f-f5cd-45d0-a62d-0067990effc0,JIM DURRELL REC.ELLWOOD HALL,1265 WALKLEY RD,18/10/2024,45.3729297,-75.6585727,institutional
5732e343-6afe-405e-ad8d-17e7525c079f,JIMMY&#39;S WAFFLE WORLD,5872 HAZELDEAN RD,16/04/2025,45.2781187,-75.9192641,unknown
6359a27b-7eea-4477-ba58-8b90b02e5e82,JIMMY&#39;S WAFFLE WORLD INC.,5862 HAZELDEAN ROAD,25/07/2025,45.2779998,-75.9185397,unknown
d704b654-c1b4-44ea-851a-223c593d84d4,JOHN HOWARD SOCIETY - KIRKPATRICK HOUSE,591 MACLAREN ST,18/11/2025,45.4120989,-75.7025584,institutional
4c29d814-7fae-47c2-a578-fb3d3d100779,JOHN HOWARD SOCIETY OF OTTAWA,55 CARRUTHERS AVE,23/04/2025,45.4086964,-75.7303469,unknown
3caee656-ebad-41b5-bd66-c88b6933792d,JOYCE&#39;S MMMM MUSTARD,3058 JOCKVALE RD,19/11/2025,45.2711077,-75.757124,unknown
2aa89b58-7cea-4398-a297-5ed44ff14271,JR&#39;S UPPER DECK,159 GRANVILLE STREET,12/10/2023,45.442593,-75.656514,unknown
b276dfa5-1e1d-4f64-a874-7907496dce91,JUDE&#39;S PIZZA METCALFE,6537 BANK ST,28/11/2025,45.420962,-75.702902,fast_food
370c2ccc-4679-4223-ae3d-5769dbd17760,JULIANO&#39;S GELATARIE LTD #1,LEBRETON FLATS,01/07/2025,45.413947,-75.7146744,unknown
c122626e-6c0b-444e-8c7f-e19d483c4f05,JULIANO&#39;S GELATARIE LTD #2,LEBRETON FLATS,01/07/2025,45.413947,-75.7146744,unknown
17741c8c-bb0c-41a5-a40e-516f62af04a7,JULIANO&#39;S GELATARIE LTD #3,LEBRETON FLATS,01/07/2025,45.413947,-75.7146744,unknown
ce433492-31bb-48cd-ae74-fd1d69702f59,JUNIOR &amp; THE KID,711 AMBERWING PRIVATE,04/03/2023,45.440885,-75.4952812,unknown
c3876c48-1534-4068-9f89-e4aa2b6641e8,K,LET&#39;S EAT,16/10/2025,NaN,45.3989984,unknown
ba2b445b-3c3a-48f0-bdb7-82e94ed9d462,K-FEST,450 QUEEN ELIZABETH DRIVEWAY,10/06/2023,45.40062,-75.68084,unknown
84d799af-bbe5-4adf-8ba3-5f2acaa8291c,KAI PING FOOD,141 BENTLEY AVE,25/06/2025,45.3371701,-75.7113092,unknown
22eb806f-e9e0-4ed9-8e22-84b0538aa6a0,KANATA FOOD CUPBOARD,340 LEGGET DR,15/02/2024,45.3393235,-75.9088365,institutional
97d1e10c-4e2e-4f08-a8d2-5fc9dd448a81,KANATA LEGION,70 HINES RD,09/05/2025,45.3445994,-75.9222033,unknown
d695f768-b391-4ae4-848c-3b5d1adac4cf,KANATA SPORTS CLUB,10 MCKITRICK DR,10/11/2025,45.2936428,-75.8838501,bar
cbc535ad-f64c-4f92-a955-4218907fe41c,KANVIDONUTS SUPPLY INC.,196 JEANNE MANCE ST,18/08/2025,45.4330304,-75.6618075,specialty_food
b94f0e6d-6e3b-4189-85b7-bd8c3ccce4f7,KANZENG GROUPE MARCHE TROPICAL,267 MONTREAL RD,01/04/2025,45.4367749,-75.6604855,restaurant
34d18667-6e71-4944-a6ec-867db1abacae,KARDISH BULK FOOD AND NUTRITION,1309 CARLING AVE,26/11/2024,45.387597,-75.7342256,unknown
959fa4d9-b109-40ac-892b-8e6f07684163,KAUAI SHAVED ICE,7249 PHILNOR ST,16/07/2025,45.26098,-75.55139,unknown
98788c6e-f663-4076-9d61-19601f6508a1,KEHILLAT BETH ISRAEL CONGREGATION,1400 COLDREY AVE,27/10/2025,45.3805658,-75.7391783,unknown
551f0711-e40c-4403-9f3e-559bb5efbc84,KELLY FUNERAL HOME,1255 WALKLEY RD,04/11/2025,45.3719296,-75.6605356,unknown
2302f85d-31db-4e74-aeea-61339be9b54a,KELLY FUNERAL HOME,2370 ST JOSEPH BLVD,17/11/2025,45.4684791,-75.5293575,unknown
287f8898-2f10-4b1c-b335-87d42848378e,KELLY&#39;S FUNERAL HOME,3000 WOODROFFE AVE,13/12/2024,45.2904357,-75.7276597,unknown
99008204-2190-44ab-b51c-6ca5588aefee,KELLY&#39;S KRAVINGS,2960 RIVERSIDE DR.,20/08/2025,45.3698605,-75.6912714,unknown
5cfb8256-040f-430c-b289-e6f77635fac9,KELLY&#39;S LANDING,1980 RIVER RD,25/06/2024,45.1327985,-75.6337454,unknown
be15583f-d971-495f-8653-b6426c047530,KEY TO YOUR HEART,475 SOMERSET ST W,01/10/2025,45.4124802,-75.7033624,unknown
effa3719-8f87-4b53-8657-a1726efc7338,KI&#39;IMAK,1000 EXHIBITION WAY,07/06/2025,45.4000568,-75.6828155,unknown
c7f4791f-e115-4d0d-b9cd-e482b1491b95,KICHESIPPI BEER COMPANY,2265 ROBERTSON RD,09/10/2025,45.3180882,-75.8441848,unknown
2fb466c6-9594-4004-8636-19323d1074de,KIDS KINGDOM,1290 TRIM RD,02/10/2025,45.4923513,-75.4802349,unknown
5f23810e-f08c-4636-b84c-35f0e51d3047,KIDS KINGDOM,66 HEARST WAY,18/11/2025,45.3175255,-75.886493,unknown
b88b47e4-8597-4cc8-9200-e2dbd058559c,KIN VINEYARDS,2225 CRAIG SIDE RD,15/05/2025,45.3542143,-76.0506677,unknown
33825d11-714d-4b10-84ba-18adba0cd840,KING&#39;S CONFECTIONERY,1224 SHILLINGTON AVE,30/06/2025,45.3806314,-75.7283501,grocery
f3eb3518-38eb-40e9-89df-325791c8facf,KNIGHTS OF COLUMBUS,1172 CUMMINGS AVE,01/02/2024,45.4273923,-75.6327541,unknown
657e5a09-450a-45fd-8a3d-1acd43b63b42,KONA ICE OF OTTAWA,3790 CARP RD,30/07/2025,45.3467009,-76.037618,unknown
15dba805-cbb4-4f51-a407-c44a11c157e3,KRACKERS KATERING (NON-PROFIT),22 O&#39;MEARA ST,14/04/2025,45.4066557,-75.7236521,unknown
be58da1c-08db-42d1-ae21-60a5c691f5a1,KRAVE FOODS,YORK ST,28/06/2025,45.4300906,-75.6886396,unknown
a9030470-0722-495d-bbf5-b4398430b30c,L&amp;F MONTEGO PLACE,2211 ST. JOSEPH BOULEVARD,30/06/2025,45.4678575,-75.5333095,unknown
9f193eb9-b87e-4d82-ac23-0f8ccaedc4b3,LA CLEMENTINE,925 RALPH HENNESSY AVE,12/08/2025,45.2713708,-75.6797191,unknown
5c04ea78-c1a2-414a-a51c-a40d65660553,LA CLEMENTINE,4170 SPRATT RD,31/07/2025,45.2848742,-75.6824254,unknown
5fd26be2-cd86-4fbb-b672-f34c8894caf9,LA CLEMENTINE,715 BRIAN GOOD AVE,13/08/2025,45.2670965,-75.6931158,unknown
d999ebc6-57cf-41b8-8ea4-0ebbbf413242,LA CREPE VOLANTE,MAJORS HILL PARK,12/06/2025,45.427506,-75.697065,bakery
cb3dde37-e80b-41b7-8f75-c32ee74a4d60,LA GUIMAUVERIE,572 SMITH RD,17/04/2025,45.4112621,-75.4537897,unknown
264af3b5-f602-4efc-ac12-fc3f317ce2e3,LA HA TACOS,255 CENTRUM BLVD,06/06/2025,45.4808998,-75.5102608,unknown
a4c17453-94bb-4867-8fef-3bcb6f1cf5c8,LA PETITE ECHELLE,510 LACOLLE WAY,01/10/2025,45.4908059,-75.4812485,unknown
63388071-c281-4ade-8964-49cf36c011f3,LA VIBES,50 FRANK NIGHBOR PL,09/05/2023,45.2991757,-75.9164128,unknown
a6a2bc7b-cc45-45dd-a7b2-3efa88717a35,LAM AND SON FOODS,245 WESTBROOK RD,14/02/2023,45.2712769,-75.9614221,unknown
cfbda6c7-684b-44f2-9abc-cffe83392c40,LARGA BAFFIN LTD,2716 RICHMOND RD,03/11/2025,45.3599974,-75.7924291,unknown
57d81769-ac6b-4334-86e8-2440b8411d9a,LAURIE&#39;S EATS AND TREATS,3835 MCBEAN ST,26/04/2024,45.1807437,-75.82124,unknown
404b158c-9d6c-448c-8761-f6d5a5933b22,LE 801,801 AVIATION PKWY,10/03/2025,45.4404776,-75.6368311,unknown
9d54a7c2-3f26-43e0-a273-29a71b7c9665,LE CERF VOLANT,920 PARKHAVEN AVE,03/10/2025,45.3630349,-75.7769112,unknown
674e2441-21e2-4762-958c-66d46d6b7ade,LE CERF-VOLANT - MAISON DE LA FRANCOPHONIE,2720 RICHMOND RD,04/12/2025,45.3585621,-75.792732,unknown
1564f7f2-4eda-441a-8350-dde429770535,LE CERF-VOLANT- ECOLE TERRE DES JEUNES,1303 FELLOWS RD,03/10/2025,45.3521499,-75.7678245,institutional
91849c7c-7aa4-4d66-9424-0cc3a4298839,LE MAN&#207;&#191;&#189;GE,100 STONEHAVEN DR,22/09/2025,45.2872878,-75.8465606,unknown
a883aa5d-fb24-4926-bb52-c46792e1f7e9,LEPAGE MANOR,1400 LEPAGE AVE,12/12/2024,45.3762269,-75.7351562,institutional
000152cc-9585-4b46-adbf-b4cf8f2546c9,LES BRULES ARTISANS FUMEURS,MAJORS HILL PARK,13/06/2024,45.427506,-75.697065,unknown
a442b5b7-ce7b-452f-a64a-e6f72650f976,LES ETOILES,23 MONTR&#207;&#191;&#189;AL RD,01/11/2024,45.4333274,-75.6690153,unknown
9ca2edb7-ba46-4374-a400-749623700884,LES JARDINS CAMILLA GARDENS,1119 BATHGATE DR,20/11/2025,45.4327017,-75.6177858,unknown
712f2fc3-2d94-4954-a0c7-935244347209,LES PETITS FRIMOUSSE,134 GENEST ST,16/09/2025,45.4399257,-75.6710153,unknown
78d9e9d5-6b3a-4eb5-a7d8-7a50149091c8,LESTER B PEARSON (D.H.),2072 JASMINE CRESCENT,17/03/2025,45.4433016,-75.5957775,unknown
e70bc9ee-4b4a-4231-a6e6-031645d65877,LESTER B. PEARSON,2072 JASMINE CRESCENT,17/03/2025,45.4433016,-75.5957775,unknown
b103be3c-7d8c-4890-94c4-c32d54c1c0c0,LEVANTE THE EDINBURGH,10 VAUGHAN ST,10/10/2025,45.4390021,-75.6786837,unknown
04ab0928-21b8-4cd9-9753-ee6dea820db4,LEVANTE-HUNT CLUB MANOR,1351 HUNT CLUB RD,14/09/2025,45.3552188,-75.6466325,bar
9c763fd0-d410-449e-816c-b9d3ee273d7c,LI&#39;S FUSION,200 VANGUARD RD,12/11/2025,45.4570906,-75.4893033,unknown
94ed7903-19e9-43e0-bf9e-c87cd2b4fb76,LIONS CLUB,1339 STITTSVILLE MAIN ST,10/12/2024,45.2645104,-75.9267728,bar
7abdc3ef-e7ca-4baa-9aad-5e46e579f45d,LISANA,8 SWEETNAM DR,06/06/2025,45.2773472,-75.9159428,unknown
8f4eb1ea-31fe-4c8e-9e10-8093c37411db,LISANA,355 COOPER ST,30/11/2024,45.4169504,-75.6955827,unknown
8da0483f-ab69-4ac3-89b7-efe0a8a21c40,LITTLE MUNCHKINS HIDEOUT,1426 HUNT CLUB RD,10/11/2025,45.3559765,-75.6402985,unknown
e16d4854-8918-4db8-867b-9863accec329,LOIS N&#39; FRIMAS,1015 BANK ST,26/11/2025,45.398288,-75.6842465,unknown
4e19d76c-759f-4a98-b866-321b9c397d66,LONG ISLAND AQUATIC CLUB,5495 SOUTH RIVER DR,28/05/2025,45.2308694,-75.6792272,bar
15ecbf35-d41d-435e-a737-f44a081112db,LORENZO&#39;S,3621 INNES RD,08/03/2023,45.4660703,-75.4706941,unknown
6b17986d-26f9-40a3-b5b5-4a1853b833ce,LOUIS RIEL,1655 BEARBROOK RD,25/03/2025,45.4414467,-75.5714633,unknown
b5cef4db-7d5c-4dcd-bc01-e08f0872805f,LUCIEECOOKING INC.,5360 CANOTEK RD,24/03/2025,45.4547396,-75.5836579,unknown
41dc15bc-dd32-40b5-9842-eb964c0856df,LUSITANIA PORTUGESE CLUB,63 GRENFELL CRESCENT,23/09/2024,45.3206122,-75.7222254,bar
60a4367e-4090-425d-852c-f0a150f17576,LUXO,1250 CUMMINGS AVE,27/11/2025,45.4247493,-75.631129,unknown
0e279933-4735-4f7d-9879-e13a784fdf6a,LYCEE CLAUDEL,1635 PLACE LYC&#207;&#191;&#189;E PLACE,09/12/2025,45.4063142,-75.6635808,unknown
165f0932-22fe-4bf1-a43f-b20ae721569f,M.H TUCK SHOP,1551 RIVERSIDE DR,22/11/2024,45.4084827,-75.6627194,grocery
f77349a6-3aed-4c2c-a019-019978b0e4a3,M&amp;M FOOD MARKET,1144 TERRY FOX DRIVE,18/02/2025,45.2767818,-75.8748122,unknown
2d1002d9-3128-4a69-9673-ad009c11630b,M2 KFE,2500 PALLADIUM DR,01/12/2025,45.293911,-75.931998,unknown
ca86bf06-61ae-47f7-873c-7cf29f02c1e0,MACEWEN PETROLEUM,685 RIVER RD,21/11/2025,45.2702097,-75.698177,unknown
36c5c06d-6bc2-4199-874a-ad98bde7d6b6,MACEWEN PETROLEUM,5026 BANK ST,17/01/2025,45.1458368,-75.4434499,unknown
cc2b44d9-1955-4165-9912-567d508cdf5b,MACEWEN PETROLEUM,4564 FALLOWFIELD RD,14/10/2025,45.2689656,-75.8018053,unknown
d862fdbc-f0cc-40b2-9d0e-e3a7afa77687,MACEWEN PETROLEUM,2070 CARP RD,01/10/2024,45.2756404,-75.9496328,unknown
9b227577-e3dc-43dd-8d90-e3ab57b43800,MACEWEN PETROLEUM,1794 DUNROBIN RD,06/02/2024,45.3831274,-75.9694675,unknown
e700d0b6-0e93-4d2e-8b30-9d1483d06a89,MAHARAJA FARMS,4282 WILLIAM MCEWEN DR,01/10/2025,45.2137879,-75.7417316,unknown
fb6f2f71-f12f-4307-84de-982eef8a11df,MAISON ACCUEIL SAGESSE,424 MONTREAL RD,23/09/2025,45.4390363,-75.6510714,unknown
11efff6a-d0d0-4eec-825d-ead31276efe1,MAISON D&#39;AMITIE (M1),RESTRICTED,16/05/2025,0,0,unknown
87e59161-c58e-4894-a61b-1b199c4bad9f,MAISON D&#39;AMITIE (M2),RESTRICTED,16/05/2025,0,0,unknown
6ba63ef7-5e99-495e-9a94-268c86238d2b,MAISON DECISION HOUSE,37 IRVING AVE,16/12/2025,45.4044967,-75.7220764,institutional
c11fe341-6b83-4ceb-b71c-9e666bb251d5,MAKONSAG,297 OLMSTEAD ST,08/09/2025,45.4351352,-75.6616223,unknown
78abcc25-1442-4403-98e7-f41fa988d13c,MANGO BUBBLES,1000 EXHIBITION WAY,09/05/2025,45.4000568,-75.6828155,unknown
3f01f57c-ede6-452d-9ef4-75947506922c,MANOIR MAROCHEL,949 MONTREAL RD,07/10/2025,45.4478458,-75.6282081,unknown
1de63a0b-3e0c-4ba2-8eb3-8e67b33a78e8,MANOTICK MEAT AND FISH,5531 ANNE ST,03/02/2025,45.46181,-75.472305,unknown
ca89b895-30ed-4c47-8e07-b6b3038e7ca5,MANOTICK PLACE,1145 BRIDGE ST,21/10/2025,45.227212,-75.685438,unknown
eed28305-1d50-47cc-9dcd-2b6cf0914d04,MAPLE CONCESSION,1701 WOODROFFE AVE,16/12/2025,45.3267752,-75.7452786,unknown
08c16449-f44c-496e-824c-45cdf7cffcb0,MAPLE CONCESSION,1701 WOODROFFE AVE,15/08/2024,45.3267752,-75.7452786,unknown
eeda857e-7f23-4216-a36b-116cbdd477e8,MAPLE HALL,2552 OLD MONTREAL RD,11/09/2024,45.5170559,-75.4076408,institutional
eae14883-c980-412b-935b-96234cbe848c,MAPLE LEAF ALMRAUSCH CLUB,3928 FARMERS WAY,01/12/2025,45.364577,-75.5214354,bar
c891d2c9-95a5-4699-8e56-654ecaab6ab8,MAPLE TAFFY,BANK AND O&#39;CONNOR,01/02/2025,0,0,unknown
b73cba2c-16ed-4966-84b6-7f86e13c818e,MARCELLO&#39;S,1850  WALKLEY ROAD.,20/11/2025,45.38083,-75.63514,unknown
4df99015-4f80-46c5-939e-a3323b171462,MAROO,281 KENT ST,07/03/2025,45.4141643,-75.6982656,unknown
843431c4-7a01-49fa-8218-1f6a182c44b2,MARROW BY MAKER FEED CO,845 CHAMPLAIN ST,06/11/2025,45.4841179,-75.5197766,unknown
6fc550b4-86e8-4516-86dc-77051c5b1390,MAVERICK&#39;S ALTA VISTA INC.,1500 BANK ST,16/09/2025,45.381432,-75.6695281,unknown
b6ce3621-8339-4eb7-bce2-d52585c26e1b,MD FINANCE,1870 ALTA VISTA DR,30/10/2025,45.399128,-75.662241,unknown
e9d7ff8e-3ef7-4e65-9545-bf7e9237e1a8,MEAL PREP OTTAWA,78 JAMIE AVE,03/11/2025,45.33594,-75.716223,unknown
5056c6f7-a277-4743-862c-07c710210a79,MEALS ON WHEELS,3865 OLD RICHMOND RD,01/08/2025,45.321655,-75.826377,food_truck
1fbb93fd-143d-4df5-9cc9-8a43a2ec8bdb,MEATINGS BARBECUE,5380 CANOTEK RD,14/02/2023,45.4560507,-75.5810733,unknown
24aaf748-63ac-4603-9645-318492cfd64f,MEATINGS BARBECUE INC.,5380 CANOTEK RD,06/06/2025,45.4560507,-75.5810731,unknown
6edd07b3-29f8-4280-a601-39f31f8f26b5,MENCHIE&#39;S,3091 STRANDHERD DR,15/05/2025,45.2759267,-75.7162645,unknown
7306fbda-669a-4228-bace-39f47e01b722,MERCATO ZACCONI,215 PRESTON ST,13/10/2023,45.4058749,-75.712216,unknown
80ebb0db-a042-44ac-ba99-3b76369963ba,MERIVALE PIZZA,1610 MERIVALE RD,09/07/2025,45.3483157,-75.7323519,fast_food
9297cbc9-492a-4bd2-b28f-df70518d6f6f,MIDORI  MARKET SARSFIELD,2950 COLONIAL RD,15/12/2025,45.4423267,-75.343332,unknown
ef47ffff-9575-4a8c-85d0-c2e4b60044d8,MIFO ECOLE DES PINS,1487 RIDGEBROOK DR,18/11/2025,45.421493,-75.604354,institutional
bacf9186-8146-489f-9b18-9454dca28dc5,MIFO ECOLE DES PIONNIERS,720 MERKLEY DR,24/11/2025,45.473832,-75.4816206,institutional
ad5b45dc-653b-4f08-912a-fb4e30adea52,MIFO ECOLE DES VOYAGEURS,6030 VOYAGEUR DR,24/11/2025,45.4735868,-75.5523056,institutional
98f259b1-e3f7-4cf9-aaa4-5a461eadc0f5,MIFO ECOLE L&#39;ETOILE DE L&#39;EST,6220 BEAUS&#207;&#191;&#189;JOUR DR,20/11/2025,45.4569502,-75.5322831,institutional
36c738d0-75e6-4336-8e98-020460f800ac,MIFO ECOLE SAINTE MARIE,2599 INNES RD,07/11/2025,45.4320593,-75.5663338,institutional
88ec6140-dacf-4a08-8d6c-f5a4ea1006ec,MIFO ECOLE ST-JOSEPH D&#39;ORLEANS,6664 CARRIERE ST,20/11/2025,45.4665355,-75.5222949,institutional
adca01ad-a557-44ee-9f4d-910670d45b19,MIFO LODYSS&#207;&#191;&#189;E,1770 GREY NUNS DR,18/11/2025,45.4692355,-75.5351579,unknown
b11902be-f013-4b3b-8bbf-00a914fc0638,MIFO NOTRE-DAME-DES-CHAMPS,6280 RENAUD ST,03/11/2025,45.4328867,-75.5091339,unknown
b9562a9f-60d5-4f61-9d86-731987854e43,MIKE&#39;S PLACE,1125 COLONEL BY DR,08/10/2025,45.3856588,-75.696527,unknown
cba87e03-0cef-4051-a512-eb6cc3c77e47,MILE HIGH CLUB,20 LINDBERGH PRIVATE,09/12/2025,45.3349983,-75.6871568,bar
bb236a30-97ef-40ce-a9dc-7329be9f1cf7,MILLERS FARM &amp; MARKET,6158 RIDEAU VALLEY DR N,27/07/2025,45.1950474,-75.6437272,specialty_food
426fa988-71b2-440d-8812-b766524586d6,MIN-A-MART,158 MCARTHUR AVE,19/10/2023,45.4306719,-75.6632249,grocery
b4fba634-7d42-4914-beb7-6d3a4475da5a,MINI CONFECTIONERY,273 MONTFORT ST,01/08/2025,45.4389471,-75.6615451,grocery
542d9775-c93f-4407-af9e-73416a150ea8,MINI PANCAKES,134 WATERSHIELD RIDGE,12/07/2025,45.2883906,-75.7286769,unknown
26f865c0-a10c-4b67-a8f3-7e16f4e11577,MINI SPRING CHIPS,YORK ST,02/05/2025,45.4300906,-75.6886396,unknown
36fe3c8a-dfe0-4988-ba32-5c3de5debc53,MISS ELLIE&#39;S LEMONADE,2746 BEDELL RD,02/10/2025,44.9988881,-75.6271263,ice_cream
22ae3ae0-d102-4301-8ab2-81f5f4814d5a,MIXING BOWL,247 WESTBROOK RD,06/11/2025,45.2711275,-75.9619001,unknown
3cc683bf-ba74-4b58-a64c-90b88e455cf3,MJ POKE &amp; ROLL,34 MCARTHUR AVE.,27/02/2025,45.4307096,-75.6671345,unknown
ba415734-fb50-4d9d-9c5d-1e53354832d8,MODERN GENERAL FOOD GROUP,1029 TERON RD,05/09/2025,45.3305405,-75.9002976,unknown
1fcd7e23-0401-4fce-bd54-8ec22e287c60,MOLLY&#39;S,3300C RIDEAU RD,18/07/2024,45.300589,-75.5683643,unknown
227576de-5c6f-435f-b780-e80b5785fa3c,MOM&#39;S HOMEMADE,1000 EXHIBITION WAY,07/06/2025,45.4000568,-75.6828155,unknown
56b62e85-921c-4f04-86a1-0ab520d1665e,MONTFORT RENAISSANCE,162 MURRAY ST,23/09/2025,45.4305909,-75.6911647,unknown
d6885c59-c5a5-4fd3-93c4-3b72e51d9992,MOONEY&#39;S BAY GROCETERIA,2660 NORBERRY CRESCENT,25/11/2024,45.368169,-75.6833812,unknown
16b56119-3655-4221-be95-c3f24d9e2b77,MOTHERCRAFT OTTAWA WATERBRIDGE PROGRAM,75 WATERBRIDGE DR,20/10/2025,45.2819454,-75.7087163,unknown
f2d8fe10-3d99-4bc7-b14e-01c092b1dba6,MOULIN IN THE PARK,PATTERSON CREEK PARK LINDEN TERRACE AT QUEEN ELIZEBETH DRIVE,25/09/2023,45.4077769,-75.6839078,unknown
f5f1d3fd-245b-4d15-86c0-33208e0562d7,MR SUNDAE,6710 TOONEY DR,22/05/2025,45.4582464,-75.5080386,ice_cream
328f1eb5-af80-44c0-9b45-af6bdb816b71,MR SUNDAE,6710 TOONEY DR,22/05/2025,45.4582464,-75.5080386,ice_cream
61574bea-6dfd-45f8-9fcf-f0ed590e4c70,MR SUNDAE 3,6710 TOONEY DR,01/07/2025,45.4582756,-75.5079097,ice_cream
069a00a7-4c41-4d65-b6dc-a3fa64156e58,MS. MAPLE,6265 MCCORDICK RD,19/06/2025,45.1397027,-75.7594467,unknown
e78c19f7-4408-4d88-937a-6ee4526e2686,MUSCA WINE PRESSING &amp; SUPPLI,969 SOMERSET ST W,26/04/2024,45.4078882,-75.7162284,unknown
3575a92f-24da-4123-bcf2-7b8266c4c04c,MUSTACHE BURGER,1000 EXHIBITION WAY,23/06/2023,45.4000555,-75.6827317,unknown
7f5d3e36-1eed-45e1-b254-d3efe373db3c,MUSTACHE BURGER,2451 RIVERSIDE DR.,21/06/2024,45.382173,-75.6833748,unknown
11668a44-5952-4465-ab89-5b42c5d43059,MUSTACHE BURGER #3,2451 RIVERSIDE DR.,09/08/2025,45.382173,-75.6833748,unknown
9f59dd47-4230-4e9c-98b1-e2a88d1cdf40,NAGINA FOODS LTD.,2447 KALADAR AVE,22/09/2025,45.3765767,-75.669553,unknown
dc5aed25-d8e9-49d7-b9e7-b54617d36aff,NAN&#39;S PLACE,1919 RIVERSIDE DR,06/08/2025,45.3970665,-75.6684086,unknown
14acd61b-9424-4f29-8010-a1586360d451,NAVAN-GRADS / SOOBOY SPORTS SNACK PIT,1295 COLONIAL RD,02/10/2024,45.4460975,-75.3271851,unknown
f4ad7f80-84f1-4524-a6b1-8a53a9940c93,NECTARINE ARTISANAL SHAVE ICE,5770 BANK ST,24/08/2025,45.2725447,-75.5666614,unknown
a3c8086a-6a24-4a9a-b92b-3e4830cb547d,NEW ORLEANS PIZZA,1119 MEADOWLANDS DR.,29/01/2025,45.3615428,-75.7159588,fast_food
eaac8f28-3199-4b04-8f35-71b165e78ae9,NICE ICE BABY,1475 THOMAS A. DOLAN PKWY,20/08/2025,45.4082376,-76.0445533,unknown
4948452d-0093-4581-8ef5-edddd97550c6,NIKOLAY EMTCHEV,3910 INNES RD,04/09/2025,45.4522737,-75.5065682,unknown
31e9e20e-f95f-44f2-8ba8-b9508504d674,NITA BEER COMPANY,190 COLONNADE RD,03/09/2025,45.3451212,-75.7024891,unknown
394b7678-93df-431f-ba0a-44a6dcfc7dd7,NORDION,447 MARCH RD,09/01/2025,45.33977,-75.918953,unknown
002d9109-615a-45f4-a979-799ea470c694,NORTH BESTONE,190 LEES AVE,13/01/2025,45.4152125,-75.6699771,unknown
e6e482b6-3206-4a3f-b436-ceb88e4ca1d9,NOTRE DAME DESCHAMPS REC,3659 NAVAN RD,12/12/2024,45.3696663,-75.5654768,unknown
6ea5c806-0b00-4473-a1d2-c10e3cc8c78b,NU CARIBEAN,1877 INNES RD,30/05/2024,45.4190956,-75.599127,unknown
a28dae60-141b-482b-8ab3-b5df52514c35,NUMBER 1 SUB,3009 HAWTHORNE RD,20/08/2025,45.3889776,-75.6045319,fast_food
6b1bef33-1753-44c7-a185-3ebc8b6452a3,O&#39;CONNOR CONFECTIONERY,41 THIRD AVE,26/03/2024,45.4046064,-75.6847735,grocery
2d33fd61-98f9-4d60-82a0-4fcf1462c932,OC TRANSPO,1500 ST. LAURENT BLVD,24/03/2025,45.4126898,-75.6322988,unknown
52495b00-dba0-4230-aad0-5a36edbb6197,ODELEES,200 LEES AVE,10/09/2025,45.4156958,-75.6684217,unknown
6aac205e-29d6-4dc4-813f-aaead44fd174,OLLEIK FOOD,2535 BLACKWELL ST,21/04/2023,45.4059454,-75.6092273,unknown
74226fc0-aab7-46dc-9a80-6f6bc7b1a966,OMNISCIENT SPA,150 MARKETPLACE AVE,15/09/2025,45.2715481,-75.7393615,unknown
d92a1633-d076-4d49-b574-1a6ab73abbf2,ORIGINAL NAVAN MARKET,1279 COLONIAL RD,20/07/2025,45.42002,-75.42131,unknown
a3c02834-3ab4-45dc-8b2e-2ca9063cda43,ORLEANS  WINERY,5951 JEANNE D&#39;ARC BOULEVARD,26/03/2024,45.4622379,-75.5393377,unknown
8afff079-c66c-4497-88c0-aec86950978c,ORLEANS FRESH FRUIT,3150 HAWTHORNE RD,14/12/2024,45.385374,-75.6043151,unknown
c6ff4838-645d-44a8-a8b4-0b943b912fcf,OSCA BREAKFAST CLUB,260 SUNNYSIDE AVE,03/11/2025,45.3946838,-75.6817329,restaurant
dc99c74e-91de-492c-9f4c-b46a0b067c4d,OTAWA-CARLETON LIFRE SKILLS,916 PLANTE DRIVE,16/09/2025,45.3567087,-75.6685949,unknown
1d2e740f-e533-4d0d-a25c-a4b538f09c25,OTTAWA CARLETON LIFE SKILLS DAY PROGRAM,1 BREWER HUNT WAY,02/02/2023,45.3376305,-75.9037663,unknown
ce08c50e-895a-4d41-b689-099ea1f1e2d7,OTTAWA CARRIBEAN ASSOCIATION,859 CAMPBELL AVE,08/07/2025,45.3766702,-75.7495075,unknown
031373e3-c610-4967-b151-4921f545c803,OTTAWA FOOD BANK,2001 BANTREE ST,29/09/2025,45.4055767,-75.6137889,institutional
7593db19-ee88-4292-a994-83b6ec8cbaf3,OTTAWA GENERAL,501 SMYTH RD,24/10/2025,45.4028386,-75.6481867,unknown
66d5105d-b51e-43c7-b896-9f07c7f82e22,OTTAWA HUNGARIAN COMM. CENTR,43 CAPITAL DR,13/12/2025,45.3217508,-75.7202952,unknown
f618a547-96e8-4603-ba20-bc26df4c6b76,OTTAWA JAIL HOSTEL,75 NICHOLAS ST,22/10/2024,45.4250312,-75.6886386,unknown
5832172d-4fe3-4094-b213-e5bcc2010a38,OTTAWA MEAT PLUS IN,850 INDUSTRIAL AVE,22/11/2023,45.406468,-75.6325274,unknown
ce6adbc4-5227-48d9-995a-85fe5c3c0136,OTTAWA MISSION,35 WALLER ST,07/10/2025,45.425866,-75.6876308,unknown
721812c4-a0c9-4e17-8d54-ef629dd3d718,OTTAWA MISSION,1900 ST JOSEPH BOULEVARD,10/07/2025,45.4624811,-75.5432612,unknown
c5ec428a-39f0-4800-b8ca-93485dff3723,OTTAWA NEW EDINBURGH CLUB INC.,504 PROMENADE SIR-GEORGE-&#207;&#191;&#189;TIENNE-CARTIER,13/06/2025,45.4556902,-75.6775041,bar
d19d93a9-4e04-409d-b317-55ff9a0c850c,OTTAWA TITANS BASEBALL,300 COVENTRY RD,08/05/2023,45.42038,-75.65407,unknown
20eeee05-f679-4d58-b7fa-6c36f7c4a8ec,OTTAWA TITANS BASEBALL,300 COVENTRY RD,22/05/2025,45.42038,-75.65407,unknown
6f3a0af3-d08d-4399-90ee-e630d390cb5b,OTTAWA TITANS BASEBALL,300 COVENTRY RD,22/05/2025,45.42038,-75.65407,unknown
3f35ffa0-530e-4388-9a38-b9d6f75d05f9,OTTAWA TRANS LIBRARY,1104 SOMERSET ST W,08/07/2024,45.4059157,-75.7220428,unknown
7d0dbc52-87b6-47c2-8202-da49a9324848,OTTAWA VALLEY HUNT CLUB,8935 ABB RD,28/05/2025,45.1882797,-76.0680985,bar
4efa6770-970c-4437-ad32-a5a24114a53c,OUR LADY OF PEACE (D.H.),3877 RICHMOND RD,11/12/2024,45.3210729,-75.8267222,unknown
55653647-b868-4a3a-a334-23a639233a3f,OUR LADY OF THE VISITATION PARISH HALL,5338 BANK ST,21/03/2025,45.2861934,-75.57604,institutional
dca35928-011b-4c63-97d0-f3144be7f03a,OUTTAKES,2385 CITY PARK DR,12/02/2025,45.4314717,-75.6135189,unknown
c3599c63-5aa8-4bd1-9cc6-afebbeaf46be,OVERBROOK BINGO PALACE,1150 LOLA ST,05/10/2025,45.42258,-75.6518054,institutional
68ea5542-8191-43fb-9294-2df4dc6cdabd,OZZY FOOD MARKET,3867 ALBION RD,26/02/2025,45.343278,-75.6365584,unknown
35df26db-489e-457a-8ef3-5516f342d266,PADEL &amp; FRIENDS,1101 POLYTEK ST,06/10/2025,45.456102,-75.5875029,sports_rec
c9e2ebaf-91b1-4a40-a8e2-8bb4a5175679,PAPA JOE&#39;S PIZZA,5669 BANK ST,30/07/2025,45.2797013,-75.5700445,fast_food
a0f4501c-73ea-4237-a0b9-f8ebb3a64429,PARKWAY HOUSE,2475 REGINA ST,15/12/2023,45.3697952,-75.7845398,institutional
63aac2c5-17f7-4a18-a172-27798c660327,PAROISSE ST-JOSEPH D&#39;ORLEANS,2757 ST JOSEPH BLVD,25/03/2025,45.473383,-75.5217707,unknown
404d5350-6ca1-4ce9-98e7-bfbab15ecc85,PARTAGE VANIER,161 MARIER AVE,18/03/2024,45.4399066,-75.6649102,unknown
bd031889-7cc9-4736-89a0-b93fdb222977,PAT CLARK - GLOUCESTER 50 PLUS,4355 HALMONT DR,31/03/2025,45.4288461,-75.6194286,unknown
be44691e-411d-420f-9ddf-dec5ac957ffc,PAVILLION MARIONVILLE,9342 CASTOR RD,12/08/2025,45.1921762,-75.3752194,unknown
977376a3-5355-4877-a678-daecb9098447,PEPSICO BEVERAGES CANADA,869 BELFAST RD,29/11/2024,45.4130189,-75.6372887,unknown
240bf7f9-1a1a-4331-81cf-09430b01d24c,PETE&#39;S PLACE,1916 MERIVALE RD,15/01/2025,45.3342467,-75.7236821,unknown
4715a3e8-826c-4f6e-a73c-f4beed4bf7f3,PETEO CANADA,4000 RIVERSIDE DR.,05/02/2025,45.3337089,-75.6939866,unknown
a9e8f450-031f-4161-bd34-15ab0612f8bb,PETER D CLARK,9 MERIDIAN PL,04/11/2025,45.343161,-75.759258,unknown
ede08417-0fc2-4f3a-a0f9-67f827bc629d,PINECREST QUEENSWAY NURSERY,2860 AHEARN AVENUE,04/11/2025,45.3600958,-75.8010061,institutional
1d06f5c0-19f1-48f8-a461-bd847a705c61,PINSA ROMANA CANADA INC,60 CAMELOT DRIVE,23/01/2023,,,unknown
c6a14cac-d466-4c24-ab71-a73ba64747cd,PINSA ROMANA CANADA INC.,125 COLONNADE RD S,13/08/2025,45.3453211,-75.7017309,unknown
783cdc14-72b8-4054-a3ba-697b2439239b,PIZZA &amp; SMASH BURGER,1432 WALKLEY RD,01/12/2025,45.3744937,-75.6531182,fast_food
27ea549c-899b-432e-a65a-ba78e7dca2f0,PLACE BESSERER - CLUSTER KITCHENS,889 HIAWATHA PARK RD,14/11/2025,45.4827309,-75.547429,unknown
7729c2da-3ab9-42be-91eb-e3bf399fc861,POP&#39;S PANINIS,5340 CANOTEK RD,08/07/2025,45.4535914,-75.5841485,unknown
b0c6cf5b-979e-4c54-833f-6ebf539d7ee9,POPCORN PORTABLE,1000 PALLADIUM DR,16/12/2025,45.2967455,-75.9270232,unknown
cfcc4d12-8210-49fa-a8a9-fe075dc77cc4,PRESTON FOOD MARKET,71 PRESTON STREET,24/04/2024,45.4096406,-75.7148187,unknown
396d7342-24d2-4001-81ea-e4ba850dce33,PROKITCHEN,5340 CANOTEK,24/03/2025,45.4528865,-75.5852691,unknown
164a27fd-da54-47d9-9c74-d7cea2ccaa0c,PROULX FARM,1865 O&#39;TOOLE RD,27/02/2025,45.4846918,-75.4208514,specialty_food
ecd40ecb-8e5c-4994-b3c8-4aca702e9558,PROXI NEPEAN GAS STATION,1660 MERIVALE RD,09/01/2025,45.3433874,-75.7296232,grocery
bcee34c7-8069-4907-aab7-cb2717542245,QCH-PARK PLACE,120 CENTRAL PARK,20/11/2025,45.3679062,-75.7371892,unknown
e8eaea2f-90aa-4286-b56f-4b4e2a06b952,QUICKIE CONVINIENCE STORE,500 PRESTON ST,31/10/2025,45.3981787,-75.7082322,unknown
91b425a7-a663-447d-9bb5-cce0edb45422,RAINBOW R &amp; H,6679 FOURTH LINE RD,11/12/2024,45.1279395,-75.7111166,unknown
5a9db442-780d-4033-a5cd-faa941f16e64,RASCO-AGRICULTURE CANADA,1400 MERIVALE RD,29/01/2025,45.3677499,-75.7317588,unknown
68a49d0b-657c-4bb4-9203-535a556392f0,RCMP,1 SANDRIDGE RD,18/12/2025,45.4569774,-75.6576571,institutional
fbaa31e4-4d73-48be-88a0-045d268423d4,RED APRON,410 GLADSTONE AVE,23/09/2025,45.4114765,-75.6946358,unknown
93723ed4-9dd9-4285-9214-1c1fa26c6ec6,RED DRAGON COMICS,CARDS AND GAMES,21/06/2024,NaN,45.4757486,unknown
9ee509c0-5ebc-429f-bd8a-0b0822b84cb3,REDEEMER CHRISTIAN H.S,82 COLONNADE RD,28/10/2025,45.3468844,-75.709955,unknown
e879c9f3-82ce-4f7f-be7c-79b0f9b5c763,REEF KITCHENS,733 RIDGEWOOD AVE,05/12/2023,45.368212,-75.6880198,unknown
89b4e278-3b87-4b27-98d2-03b111cde6c5,REKSAP CENTRES FOR EARLY LEARNING,2599 REGINA ST,21/11/2025,45.3662923,-75.7899784,unknown
7031709c-ec30-4e6c-bb53-f7ff608ee9ba,REKSAP CENTRES FOR EARLY LEARNING-SEVERN,2553 SEVERN AVE,15/09/2025,45.3572194,-75.7833102,unknown
583a4bdb-e113-466c-9b65-776f7565da6f,REMAC,487 CUMBERLAND STREET,25/02/2025,45.4262918,-75.6859159,unknown
c4fb481f-ddf9-40f4-91e9-d9b46fea2b91,RENDEZ-VOUS DES AINES,3349 NAVAN RD,05/05/2025,45.4278106,-75.5045039,unknown
7bca0810-8b0a-4b0d-99d4-22fa311f77bd,RENE&#39;S CORNER,4490 ANDERSON RD,23/02/2024,45.3423997,-75.5249528,grocery
e621e537-fb52-48a8-ba0f-82c8cb3764ae,RHEMA&#39;S MARKET,4380 INNES RD,06/12/2024,45.4599028,-75.4901508,unknown
3da68611-bf06-43f5-b53a-c5b606c4c601,RICHMOND LEGION,6430 OTTAWA ST,23/05/2025,45.1756466,-75.8413779,unknown
7b4128c0-0db9-4f61-b3fa-f6c992630648,RICHMOND VILLAGE BAKEHOUSE,3468 MCBEAN ST,27/11/2025,45.1929091,-75.8377012,unknown
9f5fea09-a9f7-471d-a4f6-66265e844333,RIDGEMONT HIGHSCHOOL (BF),2597 ALTA VISTA DR,04/12/2024,45.3762881,-75.6600002,unknown
ac17c863-bd9e-4e2f-ae52-39c731d525c6,RIGGINS FAMILY BBQ,2451 RIVERSIDE DR.,28/09/2023,45.3817513,-75.6843515,fast_food
013cf693-0cf8-4b78-92b0-a53e86695240,RIGGINS FAMILY BBQ,2451 RIVERSIDE DR.,21/05/2024,45.3817513,-75.6843515,fast_food
81280001-4d9d-43ee-b3bd-a59a99f4c3eb,RIVER HOUSE,501 SIR-GEORGE-&#207;&#191;&#189;TIENNE-CARTIER PKWY,03/07/2025,45.4574297,-75.6782914,institutional
96d6007a-4290-4b45-b537-f0b5967192ad,RIVER OAK,2900 YORK&#39;S CORNERS RD,07/05/2025,45.24407,-75.42408,unknown
0d7cd805-782e-470d-acbf-12736d36f5c6,RIVER&#39;S EDGE ELC,836 SOLARIUM AVE,26/09/2025,45.2590432,-75.6921682,unknown
5772193b-66b0-490a-ad58-8425a6a0bf33,RIVERSIDE PK 1/2 DAY NURSERY,3191 RIVERSIDE DR,08/10/2025,45.3591058,-75.6879836,institutional
bce96884-8e6a-4fd3-99ac-bbfd86a922c5,RIVERSTONE-BRIDLEWOOD TRAILS,480 BRIGITTA ST,17/09/2025,45.274192,-75.8610223,unknown
67e6c679-df71-43fb-9ba8-cdd9a1882ecf,ROCKET SCONE,2013 CARP RD,18/03/2025,45.2728455,-75.9471689,unknown
4fddfdaa-d385-4c05-a41a-d9d8b8d7343f,ROGER NELSON HOUSE FOR PALLIATIVE CARE,399 SMYTH RD,04/05/2023,45.3989826,-75.6532104,institutional
58af5373-1ed3-4363-becf-636db5741089,ROMA CONFECTIONERY,258 ROCHESTER ST,07/10/2024,45.406023,-75.7104354,grocery
cf0bd410-7b09-4f8c-ada1-f3677383ff6b,ROTHWELL HEIGHTS TERRACE,1735 MONTREAL RD,18/11/2025,45.4464794,-75.6098843,institutional
f4ca4b71-493b-4669-98d9-cae5f778b0db,ROUTE 55,255 CENTRUM BLVD,12/09/2025,45.4808998,-75.5102608,unknown
3e28b1bd-5855-4a22-9be7-d342a237cfbc,ROYAL OTTAWA PLACE,1141 CARLING AVE,08/10/2025,45.3893334,-75.7284908,unknown
aa681770-3edd-4b4c-889b-231104fec6a7,ROYI STREET CART,85 SEABROOKE DR,09/05/2025,45.2948162,-75.8916017,food_truck
51c01c6b-ddfb-491b-a256-5df4a3da5ab5,RUN 2 PATTY,1224 SHILLINGTON AVE,18/06/2025,45.3806314,-75.7283501,unknown
11b4b9dd-cac0-433f-a2d8-98504fa2dda6,RUN 2 PATTY,1224 SHILLINGTON AVE,08/06/2025,45.3804668,-75.7282335,unknown
53f4a295-5690-4bcd-881d-169bbcbf7cd0,RUSSELL HEIGHTS,1799 RUSSELL RD,16/11/2023,45.4030511,-75.6311442,unknown
68c60c95-e788-4b9b-8019-9b15b8a83a2b,RUSSELL HEIGHTS,1799E RUSSELL RD,25/11/2024,45.4030511,-75.6311442,unknown
8b21151f-6da6-4dfc-8533-664762547503,RUSSELL HEIGHTS,1801 RUSSELL RD,25/11/2024,45.4034369,-75.631017,unknown
b44fd75d-0b6c-47e6-b1a2-170cf5356597,SAAB GAS,1057 CYRVILLE RD,10/10/2024,45.4250943,-75.6355208,grocery
c3f5f497-9cf9-4b2f-827e-7e97d85069ce,SACHI&#39;S ( DE LA SALLE E.S),501 ST. PATRICK ST,27/08/2025,45.4346337,-75.6847939,unknown
5e678450-b980-4388-8426-898be6306a8a,SACHI&#39;S HUNT CLUB,400 HUNT CLUB RD,10/10/2025,45.339205,-75.6800223,bar
dd0a90df-76d7-4202-8078-d98e30810c64,SAFI FINE FOOD,296 SOMERSET STREET EAST,28/08/2025,45.423701,-75.6757519,restaurant
e0459916-baa7-49b4-a114-bbd636975a19,SAINT-LOUIS LONG-TERM CARE,879 HIAWATHA PARK RD,30/10/2025,45.4824613,-75.5471499,unknown
7cfeb308-c7ac-4645-8f0f-b84b432daa23,SAINTE GENEVIEVE (BF),2198 ARCH STREET,17/12/2024,45.3903272,-75.631112,unknown
3841bb03-f561-4d79-9b9d-1ce83caf7295,SALON DE LA RIVIERE,380 SUSSEX DR,27/05/2025,45.4295366,-75.6989241,unknown
c3cb18d8-3ecc-4421-abe3-af99ac85106c,SALVATION ARMY GRACE MANOR,1156 WELLINGTON ST W,30/10/2025,45.4008748,-75.7275557,institutional
938d09ec-4c35-48a1-b5a8-99e83bb58950,SAN MARCO&#39;S,215 PRESTON ST,14/06/2024,45.4058766,-75.7122165,unknown
a06e6905-a817-44f5-849a-d3b6d185583e,SANDY&#39;S ISLAND BBQ INC.,5452C MITCH OWENS ROAD,28/05/2025,45.2396247,-75.6618272,fast_food
c9aaebb7-b65f-41b1-bb5e-7c49bd8d2215,SARSFIELD COLONIAL HOME,2861 COLONIAL RD,13/11/2025,45.4407122,-75.3472763,unknown
77b5c19a-be46-47e8-9a07-23bca0757585,SCO MAISON MERE,27 BRUYERE ST,24/09/2025,45.4316782,-75.6974558,unknown
24d4d8f0-e3a6-46ff-bbe5-353b4f1aff35,SCRATCH SANDWICH SHOP,131 CONSTANCE BAY,21/11/2025,45.486219,-76.073418,fast_food
567aa949-79fc-44be-98ae-e397244f95df,SEAWAY GAS,1627 CYRVILLE RD,02/04/2024,45.4186442,-75.610237,grocery
4ba3aea5-49f9-4865-9720-73dcbb208075,SEE ME SPARKLE BAKES,5510 CANOTEK RD,18/09/2025,45.4573198,-75.5850504,unknown
a96eed2c-de2e-4b18-9450-b9a0c5de21cf,SENIOR ROOM,6095 PERTH ST,25/03/2024,45.1957013,-75.837809,unknown
aad26c12-f495-489d-bc94-18103a33ea42,SEOUL DOG,2451 RIVERSIDE DR.,01/07/2025,45.382173,-75.6833748,unknown
5377adf9-414b-4983-8b43-417188e60aff,SERVICE A L&#39;ENFANCE ALADIN,SITE DUROCHER,18/08/2025,NaN,45.4281786,unknown
8e27f81a-f9ca-49ab-8098-e3d01192e59a,SERVICE A L&#39;ENFANCE ALADIN,235 BEAUSOLEIL,29/10/2025,45.4321951,-75.6815959,unknown
7035e0a9-355d-4fb8-ab62-3068ebe35486,SHARECUTERIE2GO,36 CAPITAL DR,16/12/2025,45.3225869,-75.7205449,unknown
3cc47358-ce48-4a0d-b320-0a2e97f76cad,SHARPLEY&#39;S POPCORN / NATIONAL RENTALS,5361 OLD RICHMOND RD,16/07/2025,45.2751804,-75.8345731,unknown
c3d71634-890a-40af-9389-da6cecf1a82d,SHEPHERDS OF GOOD HOPE,216 MURRAY ST,25/09/2025,45.4313637,-75.6893645,unknown
c21bf560-83c0-4049-b6da-f7a66967081b,SHEPHERDS OF GOOD HOPE,765 MONTREAL RD,12/12/2025,45.4448833,-75.6357713,unknown
d62252b1-6b16-4a03-9a55-8e6481cd9388,SHOPPER&#39;S DRUG MART,455 BANK ST,10/12/2025,45.4119191,-75.6931575,grocery
446e7fce-5bd7-4aa5-8b6a-872d796f4973,SILVER CITY FOOD MARKET,86 FORWARD AVE,19/04/2023,45.4093943,-75.7332684,unknown
08288bf0-0797-4801-bba8-945186cb784b,SILVER HAWK TUCK SHOP,1170 FISHER AVE,27/08/2024,45.3768531,-75.7208795,grocery
0bc49f9e-1b4b-4485-a990-a6180208f8b5,SIR GUY CARLETON VOCATIONAL,55 CENTREPOINTE DR,11/02/2025,45.346869,-75.7658355,unknown
fe3b19f4-a4a0-41ed-b457-a5786ee190af,SIR ROBERT BORDEN HS,131 GREENBANK RD,10/09/2025,45.3327814,-75.7831708,unknown
16539580-7f12-4e97-8059-59e5f87fb2ee,SIVUMMUT HEAD START,815 ST. LAURENT BLVD,10/09/2025,45.4346475,-75.6420051,unknown
fb699b0a-d699-4116-9510-b0c5a86c9749,SIZZLING BUNS,1464 WATER&#39;S EDGE WAY,07/08/2025,45.2636907,-75.5486439,unknown
ebf3b1b9-683f-40cb-bef1-a75b24d940d3,SKATE &amp; PLAY,1101 BAXTER RD,27/06/2025,45.3527744,-75.781612,sports_rec
b9b39a39-b719-4701-b984-d03774975028,SKILLS TO GO,440 ALBERT ST,13/05/2024,45.4168927,-75.7065146,unknown
d79c9de6-4ee2-4657-abd4-86228749201b,SKINS DERMA CARE,1290 TRIM RD,20/11/2025,45.4896955,-75.4794787,unknown
729077f6-0ec0-47e9-b838-67d1d1e7a9b7,SMASH N GRAB,5348 BOUNDARY RD,08/05/2025,45.343763,-75.4428982,unknown
aff31705-b4da-4b74-a7a9-a6805d7d6dad,SMASH N WRAP,8435 FRANKTOWN RD,11/04/2025,45.1253664,-75.9487979,fast_food
0815ec20-0118-4784-b9e8-b193613e2112,SMOKIN&#39; GARVIN;S,,22/11/2024,,,unknown
da830440-672b-4728-8b82-6cc28bee495b,SMOKIN&#39; R&amp;R&#39;S,1441 STITTSVILLE MAIN STREET,12/09/2025,45.261354,-75.9222129,unknown
fd303728-78af-45a2-8aee-9bd89b10d246,SMOKIN&#39; R&amp;R&#39;S,1441 STITTSVILLE MAIN STREET,02/10/2025,45.261354,-75.9222129,unknown
0791d5f3-4ef1-4c25-bab0-58cad29d6e4e,SNELL HOUSE FOODS,1678 DES PERDRIX CRESCENT,10/07/2024,45.4620745,-75.5129032,institutional
65a8894c-65db-4171-ab94-3fbc69aa74e3,SOBRIETY HOUSE,90 FIRST AVE,08/08/2025,45.4056537,-75.6855559,institutional
543563a3-e1ae-4996-896e-c808c98a732c,SOLOSUYAH,2960 RIVERSIDE DR.,07/09/2024,45.3698605,-75.6912714,unknown
64117117-c9c2-4583-8196-bfaec946b6df,SOME GOOD FOOD,225 METCALFE ST,30/04/2025,45.4176249,-75.6925618,unknown
156f69a7-7709-4d5f-b516-cc154d302914,SOPHIA HOUSE,RESTRICTED OTTAWA,19/08/2025,0,0,institutional
a1de03e6-773c-4bb4-930e-68afb4b625fe,SPICY G,171 LEES AVE,10/05/2024,45.416137,-75.6721605,unknown
1f606ad1-2d04-435e-b213-a7250e0d8851,SPICY MONGOOSE,YORK ST,28/06/2025,45.4300906,-75.6886396,unknown
2f8e5138-e32c-4bed-b815-80e7992d9374,SPLITSVILLE ENTERTAINMENT,255 KANATA AVE.,19/03/2025,45.3106537,-75.9061963,unknown
6c8ea6e2-12e0-4e83-9dc5-1ac36b38416a,ST GEORGE&#39;S CATHOLIC ELEMENT,130 KEYWORTH AVE,11/12/2024,45.4043635,-75.7474327,unknown
a54588f8-662d-477f-8385-52657f2d7528,ST JOHN THE EVANGELIST,2547 STAGECOACH RD,21/10/2025,45.1991329,-75.5675132,unknown
9f789f23-6405-4217-8f12-257a6e0b11ba,ST LUKES TABLE,211 BRONSON AVE,21/10/2025,45.4135609,-75.7063439,unknown
54f266ba-00bf-4741-aed7-ec4d29a90fd2,ST MATTHEWS HIGHSCHOOL,6550 BILBERRY DR,19/03/2025,45.480195,-75.532495,unknown
0c6d2716-72d8-4519-b4b3-8f21f16b5689,ST PIUS (D.H.),1481 FISHER AVE,29/04/2024,45.3652332,-75.712369,unknown
284256a6-275a-4758-b948-f24fdabbd5cc,ST. MONICA PARISH,2080 MERIVALE ROAD,12/12/2025,45.3179041,-75.7153506,institutional
7bf2ceb4-8c6f-4e16-b4bd-bc667bc86ddd,ST. PATRICK&#39;S HOME OF OTTAWA,2865 RIVERSIDE DR,08/10/2025,45.3703479,-75.6892077,unknown
cc3de29d-e4da-4193-92ca-12f8f7d6d399,ST. PAUL&#39;S (D.H.),2675 DRAPER AVE,28/09/2023,45.341823,-75.7926594,unknown
f7f1b183-8c51-4d43-b5fa-a68a3318c0af,ST.ANDREW&#39;S PRESBYTERIAN CHU,2 MULKINS ST,18/11/2025,45.2608,-75.9241192,unknown
84c6a064-baf9-46ba-9bc8-333368c73522,STACKS AND SMILE,550 WILBROD STREET,07/05/2025,45.4306403,-75.6727879,unknown
b22170e0-762d-419c-9ff2-f64f5fae137f,STAGECOACH FRY COMPANY,STAGECOACH RD,06/08/2025,45.1317822,-75.5748618,unknown
47af7121-42a8-47d0-894c-98bfbd52ba45,STITTSVILLE FARMERS&#39; MARKET,6154 ABBOTT ST E,11/08/2024,45.2588226,-75.9201954,unknown
be7faba4-7227-4d4c-adaf-dddcb173df2b,STITTSVILLE LEGION,1481 STITTSVILLE MAIN ST,11/12/2025,45.2596196,-75.92141,unknown
180c6efa-f2d5-495b-807e-5016278f361e,STONECREST ACRES,3798 DUNROBIN RD,27/08/2025,45.462831,-76.0742194,specialty_food
24a26797-99fc-4cd3-a8a2-f7738b8894cb,STRATHMERE- THE RETREAT,1980 PHELAN RD,12/06/2025,45.1565456,-75.7047083,unknown
4fa1be0c-b79e-4fab-84f7-b997e56038b1,STRATHMERE-GARDEN HOUSE,1980 PHELAN RD W,28/04/2025,45.1565456,-75.7047083,institutional
0c461e32-2fc8-462d-ae50-725991acac25,STRATHMERE-THE FARMHOUSE,1980 PHELAN RD W,12/06/2025,45.1565456,-75.7047083,unknown
b563a02e-3c8f-47a2-ab1b-0391fe11cbca,SUGAR SHACK MUSEOPARC VANIER,300 DE PERES BLANC,02/05/2025,45.4438018,-75.6599977,unknown
1c4abca4-dee5-4d7e-86c6-de70cfff457d,SUGARYBLISS,2451 RIVERSIDE DR.,20/06/2025,45.382173,-75.6833748,unknown
39e5de67-74c6-4db2-980d-fb4906119cb5,SUMMER SOLSTICE INDIGENOUS FESTIVAL,401 CORKSTOWN RD,21/06/2025,45.3393093,-75.8529996,institutional
841fec12-ff51-4edb-a1ec-c2fdb5613024,SUNRISE BITES,3417 TRIM RD,03/07/2025,45.4227506,-75.4271133,unknown
463758c7-f867-4e1b-9bf8-a1f1e7dbf65e,SUNTECH GREENHOUSES,5541 DOYLE RD,25/03/2024,45.173411,-75.6205219,unknown
8caa2e97-15a7-420d-8030-f41f36c72101,SUPER SMASH JUICE INC.,1 VIMY PL,21/08/2024,45.4171032,-75.7169418,unknown
c4a50066-c620-4a84-89a5-b1fc97fa869d,SUPPER WORKS,15 CAPELLA COURT,27/03/2024,45.3323493,-75.7061446,unknown
885232be-a160-4bdc-a470-8ed3d5fe0737,SWEET &#39;N SAVORY,3284 SUNSTRUM ST,01/03/2023,45.144154,-75.6035749,unknown
695fc12c-3d42-40ac-9540-7072efe84a37,SWEET ESCAPE CANDY EMPORIUM,8555 CAMPEAU DR,17/02/2023,45.2979007,-75.9375927,unknown
cb9c173b-8e33-475f-89ac-56e20548ae17,SWEET SOUK,2960 RIVERSIDE DR.,01/07/2025,45.3676328,-75.6897596,unknown
38a92d8a-6b18-49e8-b0f0-3bd64a24b737,SWEET TREATS,401 CORKSTOWN RD,21/06/2025,45.3393093,-75.8529996,unknown
d3f9a0d5-793a-4394-9c7d-5055f2b7d23b,SYSCO,2390 STEVENAGE DR,16/04/2025,45.3795718,-75.6067098,catering
7372d50a-b695-490f-b6f4-b99d3fcf98ea,SYSCO/TANNIS CASH &amp; CARRY,288 CATHERINE ST,03/12/2025,45.4078271,-75.6952861,catering
8d1c25ae-f1e0-49b0-a5b1-bec6232abf74,TAGGART FAMILY - DAY CARE,180 ARGYLE AVE,22/10/2025,45.4116799,-75.6896936,institutional
ee710f5e-7e10-45d7-9c77-4bd55dd9f5c6,TAKEDON OTTAWA,1101 PRINCE OF WALES DR,06/10/2025,45.3771319,-75.7053866,unknown
521ca6a8-61c8-42b3-9429-c814594b3a48,TAMIR DAY PROGRAM,235 DONALD ST,05/06/2023,45.4281786,-75.6589949,unknown
3367a39b-108b-4248-844a-f2d0d4277c58,TASTE OF AFRICA,2555 BLACKWELL ST,20/11/2023,45.4054507,-75.6088783,restaurant
09793fe4-0369-45fe-84ab-59c05a8ba59d,TD HORSESHOE NORTH,1015 BANK ST,26/11/2025,45.3982875,-75.6842587,unknown
cabfd18f-b2f2-43c0-b804-7916de0f0c80,TD NORTH UPPER,1015 BANK ST,09/10/2024,45.3982875,-75.6842587,unknown
1af42220-36e5-479f-9df8-914eacc11d69,TD PLACE-NORTH MAIN,1015 BANK ST,25/09/2024,45.3982875,-75.6842587,unknown
5eb07674-a72c-492b-885c-de5d13ebb718,TENANTS ASSOCIATION BREAKFAST,1455 HEATHERINGTON RD,07/03/2023,45.3726626,-75.6518325,restaurant
97356196-8c02-4ef3-92b4-c2d04628274e,TERRY&#39;S OLD FASHIONED LEMONADE INC.- UNIT 1,401 CORKSTOWN RD,28/06/2025,45.3393093,-75.8529996,ice_cream
a73ffcb1-1ff3-421e-aa29-0535afe4fe69,THAT&#39;S WAFFLE LICIOUS,1000 EXHIBITION WAY,21/11/2025,45.4000568,-75.6828155,unknown
b8643f76-d25c-4fd1-a7b7-70c62b80a469,THE ALEMBIC STILLHOUSE,355 COOPER ST,30/11/2024,45.4169504,-75.6955827,unknown
ca9eb36f-61be-4e8b-9b47-2f0c277c1118,THE BOATHOUSE MARINA,1505 SIR GEORGE-&#207;&#191;&#189;TIENNE CARTIER PKWY,01/06/2024,45.4635786,-75.6427847,unknown
f7d889be-76a2-48ed-997a-12dd8f57fc7f,THE CHILDRENS PLACE,1150 CARLING AVE,19/09/2025,45.3884163,-75.728338,unknown
af6ee497-2146-4e11-9deb-383451229795,THE CIDER HOUSE,7893 BLEEKS RD,02/10/2025,45.1619807,-75.948298,pub
f4734e6d-a369-44bd-b4dd-ecf1e2458144,THE EIGHT O NINE,1426 SCOTT ST,14/05/2025,45.4063777,-75.7278225,unknown
9c2ec6b6-20d4-4911-ae4d-86623821bf8e,THE FORGE PICKLEBALL CLUB,1680 VIMONT CT,02/07/2025,45.490211,-75.4840452,bar
7fe00fcc-9301-4fb4-a139-c3133f61807c,THE FRIENDLY NEST,200 KATIMAVIK RD,28/10/2025,45.3047505,-75.9059218,unknown
5fa44d53-3063-416d-b92c-25876e88abcf,THE FRY DEPARTMENT,3798 DUNROBIN,14/10/2025,45.4222567,-76.020319,unknown
f1244820-64e4-4153-b3e8-6ed4ecca5107,THE GARLIC PRESS,1426 SCOTT ST,29/06/2023,45.4066431,-75.7275169,unknown
5635f2bc-29aa-46d2-8d65-2c0229340012,THE GUEST HOUSE,1750 RUSSELL RD,21/10/2025,45.404728,-75.633507,institutional
99f12e08-55f9-4488-876f-54e037aee270,THE HUDSON OTTAWA,158 RIDEAU STREET,07/02/2024,45.4246896,-75.6936511,unknown
15a92c5e-83cb-4a86-8eb2-fa6ea9a40c71,THE LOVE OF CHOCOLATE,2854 ST. JOSEPH BOULEVARD,19/11/2025,45.4739607,-75.5191647,unknown
3752e543-dd70-488e-b4b1-7860ce7f4c4d,THE MANGO BOYZ,73 RIDEAU ST,25/09/2025,45.4262152,-75.6926662,unknown
8a992f14-26c6-4611-8be1-0695c147a5f0,THE MILLER SENIORS APARTMENT,5510 DICKINSON ST,21/10/2025,45.2275567,-75.684132,unknown
251ad8e3-9e26-4c73-8be4-f8bff50cc604,THE OAKS,1057 MERIVALE RD,12/11/2025,45.3781036,-75.7330674,unknown
f2980a09-5275-4ce5-b89c-318f346c087b,THE ORIGINAL SOUVLAKI,1619 STITTSVILLE MAIN ST,30/07/2025,45.2549475,-75.9158735,unknown
ff25742e-bb99-42d6-8a26-a671bf9cddb0,THE OTTAWA CANCER FOUNDATION,1500 ALTA VISTA DRIVE,04/11/2025,45.4109154,-75.6571269,unknown
64070220-c462-4bcb-8c8a-3c43b9d81118,THE OTTAWA ROTARY HOME,823 ROTARY WAY,08/07/2025,45.3295249,-75.5918706,unknown
a47e1055-8bbd-486e-82ef-bf9a2c40c7a8,THE PAVILION FOOD BANK,14 TAPIOLA CRESCENT,29/09/2023,45.3641476,-75.6476688,institutional
5d9ec634-deab-43ea-a488-f9bf8050a5f7,THE PAVILLION,7893 BLEEKS RD,18/10/2025,45.1619807,-75.948298,unknown
5255dc45-f384-4e31-8f0c-771c4489d5ff,THE PICKLE VIXENS,3765 LOGGERS WAY,17/01/2023,45.390146,-76.187403,unknown
c3bbee0e-9d6d-499f-bd46-8f92fc582377,THE PLAYSPACE,474 HAZELDEAN RD,17/09/2025,45.2974556,-75.8893633,unknown
60a3cb51-ad7b-4f98-a569-9b8d96ccaf44,THE POTATO FAMILY,17 BULLMAN ST,21/05/2025,45.4037773,-75.7321787,unknown
3f4d5cf5-2403-4e6e-8b02-68637c5961cf,THE PUCK STOP - MEATINGS,813 SHEFFORD ROAD,06/03/2025,45.4568447,-75.5897657,unknown
7a60eab6-1f09-4ce0-9b97-20183ecf62f0,THE PUTTING EDGE,5 ROYDON PL,02/04/2024,45.338863,-75.724742,unknown
f9d660cb-1c3f-474b-919e-6125698d7234,THE REAL MCCOY,2135 ROBERTSON RD,08/05/2025,45.3218168,-75.8362395,unknown
d5b9b72c-c115-424c-9a41-b17b82e4db5a,THE ROCKING DOCK,213 VANCES SIDE RD,15/08/2025,45.476678,-75.994299,unknown
f8349fe2-9b9e-4fb2-8b5f-a7669acc7519,THE SARANGI,CUISINE OF INDIA,27/03/2025,NaN,45.3681388,unknown
29de9c4d-131c-496d-b59b-68a9f531e26a,THE SNACK FUSION,1889 BASELINE RD,02/05/2025,45.3535722,-75.7588235,unknown
83ac9b9d-97b2-4953-83c7-08675faa66d5,THE SPOT KARTING,6336 FALLOWFIELD RD,01/08/2025,45.2254362,-75.8927128,unknown
27fd00d1-f70c-4e19-a274-802ee816ac80,THE STRUDEL LADIES,1000 EXHIBITION WAY,21/11/2025,45.4000568,-75.6828155,unknown
5d1d0447-6a1c-46d8-b96d-eada8ab577e4,THE URBAN ELEMENT CULINARY INC.,855 INDUSTRIAL AVE,06/11/2025,45.40688,-75.631,catering
30d9ff13-bedb-4ca0-80d6-47379f7a367f,THE VISTA ON SPARKS,412 SPARKS ST.,06/12/2025,45.4181353,-75.7076826,unknown
a98e7f01-db5e-47e2-ac3c-6d1e3acfacca,THE WESTWOOD I,2374 CARLING AVE,20/10/2025,45.3664006,-75.7783568,unknown
51997bf1-1994-4688-b6dd-546f9e325030,THE WESTWOOD II,2370 CARLING AVE,20/10/2025,45.3664912,-75.7780385,unknown
8c8872c2-9bf3-4943-80ca-76d511d05f49,THE WRIGHT LOLLIPOP SHOP,1279 COLONIAL RD,06/05/2024,45.42002,-75.42131,unknown
25071674-b1cf-4e62-8685-ad637af1fbd0,THIRST CART,1 MILLCRAFT CRESCENT,07/06/2024,45.43079,-75.651703,unknown
c31dc1d3-7f43-479b-aa00-c099be5fe095,THIRST RESPONDER,1000 EXHIBITION WAY,21/11/2025,45.4000568,-75.6828155,unknown
e25b1dc2-c756-49c4-bc2f-d223ed07f09d,THORNCLIFFE PLACE,1 THORNCLIFF PL,23/10/2025,45.3287889,-75.8149258,unknown
e445c7f2-b152-4f48-9f58-0aa37cb52d3e,TIME SAVER,350 TERRY FOX DR,22/09/2025,45.3518937,-75.9186706,unknown
0363c4e6-58af-4e84-85bb-22d67535b1b2,TL CHOCOLATES,5510 CANOTEK RD,03/05/2024,45.4573112,-75.5850547,unknown
f41156fc-1278-415e-b5b1-940f258aa973,TOASTY AREPAS,51 MARIER AVE,20/06/2025,45.4414014,-75.6692705,unknown
c1ecdc93-d53c-4cb5-9cf2-f4e9efd47b0d,TOM BROWN HALL,141 BAYVIEW DRIVE,17/05/2024,45.4075448,-75.7225958,institutional
2a54b15f-9128-44d4-b6c3-a30b0c6990ec,TOPPER&#39;S PIZZA,5953 JEANNE D&#39;ARC BOULEVARD,16/07/2025,45.4622379,-75.5393377,fast_food
8d44f45a-f736-44de-ac1e-ff2c5e54f308,TOPPER&#39;S PIZZA,1110 CARP RD,07/03/2025,45.2676146,-75.9332147,fast_food
eceabfe7-cd62-41c8-a2e5-2f205b4a6a43,TORNADO POTATO,1279 COLONIAL RD,25/08/2023,45.42002,-75.42131,unknown
4b5ebd94-1de5-4893-8c46-0b29204e35e0,TORSHI,1000 EXHIBITION WAY,07/06/2025,45.4000568,-75.6828155,unknown
fde24579-314c-486c-8090-5c5bd0d7c13b,TORTA BOYZ,60A LEBRETON ST N,11/04/2025,45.408565,-75.7087691,unknown
7ec9b2e0-2faf-4f02-a1f0-635524731f62,TUNGASUUVINGAT INUIT,282 DUPUIS ST,28/10/2025,45.4356422,-75.6613492,unknown
ea74177e-083e-4f32-92a6-a795447c074e,TUNGASUUVINGAT INUIT,282 DUPUIS ST,11/12/2025,45.4356422,-75.6613492,unknown
a0b711ff-4e98-4e20-8e0c-210511af02d3,TWIN ELM RUGBY PARK,4075 TWIN ELM RD,24/07/2025,45.2035209,-75.7956795,unknown
8e886460-b4cc-4c1b-86aa-2a7c12c36eaa,UNITARIAN HOUSE OF OTTAWA,20 CLEARY AVE,19/11/2025,45.3822609,-75.7717161,institutional
afef513c-bdce-4801-bc03-b327e5ebbf03,UPPER ROOM,6095 PERTH ST,25/03/2024,45.1957013,-75.837809,unknown
cc6640a6-0a28-4520-a23d-094517856cb8,URBAN JARS OTTAWA,2547 STAGECOACH ROAD,27/02/2023,45.199057,-75.567622,unknown
ea4a4013-f913-488f-8751-9a859126debe,VALLEY VIEW ANIMAL FARM,4750 FALLOWFIELD RD,14/05/2025,45.2571161,-75.7954906,specialty_food
c0c24609-3ec2-4483-9c09-df970f102f1c,VANIER 2,RESTRICTED OTTAWA,08/10/2025,0,0,unknown
daeebd92-ee4f-4300-a843-ac21bfe7e424,VENVI ALTA VISTA MANOR,751 PETER MORAND CRESCENT,14/09/2025,45.4034854,-75.6393871,institutional
89299c85-3cd0-4946-adf4-9c364d018aca,VENVI HERITAGE,624 WILSON ST,11/12/2025,45.4406955,-75.641028,unknown
42b13405-a58c-40b9-ab67-de6e54ef55d0,VENVI LYNWOOD PARK,1 EATON ST,21/11/2025,45.3267061,-75.8174939,unknown
1b30ef18-1ae4-40df-b772-b4e170f04db6,VENVI PORTOBELLO MANOR,691 VALIN ST,14/10/2025,45.4749443,-75.4711586,institutional
bdb1d040-3006-4bcc-9b43-7e3a270fb9bf,VENVI PRINCE OF WALES MANOR,22 BARNSTONE DR,24/09/2025,45.271959,-75.7066084,institutional
fe0fed7d-6ce9-429f-980f-b80021df642b,VENVI VALLEY STREAM MANOR,2 VALLEY STREAM DR,27/10/2025,45.3327787,-75.8036837,institutional
99171a7e-fcc8-490a-bd6a-fa6929d62661,VENVI WINDSOR PARK MANOR,990 HUNT CLUB RD,13/09/2025,45.3481527,-75.6587838,institutional
e9cd0348-e4c6-4ebf-8ea6-3a64939b9319,VERNON VARIETY,8717 BANK ST,13/06/2025,45.1621223,-75.4624087,grocery
c5f23261-0611-42e7-ae46-612559251702,VESSEL CANADA ON OPERATIONS ULC,2197 RIVERSIDE DR.,30/05/2023,45.3890846,-75.6763446,unknown
605a982c-75d8-49ff-aac9-c9996d181fe1,VILLAGIA IN THE GLEBE,480 METCALFE ST,02/10/2025,45.4102661,-75.6869042,unknown
fc9b3ff2-2576-46e6-8eb8-28ad5b865136,VILLY BEE HONEY COMPANY,1279 COLONIAL RD,24/05/2024,45.42002,-75.42131,specialty_food
38fb5b73-2ab7-4b11-99f3-7ce251ace534,VINBELLA WINERY,15 GRENFELL CRESCENT,06/02/2024,45.3243477,-75.7224055,unknown
30b30b33-91a9-4bdc-8478-0b407dba3f97,VINCI  LEADERSHIP TEAM,149 KING GEORGE,12/11/2025,45.4256733,-75.6581028,unknown
116ba309-b24b-4917-b28c-7eedafac5d78,VISCOUNT ALEXANDER,55 MANN AVENUE,26/06/2023,45.4202668,-75.6750293,unknown
ba6685d1-8a29-4a0e-b927-d7bbb24de5eb,W.E. GOWLING AVE,250 ANNA AVE,12/11/2025,45.3824983,-75.7319843,unknown
0ccf02bd-5bde-4224-8755-82dda9cbd0e1,WAFFLE WAFFLES,1889 BASELINE RD,27/10/2023,45.3535722,-75.7588235,unknown
1f00318b-e853-4d3d-853a-bb11f2fe392e,WATERFORD GRAND,121 MARKETPLACE AVENUE,03/12/2025,45.27126,-75.73866,unknown
dbbea655-57ad-4dc4-8ec7-30dd36ceca22,WATFORD HOUSE,75 POWELL AVE,23/07/2025,45.4056797,-75.6931808,institutional
6a42776f-64be-4968-ac21-c7f40989ff85,WAYPOINT RICHMOND,5313 PERTH ST,06/11/2023,45.1955445,-75.8370613,unknown
6fa88bb6-f35b-42bc-b1a2-0926d2f1bce9,WEE FOLK PLAYHOUSE,171 GREENBANK RD,23/09/2025,45.3290689,-75.7806504,unknown
86097326-9f03-4ca4-828a-d4515e39108f,WELCOME HOUSE,30 MOUNTAIN CRESCENT,19/09/2025,45.3526655,-75.6516361,institutional
56e3ced8-3811-4fea-8ac7-b4675a772ed1,WELLINGS OF STITTSVILLE,2500 WELLINGS PRIVATE,22/10/2025,45.2825813,-75.9151458,unknown
77252fe7-cbe7-44a4-8727-23ddc867c458,WEST CARLETON KIDS KORNER,5670 CARP RD,06/10/2025,45.4155061,-76.1470015,unknown
5765de38-3e9f-451e-8160-1a5b6ce40225,WEST CARLETON LEGION,377 ALLBIRCH RD,11/12/2025,45.4853873,-76.0799316,unknown
d2b02ec9-79be-44cd-8cd1-7e3c40167e14,WEST CARLETON SPORTS CLUB,3832 CARP RD,08/10/2025,45.3487542,-76.0381372,bar
13c8fb0b-ebfc-457a-ab36-9c72bedc445b,WHITEHAVEN KINDERGARDEN SCH.,919 WOODROFFE AVE,17/09/2025,45.3659383,-75.7709404,unknown
aa5189a9-beb7-4927-9628-62b82c0de816,WHOLEFOOD DELIGHTS,5340 CANOTEK RD,14/07/2025,45.4535914,-75.5841833,unknown
ffb8b1c3-1948-408d-aa1e-db75b2b986d2,WHOLEFOOD DELIGHTS,1295 COLONIAL RD,07/08/2025,45.4209969,-75.4214174,unknown
d6588871-829f-416c-8ca2-dd6c1b41a9d3,WILLOW WELLNESS,5944 PERTH ST,29/06/2023,45.199311,-75.82953,unknown
1a1dcb6b-3b37-458b-ae1b-c17254dd923c,WILLY&#39;S PIZZA,3023 CEDARVIEW RD,22/10/2025,45.3234648,-75.8048829,fast_food
d410b671-c208-43ba-b32c-7a062f416e80,WINEGARDEN BC INC.,100 SCHNEIDER RD,18/10/2024,45.3388955,-75.9031902,unknown
be0ee835-d0ac-4599-9a3f-6acea6652333,WOLF&#39;S GENERAL MERCANTILE,8651 MITCH OWENS RD,06/03/2025,45.3161613,-75.4837354,unknown
b02122f6-ce06-45a4-a921-21269c33a1a7,XCLUSIVE MEAL PLAN,66 HEARST WAY,13/11/2025,45.317519,-75.8865135,unknown
948e3230-7dea-4c8f-bffa-03618122ebbd,XMARKET RIDEAU,73 RIDEAU ST,23/01/2023,45.4262152,-75.6926662,unknown
73197f8a-575e-487c-8dfc-3af9db435c62,XRONOS FISH &amp; CHIPS,1613 DIAMONDVIEW RD,23/09/2025,45.3186092,-76.0508576,unknown
a6d0da65-b205-4cf3-a47e-315261dd79e7,XTREME TRAMPOLINE PARK,50 FRANK NIGHBOR PL,09/01/2024,45.2991753,-75.9164134,unknown
3b0b8f2a-8daf-4098-b915-90b81b878586,YORK STREET  BREAKFAST  PROGRAM,310 YORK ST,10/04/2025,45.4320386,-75.6830071,restaurant
625b70a4-610e-4bc1-bc2e-9993a527be14,YOUNG MEN&#39;S EMERGENCY AND TRANSITIONAL HOUSING PROGRAM,433 COOPER ST,09/09/2025,45.4157846,-75.6981732,institutional
662806b1-158a-4088-b448-9514e61de103,YUGIROLLS,2310 VIRGINIA DR,17/07/2025,45.3862931,-75.6452493,unknown
