NAME,FACILITY_TYPE,BUILDING_NAME,ADDRESS,LATITUDE,LONGITUDE,LINK
"Walkley Arena ","Arena","Jim Durrell Recreation Centre","1265 Walkley Rd","45.373351565335916","-75.65877376802476","https://ottawa.ca/en/recreation-and-parks/recreation-facilities/facility-listing/jim-durrell-recreation-centre"
"Jim Peplinski Arena #1","Arena","Jim Durrell Recreation Centre","1265 Walkley Rd","45.37320221400457","-75.65849420332519","https://ottawa.ca/en/recreation-and-parks/recreation-facilities/facility-listing/jim-durrell-recreation-centre"
"Ray Friel Recreation Complex Arena #3 (Market)","Arena","Ray Friel Recreation Complex","1585 Tenth Line Rd","45.47210725780023","-75.49194072766808","https://ottawa.ca/en/recreation-and-parks/recreation-facilities/facility-listing/ray-friel-recreation-complex"
"Canterbury- Brian Kilrea Arena","Arena","Canterbury-Brian Kilrea Arena","2185 Arch St","45.390337762885544","-75.62875302254538","https://ottawa.ca/en/recreation-and-parks/recreation-facilities/facility-listing/canterbury-recreation-complex"
"Senior's Adult Centre","Community Center","Earl Armstrong Arena","2020 Ogilvie Rd","45.43730513605599","-75.60117497778319","https://ottawa.ca/en/recreation-and-parks/recreation-facilities/facility-listing/earl-armstrong-arena"
"Mel Baker Halll","Community Center","J. Alph. Dulude Arena","941 Clyde Ave","45.37472177897369","-75.74639613793045","https://ottawa.ca/en/recreation-and-parks/recreation-facilities/facility-listing/ja-dulude-arena"
"Metcalfe Community Centre","Community Center","Metcalfe CC & Larry Robinson Arena","2785 8th Line Rd","45.229761807782204","-75.4687846120442","https://ottawa.ca/en/recreation-and-parks/recreation-facilities/facility-listing/larry-robinson-arena"
"Richcraft Sensplex - Arena 4","Arena","Richcraft Sensplex (Ottawa East)","813 Shefford Rd","45.45769391848764","-75.590974641868","https://www.sensplex.ca/"
"Richcraft Sensplex - Arena 3","Arena","Richcraft Sensplex (Ottawa East)","813 Shefford Rd","45.45725503289229","-75.5908734394647","https://www.sensplex.ca/"
"Richcraft Sensplex - Arena 2","Arena","Richcraft Sensplex (Ottawa East)","813 Shefford Rd","45.45720027017202","-75.5911720241938","https://www.sensplex.ca/"
"Richcraft Sensplex - Arena 1","Arena","Richcraft Sensplex (Ottawa East)","813 Shefford Rd","45.45741083499492","-75.59130396245453","https://www.sensplex.ca/"
"Overbrook Community Centre","Community Center","Overbrook Community Centre","33 Quill St","45.42553129647315","-75.65680825418309","https://ottawa.ca/en/recreation-and-parks/recreation-facilities/facility-listing/overbrook-community-centre"
"Wave Pool Ray Friel Cmplx","Pool - Indoor","Ray Friel Recreation Complex","1585 Tenth Line Rd","45.47218556926903","-75.4935128629586","https://ottawa.ca/en/recreation-and-parks/recreation-facilities/facility-listing/ray-friel-recreation-complex"
"Fred G. Barrett East Arena","Arena","Fred G. Barrett Arena","3280 Leitrim Rd","45.331356060683596","-75.5975628493308","https://ottawa.ca/en/recreation-and-parks/recreation-facilities/facility-listing/fred-barrett-arena"
"Fred G. Barrett West Arena","Arena","Fred G. Barrett Arena","3280 Leitrim Rd","45.33125032255204","-75.5981352827793","https://ottawa.ca/en/recreation-and-parks/recreation-facilities/facility-listing/fred-barrett-arena"
"Pretty Street Community","Community Center","Pretty St. Community Centre - 2 Pretty Street","2 Pretty St","45.258432539078086","-75.91879636329296","https://ottawa.ca/en/recreation-and-parks/recreation-facilities#community-buildings"
"Tanglewood Park Community Centre","Community Center","Tanglewood Park Community Centre","30 Woodfield Dr","45.33660183598383","-75.73037426352829","https://ottawa.ca/en/recreation-and-parks/recreation-facilities#community-buildings"
"West Carleton Community Complx","Arena","Cavanagh Sensplex Arena","5670 Carp Rd","45.4151996071079","-76.14670664404616","https://ottawa.ca/en/business/doing-business-city/public-private-partnerships-p3s/west-carleton-community-complex"
"Minto Recreation Complex","Recreation Complex","Minto Recreation Complex","3500 Cambrian Rd","45.252771028794086","-75.73441262820995","https://ottawa.ca/en/recreation-and-parks/recreation-facilities/facility-listing/minto-recreation-complex-barrhaven"
"Nepean Senior's Club","Community Center","Nepean Sportsplex","1701 Woodroffe Ave","45.32645579074471","-75.74433072064942","https://ottawa.ca/en/recreation-and-parks/recreation-facilities/facility-listing/nepean-seniors-recreation-centre"
"J. Sauve School Community Centre","Community Center","J. Sauve School Community Centre","1917 Gardenway Dr","45.46551821859302","-75.48508699168201",""
"Garry Burke Rink","Arena","Tony Graham Recreation Complex - Kanata","100 Charlie Rogers Pl","45.29413452709183","-75.90161403083373","https://ottawa.ca/en/recreation-and-parks/recreation-facilities/facility-listing/kanata-recreation-complex"
"Eldon Kemp Rink","Arena","Lois Kemp Arena","200 Glen Park Dr","45.43046369272614","-75.56287287570191","https://ottawa.ca/en/recreation-and-parks/recreation-facilities/facility-listing/lois-kemp-arena-blackburn"
"St. Laurent Complex Pool","Pool - Indoor","St. Laurent Complex/Don Gamble Community Centre","525 Côté St","45.43648052408209","-75.64804076438374","https://ottawa.ca/en/recreation-and-parks/recreation-facilities/facility-listing/st-laurent-complex"
"Arena - 2 - Allen MacDonald","Arena","Nepean Sportsplex","1701 Woodroffe Ave","45.327913844432025","-75.74490136285723","https://ottawa.ca/en/recreation-and-parks/recreation-facilities/facility-listing/nepean-sportsplex"
"Arena - 3 ","Arena","Nepean Sportsplex","1701 Woodroffe Ave","45.32698541090567","-75.74537105957994","https://ottawa.ca/en/recreation-and-parks/recreation-facilities/facility-listing/nepean-sportsplex"
"Queenswood Heights Community Centre","Community Center","Queenswood Heights Community Centre","1485 Duford St","45.47108689503752","-75.50782884112778","https://ottawa.ca/en/recreation-and-parks/recreation-facilities#community-buildings"
"Jack Purcell  CC","Community Center","Jack Purcell Community Centre","320 Jack Purcell Ln","45.41582223837389","-75.68950833818509","https://ottawa.ca/en/recreation-and-parks/recreation-facilities/facility-listing/jack-purcell-community-centre"
"Agincourt Field House","Field House","Agincourt Field House","1269 Albany Dr","45.3600840291855","-75.75370611118132",""
"Hampton Park: Fieldhouse","Field House","Hampton Park: Fieldhouse","645 Parkview Rd","45.38738494373058","-75.73871624473377",""
"Gil-O-Julien Park: Fieldhouse","Field House","Gil-O-Julien Park: Fieldhouse","201 Donald St","45.42833150942319","-75.6607039511263",""
"Dempsey CC","Community Center","Dempsey CC","1895 Russell Rd","45.40258303067187","-75.6276842878687","https://ottawa.ca/en/recreation-and-parks/recreation-facilities/facility-listing/dempsey-community-centre"
"Alfred Taylor REC Ctr.","Community Center","Alfred Taylor Rec Ctr.","2300 Community Way","45.13016251527015","-75.71087813859516","https://ottawa.ca/en/recreation-and-parks/halls-and-community-centres"
"Alfred Taylor Field House","Field House","Alfred Taylor Field House","2300 Community Way","45.13046896029738","-75.70916404793016","https://ottawa.ca/en/recreation-and-parks/halls-and-community-centres"
"Beacon Hill CC & Change House","Community Center","Beacon Hill CC & Change House","2130 Radford Cres","45.4589420822346","-75.59887296581589","https://ottawa.ca/en/recreation-and-parks/recreation-facilities#community-buildings"
"Tom Brown Arena","Arena","Tom Brown Arena","141 Bayview Station Rd","45.4080895356122","-75.72263445360048","https://ottawa.ca/en/recreation-and-parks/recreation-facilities/facility-listing/tom-brown-arena"
"Tony Graham Recreation Complex - Kanata","Recreation Complex","Tony Graham Recreation Complex - Kanata","100 Charlie Rogers Pl","45.29424765545377","-75.90141177604585","https://ottawa.ca/en/recreation-and-parks/recreation-facilities/facility-listing/kanata-recreation-complex"
"Glebe Community Centre","Community Center","Glebe Community Centre","175 Third Ave","45.40223973304507","-75.69153021412433","https://ottawa.ca/en/recreation-and-parks/recreation-facilities/facility-listing/glebe-community-centre"
"Kars Recreation Centre","Community Center","Kars Recreation Centre","1604 Old Wellington St","45.14881094716246","-75.64795151226869","https://ottawa.ca/en/residents/rural-residents/rural-recreation#rural-facilities-contact-information"
"Olde Forge CC","Community Center","Olde Forge CC","2730 Carling Ave","45.35999531644282","-75.79328272322476",""
"Dale Little League Building","Field House","Dale Little League Building","235 Dale Ave","45.409349451126296","-75.65969972447017",""
"Beauregard Bunker","Field House","Beauregard Bunker","1257 Joseph Drouin Ave","45.47553566606963","-75.52476364460708",""
"New Edinburgh Park: Fieldhouse","Field House","New Edinburgh Park: Fieldhouse","203 Stanley Ave","45.43878956999112","-75.68520748487911",""
"Andy Shields Park Fieldhouse","Field House","Andy Shields Park Fieldhouse","1455 Old Prescott Rd.","45.257470128512324","-75.56567090323313","https://ottawa.ca/en/recreation-and-parks/halls-and-community-centres"
"A. Haydon Park Picnic Gazebo","Field House","A. Haydon Park Picnic Gazebo","3169 Carling Ave","45.34935952193443","-75.81965493243162",""
"Kingsmere Field House","Field House","Kingsmere Field House","2074 Benjamin Ave","45.36508724034028","-75.76238207702626",""
"Kinsella Fieldhouse","Field House","Kinsella Fieldhouse","1600 Prestwick Dr","45.46770788271454","-75.49887142412115",""
"Kenmore Fieldhouse","Field House","Kenmore Fieldhouse","3151 Yorks Corners Rd","45.23373829638964","-75.4167763073103",""
"Robert and Linda Poulsen Gymnasium","Community Center","Hunt Club-Riverside Park Community Centre","3320 Paul Anka Dr","45.35201140490796","-75.67266647620174","https://ottawa.ca/en/recreation-and-parks/recreation-facilities/facility-listing/hunt-club-riverside-park-community-centre"
"Richcraft Sensplex (Ottawa East)","Recreation Complex","Richcraft Sensplex (Ottawa East)","813 Shefford Rd","45.457463446935016","-75.59073476563599","https://www.sensplex.ca/"
"Plant Bath Recreation Centre","Recreation Complex","Plant Bath Recreation Centre","930 Somerset St West","45.407997823674755","-75.71429131446662","https://ottawa.ca/en/recreation-and-parks/recreation-facilities/facility-listing/plant-recreation-centre"
"Plant Bath Community Centre","Community Center","Plant Bath Recreation Centre","930 Somerset St West","45.40793444616819","-75.71432897902987","https://ottawa.ca/en/recreation-and-parks/recreation-facilities/facility-listing/plant-recreation-centre"
"Community Centre","Community Center","Ray Friel Recreation Complex","1585 Tenth Line Rd","45.47212513387005","-75.49300440123643","https://ottawa.ca/en/recreation-and-parks/recreation-facilities/facility-listing/ray-friel-recreation-complex"
"Cecil Morrison Fieldhouse","Field House","Cecil Morrison Fieldhouse","1332 Avenue N","45.41736308175571","-75.64605706414916",""
"Parkdale Park: Fieldhouse","Field House","Parkdale Park: Fieldhouse","366 Parkdale Ave","45.40162534525221","-75.73041219848443",""
"Pauline Vanier Field House","Field House","Pauline Vanier Field House","1015 Harkness Ave","45.36685910582909","-75.67630151618545",""
"Hawthorne Fieldhouse","Field House","Hawthorne Fieldhouse","2139 Tawney Rd","45.393864361946655","-75.6159828060283",""
"TD Place Arena","Arena","Lansdowne Park Complex: TD Place","1015 Bank St","45.39911177341789","-75.68423286040655","https://ottawa.ca/en/recreation-and-parks/recreation-facilities/facility-listing/lansdowne-park"
"Carson Grove Park Fieldhouse","Field House","Carson Grove Park Fieldhouse","1423 Matheson Rd","45.43693781660411","-75.62171840538694",""
"Heritage Park Field House","Field House","Heritage Park Fieldhouse Storage","6160 Orleans Blvd","45.453100867849045","-75.53593698353575",""
"Alta Vista Field House","Field House","Alta Vista Field House","1309 Randall Ave","45.383250722744386","-75.66644848962034",""
"Crystal Bay Fieldhouse","Field House","Crystal Bay Fieldhouse","152 Grandview Rd","45.36106421096294","-75.85683399937224",""
"J.G. Mlacak Seniors Centre","Community Center","John G Mlacak Centre","2500 Campeau Dr","45.321230810805034","-75.89629333455872","https://ottawa.ca/en/recreation-and-parks/recreation-facilities/facility-listing/john-g-mlacak-community-centre"
"J.G. Mlacak  Arena","Arena","John G Mlacak Centre","2500 Campeau Dr","45.32116180542752","-75.89547128085233","https://ottawa.ca/en/recreation-and-parks/recreation-facilities/facility-listing/john-g-mlacak-community-centre"
"Jack Purcell Pool","Pool - Indoor","Jack Purcell Community Centre","320 Jack Purcell Ln","45.41565833699878","-75.68958770434045","https://ottawa.ca/en/recreation-and-parks/recreation-facilities/facility-listing/jack-purcell-community-centre"
"Richmond Community Centre","Community Center","Richmond Arena & CC","6095 Perth St","45.195490537782185","-75.83777826721892","https://ottawa.ca/en/recreation-and-parks/recreation-facilities/facility-listing/richmond-arena"
"Rideauview Community Centre","Community Center","Rideauview Community Centre","4310 Shoreline Rd","45.277374449961805","-75.68740011797742","https://ottawa.ca/en/recreation-and-parks/recreation-facilities/facility-listing/rideauview-community-centre"
"Sandy Hill Arena","Arena","Sandy Hill Arena","60 Mann Ave","45.419646241331165","-75.67419761507765","https://ottawa.ca/en/recreation-and-parks/recreation-facilities/facility-listing/sandy-hill-arena"
"Sawmill Creek Community Centre","Community Center","Sawmill Creek Pool and Community Centre","3380 D'Aoust Ave","45.34992546582935","-75.63643877365601","https://ottawa.ca/en/recreation-and-parks/recreation-facilities/facility-listing/sawmill-creek-community-centre-and-pool"
"Mantha Park Fieldhouse","Field House","Mantha Park Fieldhouse","525 Famille-Laporte Ave","45.501383833646955","-75.46692040211545",""
"Bel Air Park Fieldhouse","Field House","Bel Air Park Fieldhouse","2149 Berwick Ave","45.35725075840005","-75.76249393524544",""
"Jasmine Fieldhouse","Field House","Jasmine Fieldhouse","2040 Jasmine Cres","45.44098374946312","-75.59340563124884",""
"Weston Field House","Field House","Weston Field House","955 Pleasant Park Rd","45.395686212123024","-75.62541899453863",""
"Hornet's Nest Fieldhouse","Field House","Hornet's Nest Fieldhouse","1660 Bearbrook Rd","45.44276250439542","-75.57603923578455",""
"Kars Washroom Canteen & Storage Bldng","Field House","Kars Washroom Canteen & Storage Bldng","1604 Old Wellington St","45.15030714001157","-75.64922461277418",""
"Raven Field House","Field House","Raven Field House","1500 Larose","45.376361149458056","-75.74031848885767",""
"Village Green Park Chalet","Field House","Village Green Park Chalet","270 Springfield Rd","45.44885960382175","-75.67713265724925",""
"Brewer Park Arena","Arena","Brewer Park Arena","151 Brewer Way","45.38925163655741","-75.69050647067034","https://ottawa.ca/en/recreation-and-parks/recreation-facilities/facility-listing/brewer-pool-and-arena"
"Cummings Fieldhouse Storage","Field House","Cummings Fieldhouse Storage","1060 Cummings Ave","45.4309835668142","-75.63543905744092",""
"Woodroffe Park: Fieldhouse","Field House","Woodroffe Park: Fieldhouse","180 Lockhart Ave","45.37635018361472","-75.77244001110432",""
"Fairlea Park Field House","Field House","Fairlea Park Field House","2989 Fairlea Cres","45.37675248631459","-75.64015139035102",""
"March Central CC","Community Center","March Central Community Centre","630 Cameron Harvey Dr","45.37686634326373","-75.95535858767069","https://ottawa.ca/en/health-and-public-safety/ottawa-fire-services/about-ottawa-fire-services#fire-station-locations"
"Fitzroy Harbour CC","Community Center","Fitzroy Harbour CC","100 Clifford Campbell St","45.47013530104968","-76.20625796927015","https://ottawa.ca/en/recreation-and-parks/recreation-facilities/facility-listing/brewer-pool-and-arena"
"CardelRec Recreation Complex (Goulbourn) Pool","Pool - Indoor","CardelRec Recreation Complex (Goulbourn)","1500 Shea Rd","45.2637175977562","-75.90789679852352","https://ottawa.ca/en/recreation-and-parks/recreation-facilities/facility-listing/cardelrec-recreation-complex-goulbourn"
"Diane Deans Greenboro Community Centre","Community Center","Diane Deans Greenboro Community Centre","363 Lorry Greenberg Dr","45.36346008046803","-75.63560372312409","https://ottawa.ca/en/recreation-and-parks/recreation-facilities/facility-listing/greenboro-community-centre"
"Hintonburg Community Centre","Community Center","Hintonburg Community Centre","1064 Wellington St","45.40358535700564","-75.72429605839838","https://ottawa.ca/en/recreation-and-parks/recreation-facilities/facility-listing/hintonburg-community-centre"
"Ottawa South Community Centre","Community Center","Ottawa South Community Centre","260 Sunnyside Ave","45.394673160589946","-75.681816704906","https://ottawa.ca/en/recreation-and-parks/recreation-facilities/facility-listing/ottawa-south-community-centre"
"Barbara Ann Scott Arena","Arena","Pinecrest Recreation Complex","2250 Torquay Ave","45.34783005621103","-75.77324431679563","https://ottawa.ca/en/recreation-and-parks/recreation-facilities/facility-listing/pinecrest-recreation-complex"
"Claudette Cain Field House","Field House","Claudette Cain Field House","660 River Rd","45.271438789827386","-75.69954675456697",""
"Balena Park Field House","Field House","Balena Park Field House","1640 Devon St","45.40534902437101","-75.6433071997919",""
"Marsha Park Fieldhouse","Field House","Marsha Park Fieldhouse","855 Lawnsberry Dr","45.48563866477028","-75.5122377770338",""
"Leitrim Football Fieldhouse","Field House","Leitrim Football Fieldhouse","3280 Leitrim Rd","45.331089462971285","-75.59523677149704",""
"Norman Johnston Field House","Field House","Norman Johnston Field House","2401 Cleroux Cres","45.43701347339169","-75.54906721337765",""
"Strathcona Park: Fieldhouse","Field House","Strathcona Park: Fieldhouse","25 Range Rd","45.42939112531397","-75.6726889727114",""
"Sylvia Holden Park: Fieldhouse","Field House","Sylvia Holden Park: Fieldhouse","641 O'Connor St","45.40248487700916","-75.68235559526178",""
"Dutchys Hole Park: Field House","Field House","Dutchys Hole Park: Field House","154 Mann Ave","45.42059210658873","-75.66782717720601",""
"Country Place Fieldhouse","Field House","Country Place Fieldhouse","83 Amberwood Cres","45.32063723131512","-75.707555412293",""
"Blackburn Community Hall","Community Center","Blackburn Community Hall","190 Glen Park Dr","45.42964488911294","-75.56343364183151","https://ottawa.ca/en/recreation-and-parks/halls-and-community-centres"
"Brewer Park Cmplx Pool","Pool - Indoor","Brewer Park Cmplx Pool","100 Brewer Way","45.38936085097343","-75.69191557161827","https://ottawa.ca/en/recreation-and-parks/recreation-facilities/facility-listing/brewer-pool-and-arena"
"Foster Farm Community Centre","Community Center","Foster Farm CC & Day Care Facility","1065 Ramsay Cres","45.34973338203128","-75.79457892390779","https://ottawa.ca/en/recreation-and-parks/recreation-facilities/facility-listing/foster-farm-community-centre"
"Rideauview Park: Field House","Field House","Rideauview Park: Field House","960 Eiffel Ave","45.368048813836374","-75.70687025285277",""
"McKendry Park Fieldhouse","Field House","McKendry Park Fieldhouse","2567 Dow St","45.23784329159346","-75.47886444165897",""
"Combermere Park Fieldhouse","Field House","Combermere Park Fieldhouse","11 Combermere","45.459764895914816","-75.61439730919624",""
"Meadowvale Terrace Park: Fieldhouse","Field House","Meadowvale Terrace Park: Fieldhouse","1205 Trenton Ave","45.377992887161184","-75.72460772798789",""
"Brantwood Park Field House","Field House","Brantwood Park Field House","39 Onslow Cres","45.40632886819918","-75.67213582160048",""
"Canterbury Pool","Pool - Indoor","Canterbury Pool","2185 Arch St","45.39044480377777","-75.62943735912883","https://ottawa.ca/en/recreation-and-parks/recreation-facilities/facility-listing/canterbury-recreation-complex"
"Canterbury Community Centre","Community Center","Canterbury Community Centre","2185 Arch St","45.3909370413981","-75.63000011412844","https://ottawa.ca/en/recreation-and-parks/recreation-facilities/facility-listing/canterbury-recreation-complex"
"Champagne Bath Pool","Pool - Indoor","Champagne Bath Pool","321 King Edward Ave","45.43065916505737","-75.68671886980192","https://ottawa.ca/en/recreation-and-parks/recreation-facilities/facility-listing/champagne-fitness-centre"
"Dick Brule Lion Centre","Community Center","Lion Dick Brûlé Community Centre","170 Castlefrank Rd","45.28980312897302","-75.879062236156","https://ottawa.ca/en/recreation-and-parks/recreation-facilities#community-buildings"
"Jack Donohue Gymnasium","Athletic Facility","Eva James Community Centre","65 Stonehaven Dr","45.29060493763417","-75.85791671183473","https://ottawa.ca/en/recreation-and-parks/recreation-facilities/facility-listing/eva-james-memorial-community-centre"
"Bridlewood Community Centre","Community Center","Bridlewood Community Centre","63 Bluegrass Dr","45.284805419497665","-75.86168154490227","https://ottawa.ca/en/recreation-and-parks/recreation-facilities/facility-listing/brewer-pool-and-arena"
"Beaverbrook Community Centre","Community Center","Beaverbrook Community Centre","1002 Beaverbrook Dr","45.32880744166075","-75.90108323340034","https://ottawa.ca/en/recreation-and-parks/recreation-facilities/facility-listing/beaverbrook-outdoor-pool-kanata"
"Scala Park Field House","Field House","Scala Park Field House","797 Scala Ave","45.46241455988963","-75.4689618173104",""
"Briargreen Field House","Field House","Briargreen Field House","9 Parkfield Cres","45.337862696582235","-75.77903440885774",""
"Robert Andrew Russell Field House","Field House","Robert Andrew Russell Field House","466 Billings Ave","45.39459652732645","-75.65121113551538",""
"Southvale Field House","Field House","Southvale Field House","2320 Southvale Cres","45.39848450846858","-75.61397124993508",""
"Galetta Rink Shack","Field House","Galetta Rink Shack","119 Darwin St","45.425250156708024","-76.2602398502254","https://ottawa.ca/en/residents/rural-residents/rural-recreation#rural-facilities-contact-information"
"Bell Arena","Arena","Bell Centennial Arena","50 Cassidy Rd","45.32462732038761","-75.81103032866135","https://ottawa.ca/en/recreation-and-parks/recreation-facilities/facility-listing/bell-centennial-arena"
"Carlington REC Cntr.","Recreation Complex","Carlington Rec Cntr. ","1520 Caldwell Ave","45.37242523805674","-75.73921602154377","https://ottawa.ca/en/recreation-and-parks/recreation-facilities/facility-listing/carlington-recreation-centre"
"Walter Baker Sports Centre","Recreation Complex","Walter Baker Sports Centre","100 Malvern Dr","45.28038351636469","-75.76153200845941","https://ottawa.ca/en/recreation-and-parks/recreation-facilities/facility-listing/walter-baker-sports-centre"
"WBSC Indoor Pool","Pool - Indoor","Walter Baker Sports Centre","100 Malvern Dr","45.28012266978887","-75.76225456386663","https://ottawa.ca/en/recreation-and-parks/recreation-facilities/facility-listing/walter-baker-sports-centre"
"Fred G. Barrett Arena","Arena","Fred G. Barrett Arena","3280 Leitrim Rd","45.3311199358737","-75.59779453382572","https://ottawa.ca/en/recreation-and-parks/recreation-facilities/facility-listing/fred-barrett-arena"
"Jules Morin Fieldhouse","Field House","Jules Morin Fieldhouse","400 Clarence St E","45.43358290009715","-75.68177284556056",""
"Katimavik Elementary School - Community Space","Community Center","Katimavik Elementary School - Community Space","64 Chimo Dr","45.309958345297666","-75.88948350103723",""
"Old Town Hall Community Centre","Community Center","Old Town Hall Community Centre","61 Main St","45.41299484176327","-75.67988372894224",""
"Richelieu-Vanier Community Centre","Community Center","Richelieu-Vanier Community Centre","300 Des Peres Blancs Ave","45.44392593695503","-75.6594869279524","https://ottawa.ca/en/recreation-and-parks/recreation-facilities/facility-listing/richelieu-vanier-community-centre"
"Jim Tubman Chevrolet Rink","Arena","Jim Tubman Chevrolet Rink","2185 Arch St","45.38997515258139","-75.62951802604469","https://ottawa.ca/en/jim-tubman-chevrolet-rink"
"Rockcliffe Park Field House","Field House","Rockcliffe Park Field House","271 Buchan Rd","45.44972954663798","-75.67706242426539",""
"Routhier School CC","Community Center","Routhier School CC","172 Guigues Ave","45.4320652945203","-75.69150328083548","https://ottawa.ca/en/recreation-and-parks/recreation-facilities/facility-listing/routhier-community-centre"
"Roy G. Hobbs Community Centre","Community Center","Roy G. Hobbs Community Centre","109 Larch Cres","45.48754036403728","-75.5214654027863","https://ottawa.ca/en/recreation-and-parks/recreation-facilities#community-buildings"
"Nepean Sportsplex Hamilton Yard Fieldhouse","Field House","Nepean Sportsplex Hamilton Yard Fieldhouse","1701 Woodroffe Ave","45.326101299043636","-75.74310450232028","https://ottawa.ca/en/recreation-and-parks/recreation-facilities/facility-listing/nepean-sportsplex"
"Eastvale Fieldhouse Storage","Field House","Eastvale Fieldhouse Storage","740 Eastvale Dr","45.45870063126566","-75.59812831544596",""
"Forbes Field House","Field House","Forbes Field House","669 Paul Ave","45.43961707350161","-75.64304137302797",""
"Francois Dupuis Rec Centre","Recreation Complex","François Dupuis Rec Centre","2263 Portobello Blvd","45.45478552405342","-75.46275461051242","https://ottawa.ca/en/recreation-and-parks/recreation-facilities/facility-listing/francois-dupuis-recreation-centre"
"Bearbrook CC","Community Center","Bearbrook CC","8720 Russell Rd","45.383665234827426","-75.33717415375341","https://ottawa.ca/en/residents/rural-residents/rural-recreation#rural-facilities-contact-information"
"Huntley Community Mess Hall","Community Center","Huntley Community Mess Hall","2240 Craig's Side Rd","45.35342229088638","-76.05110272846802","https://hca-carp.ca/facility-rentals/mess-hall/"
"Pineview Community Hub","Community Center","Pineview Community Hub","1700 Blair Rd","45.4200651416853","-75.59670640272546","https://ottawa.ca/en/health-and-public-safety/ottawa-fire-services/about-ottawa-fire-services#fire-station-locations"
"Terry Fox Main Building","Recreation Complex","Terry Fox Main Building","2960 Riverside Dr","45.36985106827844","-75.69125631779418","https://ottawa.ca/en/recreation-and-parks/recreation-facilities/facility-listing/terry-fox-athletic-facility"
"Jim Durrell CC","Community Center","Jim Durrell Recreation Centre","1265 Walkley Rd","45.37286377688762","-75.65865435677068","https://ottawa.ca/en/recreation-and-parks/recreation-facilities/facility-listing/jim-durrell-recreation-centre"
"Manotick CC","Community Center","Manotick (Mike O’Neil) Arena","5572 Doctor Leach Dr","45.22205849625543","-75.68642663346695","https://ottawa.ca/en/recreation-and-parks/recreation-facilities/facility-listing/manotick-community-centre"
"Nepean Splx Aquatics Centre","Pool - Indoor","Nepean Sportsplex","1701 Woodroffe Ave","45.326466528155585","-75.745846695065","https://ottawa.ca/en/recreation-and-parks/recreation-facilities/facility-listing/nepean-sportsplex"
"Hunt Club-Riverside Park Community Centre","Community Center","Hunt Club-Riverside Park Community Centre","3320 Paul Anka Dr","45.35214816432137","-75.67281137176212","https://ottawa.ca/en/recreation-and-parks/recreation-facilities/facility-listing/hunt-club-riverside-park-community-centre"
"Tom Flood Arena","Arena","Tony Graham Recreation Complex - Kanata","100 Charlie Rogers Pl","45.294120156243046","-75.90122727825614","https://ottawa.ca/en/recreation-and-parks/recreation-facilities/facility-listing/kanata-recreation-complex"
"Ray Friel Recreation Complex Arena #2 (Market)","Arena","Ray Friel Recreation Complex","1585 Tenth Line Rd","45.47181598673781","-75.49174456435611","https://ottawa.ca/en/recreation-and-parks/recreation-facilities/facility-listing/ray-friel-recreation-complex"
"Arena - 1- Steve Yzerman","Arena","Nepean Sportsplex","1701 Woodroffe Ave","45.32753018174223","-75.74578206307694","https://ottawa.ca/en/recreation-and-parks/recreation-facilities/facility-listing/nepean-sportsplex"
"Nault Park Field House","Field House","Nault Park Field House","325 St.Denis St","45.44119389580893","-75.65823538791206",""
"Albion Heatherington Community Centre","Community Center","Albion Heatherington Community Centre","1560 Heatherington Rd","45.373181728728916","-75.64793806179394","https://ottawa.ca/en/recreation-and-parks/recreation-facilities/facility-listing/albion-heatherington-recreation-centre"
"Galetta Community Hall","Community Center","Galetta Community Hall","119 Darwin St","45.42442747439731","-76.25956241539828","https://ottawa.ca/en/residents/rural-residents/rural-recreation#rural-facilities-contact-information"
"Fitness Centre","Fitness Centre","Ray Friel Recreation Complex","1585 Tenth Line Rd","45.47201444665651","-75.4935122512059","https://ottawa.ca/en/recreation-and-parks/recreation-facilities/facility-listing/ray-friel-recreation-complex"
"The Elizabeth Manley International Skating Rink","Arena","Bob MacQuarrie Recreation Complex - Orléans","1490 Youville Dr","45.466493420856395","-75.54545670009615","https://ottawa.ca/en/recreation-and-parks/recreation-facilities/facility-listing/bob-macquarrie-recreation-complex-orleans"
"Pinecrest Rec Complex Pool","Pool - Indoor","Pinecrest Recreation Complex","2250 Torquay Ave","45.34756297605641","-75.77402093461326","https://ottawa.ca/en/recreation-and-parks/recreation-facilities/facility-listing/pinecrest-recreation-complex"
"Ray Friel Recreation Complex Arena #1 - Ron Racette Arena","Arena","Ray Friel Recreation Complex","1585 Tenth Line Rd","45.47230714352353","-75.4925557861768","https://ottawa.ca/en/recreation-and-parks/recreation-facilities/facility-listing/ray-friel-recreation-complex"
"Vanier Sugar Shack","Field House","Vanier Sugar Shack","320 Des Peres Blancs Ave","45.44433408327178","-75.66249331701881",""
"Greely Community Centre","Community Center","Greely Community Centre","1448 Meadow Dr","45.26108729607006","-75.55746309799176","https://ottawa.ca/en/recreation-and-parks/halls-and-community-centres"
"Harkness Park Fieldhouse","Field House","Harkness Park Fieldhouse","6050 Piperville Rd","45.365055212905965","-75.46401099696374",""
"Sandalwood Field House","Field House","Sandalwood Field House","2850 Sandalwood Dr","45.37803076168853","-75.64793525186373",""
"Kiwanis Park Secondary Structure # 1","Field House","Kiwanis Park Secondary Structure # 1","395 Levis Ave","45.43659058263772","-75.65291336572368",""
"Vars Fieldhouse","Field House","Vars Fieldhouse","5717 Rockdale Rd","45.3561919150938","-75.35054136545547",""
"WBSC Fitness Centre","Fitness Centre","Walter Baker Sports Centre","100 Malvern Dr","45.28036312454462","-75.761875561055","https://ottawa.ca/en/recreation-and-parks/recreation-facilities/facility-listing/walter-baker-sports-centre"
"Surgenor Barrhaven Buick Arena Rink A","Arena","Walter Baker Sports Centre","100 Malvern Dr","45.27982639499678","-75.76197212455814","https://ottawa.ca/en/recreation-and-parks/recreation-facilities/facility-listing/walter-baker-sports-centre"
"Alexander CC","Community Center","Alexander CC","960 Silver St","45.3805287037407","-75.73142082598714","https://ottawa.ca/en/recreation-and-parks/recreation-facilities/facility-listing/alexander-community-centre"
"Fitness Centre","Fitness Centre","Bob MacQuarrie Recreation Complex - Orléans","1490 Youville Dr","45.46587832976451","-75.54424624181036","https://ottawa.ca/en/recreation-and-parks/recreation-facilities/facility-listing/bob-macquarrie-recreation-complex-orleans"
"Sawmill Creek Pool","Pool - Indoor","Sawmill Creek Pool and Community Centre","3380 D'Aoust Ave","45.349727325819174","-75.63633423311315","https://ottawa.ca/en/recreation-and-parks/recreation-facilities/facility-listing/sawmill-creek-community-centre-and-pool"
"Johnny Leroux Arena","Arena","Johnny Leroux Stittsville Community Arena","10 Warner-Colpitts Ln","45.260652600140205","-75.92665428191768","https://ottawa.ca/en/recreation-and-parks/recreation-facilities/facility-listing/johnny-leroux-stittsville-community-arena"
"Richcraft Recreation Complex","Recreation Complex","Richcraft Recreation Complex","4101 Innovation Dr","45.34039736479766","-75.93056947320083","https://ottawa.ca/en/recreation-and-parks/recreation-facilities/facility-listing/richcraft-recreation-complex-kanata"
"Bob MacQuarrie Rec C - Orléans","Recreation Complex","Bob MacQuarrie Recreation Complex - Orléans","1490 Youville Dr","45.46633970651636","-75.5451071719073","https://ottawa.ca/en/recreation-and-parks/recreation-facilities/facility-listing/bob-macquarrie-recreation-complex-orleans"
"Queenswood Ridge Fieldhouse","Field House","Queenswood Ridge Fieldhouse","346 Kennedy Lane East","45.47792636832472","-75.50411849267884",""
"Elizabeth Manley Park: Fieldhouse","Field House","Elizabeth Manley Park: Fieldhouse","1161 Blohm Dr","45.3699277224692","-75.61989181241074",""
"Fairfield Fieldhouse Storage","Field House","Fairfield Fieldhouse Storage","49 Appleford St","45.44099362810924","-75.60617319953246",""
"Frank J. Licari Park: Fieldhouse","Field House","Frank J. Licari Park: Fieldhouse","1990 Cochrane St","45.36862290835898","-75.6569179510557",""
"Frank Ryan Field House","Field House","Frank Ryan Field House","950 Alpine Ave","45.35624426978983","-75.78921836848531",""
"Nepean Sportsplex","Recreation Complex","Nepean Sportsplex","1701 Woodroffe Ave","45.32655443198598","-75.7456334907121","https://ottawa.ca/en/recreation-and-parks/recreation-facilities/facility-listing/nepean-sportsplex"
"Fitness Centre","Fitness Centre","Minto Recreation Complex","3500 Cambrian Rd","45.25302508206905","-75.73418869976918","https://ottawa.ca/en/recreation-and-parks/recreation-facilities/facility-listing/minto-recreation-complex-barrhaven"
"Sportsplex Fitness Centre","Fitness Centre","Nepean Sportsplex","1701 Woodroffe Ave","45.326743741619175","-75.74532507212561","https://ottawa.ca/en/recreation-and-parks/recreation-facilities/facility-listing/nepean-sportsplex"
"Vernon Recreation Centre","Community Center","Vernon Recreation Centre","7950 Lawrence St","45.16318282715271","-75.45480915465652","https://ottawa.ca/en/residents/rural-residents/rural-recreation#rural-facilities-contact-information"
"Ray Friel Recreation Complex","Recreation Complex","Ray Friel Recreation Complex","1585 Tenth Line Rd","45.47201818919161","-75.49310865072515","https://ottawa.ca/en/recreation-and-parks/recreation-facilities/facility-listing/ray-friel-recreation-complex"
"Richcraft Rec Cplx-Fitness/Gym","Fitness Centre","Richcraft Recreation Complex","4101 Innovation Dr","45.34015546733467","-75.93021948956616","https://ottawa.ca/en/recreation-and-parks/recreation-facilities/facility-listing/richcraft-recreation-complex-kanata"
"Churchill Senior Recreation Centre","Community Center","Churchill Senior Recreation Centre","345 Richmond Rd","45.392395310544245","-75.75455197563262","https://ottawa.ca/en/recreation-and-parks/recreation-facilities/facility-listing/churchill-seniors-centre"
"Stuart Holmes Arena","Arena","Osgoode Recreation Complex","5630 Osgoode Main St","45.14734981541331","-75.60145128429322","https://ottawa.ca/en/recreation-and-parks/recreation-facilities/facility-listing/stuart-holmes-arena"
"Stuart Holmes Arena","Arena","Osgoode Recreation Complex","5630 Osgoode Main St","45.147604053474424","-75.60166279891509","https://ottawa.ca/en/recreation-and-parks/recreation-facilities/facility-listing/stuart-holmes-arena"
"Glouc South Community Centre","Community Center","4550 Bank St. - Gloucester South Community Centre","4550 Bank St","45.329506737760966","-75.59990660061946",""
"Navan Memorial Centre Arena","Arena","Navan Memorial Centre","1295 Colonial Rd","45.420895090643825","-75.42117930175904","https://ottawa.ca/en/recreation-and-parks/recreation-facilities/facility-listing/navan-memorial-centre"
"Pool - Indoor","Pool - Indoor","Minto Recreation Complex","3500 Cambrian Rd","45.25260687997054","-75.73484742538388","https://ottawa.ca/en/recreation-and-parks/recreation-facilities/facility-listing/minto-recreation-complex-barrhaven"
"Arena South","Arena","Minto Recreation Complex","3500 Cambrian Rd","45.25285432291868","-75.73402245305113","https://ottawa.ca/en/recreation-and-parks/recreation-facilities/facility-listing/minto-recreation-complex-barrhaven"
"Fallingbrook CC","Community Center","Fallingbrook CC","679 Deancourt Cres","45.481415773325956","-75.48673175755988","https://ottawa.ca/en/recreation-and-parks/recreation-facilities/facility-listing/south-fallingbrook-community-centre"
"Plant Bath Indoor Pool","Pool - Indoor","Plant Bath Recreation Centre","930 Somerset St West","45.408009061502725","-75.71458464315297","https://ottawa.ca/en/recreation-and-parks/recreation-facilities/facility-listing/plant-recreation-centre"
"Johnny Leroux Community Centre","Community Center","Johnny Leroux Stittsville Community Arena","10 Warner-Colpitts Ln","45.26086666337449","-75.92649610566413","https://ottawa.ca/en/recreation-and-parks/recreation-facilities/facility-listing/johnny-leroux-stittsville-community-arena"
"Pinecrest Recreation Complex","Recreation Complex","Pinecrest Recreation Complex","2250 Torquay Ave","45.34792030386336","-75.77291263004666","https://ottawa.ca/en/recreation-and-parks/recreation-facilities/facility-listing/pinecrest-recreation-complex"
"Sandy Hill Community Centre","Community Center","Sandy Hill Community Centre","250 Somerset St East","45.42273374592948","-75.67762811495936","https://ottawa.ca/en/recreation-and-parks/recreation-facilities/facility-listing/sandy-hill-community-centre"
"Pat Clark Community Centre","Community Center","Pat Clark Community Centre","4355 Halmont Dr","45.42887022912707","-75.6197200895627","https://ottawa.ca/en/recreation-and-parks/recreation-facilities/facility-listing/pat-clark-community-centre"
"St. Laurent Cmplx Arena","Arena","St. Laurent Complex/Don Gamble Community Centre","525 Côté St","45.43626024243589","-75.64644066184346","https://ottawa.ca/en/recreation-and-parks/recreation-facilities/facility-listing/st-laurent-complex"
"St. Laurent CC","Community Center","St. Laurent Complex/Don Gamble Community Centre","525 Côté St","45.4365918811509","-75.64726141658596","https://ottawa.ca/en/recreation-and-parks/recreation-facilities/facility-listing/st-laurent-complex"
"Curling Rink","Curling Rink","Nepean Sportsplex","1701 Woodroffe Ave","45.32638957950801","-75.74482796331199","https://ottawa.ca/en/recreation-and-parks/recreation-facilities/facility-listing/nepean-sportsplex"
"Nepean Sportsplex: Minto Field Gazebo","Field House","Nepean Sportsplex: Minto Field Gazebo","1701 Woodroffe Ave","45.32615566093968","-75.74201712849978","https://ottawa.ca/en/recreation-and-parks/recreation-facilities/facility-listing/nepean-sportsplex"
"Fisher Heights Community Place","Community Center","Fisher Heights Community Place","31 Sutton Place","45.36481433029624","-75.72188882945679","https://ottawa.ca/en/recreation-and-parks/halls-and-community-centres"
"Eva James Community Centre","Community Center","Eva James Community Centre","65 Stonehaven Dr","45.29062514250032","-75.85769891798905","https://ottawa.ca/en/recreation-and-parks/recreation-facilities/facility-listing/eva-james-memorial-community-centre"
"Katie Xu and Jack Fan Rink #1","Arena","CardelRec Recreation Complex (Goulbourn)","1500 Shea Rd","45.26302365525888","-75.90771833831086","https://ottawa.ca/en/recreation-and-parks/recreation-facilities/facility-listing/cardelrec-recreation-complex-goulbourn"
"St. Laurent Fitness Cntr.","Fitness Centre","St. Laurent Complex/Don Gamble Community Centre","525 Côté St","45.43667777205817","-75.64680255264727","https://ottawa.ca/en/recreation-and-parks/recreation-facilities/facility-listing/st-laurent-complex"
"Crestview Pavilion","Recreation Complex","Crestview Pavilion","58 Fieldrow St","45.3443514935534","-75.73776035282984","https://ottawa.ca/en/recreation-and-parks/recreation-facilities/facility-listing/crestview-outdoor-pool"
"Kanata Leisure & Wave Pool","Pool - Indoor","Kanata Leisure & Wave Pool Cntr","70 Aird Place","45.31142047946217","-75.89929422324064","https://ottawa.ca/en/recreation-and-parks/recreation-facilities/facility-listing/kanata-leisure-centre-and-wave-pool"
"Ottawa Windsor Field House","Field House","Ottawa Windsor Field House","1 Windsor Ave","45.39399021421123","-75.67705399627138",""
"Owl Field House - 215 Owl Drive","Field House","Owl Field House - 215 Owl Drive","215 Owl Dr","45.35416324457768","-75.66469901880787",""
"Palmerston Fieldhouse Storage","Field House","Palmerston Fieldhouse Storage","1326 Ogilvie Rd","45.429097236046346","-75.623044699632",""
"Lions Park: Ott Gymnastics Clb","Athletic Facility","Lions Park: Ott Gymnastics Club:Bldng","294 Elmgrove Ave","45.39385701600873","-75.75215900205629",""
"Fisher Park Community Centre","Community Center","Fisher Park Community Centre","250 Holland Ave","45.39517792772425","-75.73108306123692","https://ottawa.ca/en/recreation-and-parks/recreation-facilities/facility-listing/fisher-park-community-centre"
"CardelRec Recreation Complex (Goulbourn) Matt Bradley Arena #2","Arena","CardelRec Recreation Complex (Goulbourn)","1500 Shea Rd","45.262768660350716","-75.90741795245964","https://ottawa.ca/en/recreation-and-parks/recreation-facilities/facility-listing/cardelrec-recreation-complex-goulbourn"
"Indoor Pool","Pool - Indoor","Bob MacQuarrie Recreation Complex - Orléans","1490 Youville Dr","45.46621117599234","-75.54417047430604","https://ottawa.ca/en/recreation-and-parks/recreation-facilities/facility-listing/bob-macquarrie-recreation-complex-orleans"
"Arena North","Arena","Minto Recreation Complex","3500 Cambrian Rd","45.25333366333205","-75.73449214977386","https://ottawa.ca/en/recreation-and-parks/recreation-facilities/facility-listing/minto-recreation-complex-barrhaven"
"Kinburn CC","Community Center","Kinburn CC","3045 Kinburn Side Rd","45.39332235911277","-76.18727705510192","https://ottawa.ca/en/residents/rural-residents/rural-recreation#rural-facilities-contact-information"
"TD Place Stadium","Stadium","Lansdowne Park Complex: TD Place","1015 Bank St","45.39820075067461","-75.68346617346438","https://ottawa.ca/en/recreation-and-parks/recreation-facilities/facility-listing/lansdowne-park"
"Wellington Street Seniors Centre","Community Center","Wellington Street Seniors Centre","1137 Wellington St","45.40210621053905","-75.72693599860926",""
"Lowertown Cmplx","Recreation Complex","Lowertown Cmplx","40 Cobourg St","45.434451835409206","-75.68129606562184","https://ottawa.ca/en/recreation-and-parks/recreation-facilities/facility-listing/lowertown-pool"
"Mike O’Neil Arena","Arena","Manotick (Mike O’Neil) Arena","5572 Doctor Leach Dr","45.221902263480246","-75.6866091136405","https://ottawa.ca/en/recreation-and-parks/recreation-facilities/facility-listing/manotick-community-centre"
"Francois Dupuis Community Center","Community Center","François Dupuis Rec Centre","2263 Portobello Blvd","45.4545957171216","-75.46327408647828","https://ottawa.ca/en/recreation-and-parks/recreation-facilities/facility-listing/francois-dupuis-recreation-centre"
"Erica Wiebe Gymnasium","Athletic Facility","CardelRec Recreation Complex (Goulbourn)","1500 Shea Rd","45.26327134240144","-75.90819114140784",""
"J.G. Mlacak Centre","Recreation Complex","John G Mlacak Centre","2500 Campeau Dr","45.32161819982123","-75.89530109951333","https://ottawa.ca/en/recreation-and-parks/recreation-facilities/facility-listing/john-g-mlacak-community-centre"
"Jack Purcell REC Cmplx","Recreation Complex","Jack Purcell Community Centre","320 Jack Purcell Ln","45.41575243458927","-75.68966408000423","https://ottawa.ca/en/recreation-and-parks/recreation-facilities/facility-listing/jack-purcell-community-centre"
"John Rapp Pool","Pool - Indoor","Dovercourt Recreation Centre","411 Dovercourt Ave","45.383502104530706","-75.75264374196675","https://ottawa.ca/en/recreation-and-parks/recreation-facilities/facility-listing/dovercourt-recreation-centre"
"Carlington Park Small Buildings","Field House","Carlington Park Small Buildings","1570 Raven Ave","45.37521056483285","-75.74323180168088","https://ottawa.ca/en/recreation-and-parks/recreation-facilities/facility-listing/ja-dulude-arena"
"Splash Wave Pool","Pool - Indoor","Splash Wave Pool","2040 Ogilvie Rd","45.43752146204818","-75.60055932818301","https://ottawa.ca/en/recreation-and-parks/recreation-facilities/facility-listing/splash-wave-pool"
"Erskine Johnson Arena","Arena","Erskine Johnson Arena & CC","3832 Carp Rd","45.349160123612","-76.03909971362779","https://ottawa.ca/en/recreation-and-parks/recreation-facilities/facility-listing/w-erskine-johnston-arena"
"Constance and Buckham’s Bay Community Centre","Community Center","Constance and Buckham’s Bay Community Centre","262 Len Purcell Dr","45.49904106144386","-76.09339201641262","https://ottawa.ca/en/residents/rural-residents/rural-recreation#rural-facilities-contact-information"
"Jack Charron Arena","Arena","Jack Charron Arena","10 McKitrick Dr","45.293430591991054","-75.88373558667433","https://ottawa.ca/en/recreation-and-parks/recreation-facilities/facility-listing/jack-charron-arena"
"Bernard-Grandmaitre Arena","Arena","Bernard-Grandmaitre Arena","309 McArthur Ave","45.43285984604453","-75.65549501874735","https://ottawa.ca/en/recreation-and-parks/recreation-facilities/facility-listing/bernard-grandmaitre-arena"
"Richcraft Rec Complex - Pool","Pool - Indoor","Richcraft Recreation Complex","4101 Innovation Dr","45.340636189382614","-75.9309066540461","https://ottawa.ca/en/recreation-and-parks/recreation-facilities/facility-listing/richcraft-recreation-complex-kanata"
"Jim Durrell Recreation Complex","Recreation Complex","Jim Durrell Recreation Centre","1265 Walkley Rd","45.37330447051851","-75.6590558992111","https://ottawa.ca/en/recreation-and-parks/recreation-facilities/facility-listing/jim-durrell-recreation-centre"
"Pierre Rocque Community Centre","Community Center","Pierre Rocque Community Centre","1257 Joseph Drouin Ave","45.47420060359921","-75.52600795680266","https://ottawa.ca/en/recreation-and-parks/recreation-facilities#community-buildings"
"Rockcliffe CC","Community Center","Rockcliffe Park Community Centre","380 Springfield Rd","45.45083676905928","-75.67868435856201","https://ottawa.ca/en/recreation-and-parks/recreation-facilities/facility-listing/rockcliffe-park-community-centre"
"Cumberland Millennium Sports Park Fieldhouse","Field House","Cumberland Millennium Sports Park Fieldhouse","245 Millennium Blvd","45.46675089361037","-75.44800164058508",""
"Belltown Dome: Arena","Arena","Belltown Dome: Arena","2915 Haughton Ave","45.36010010964129","-75.80400751806073","https://ottawa.ca/en/recreation-and-parks/recreation-facilities/facility-listing/belltown-dome"
"St. Laurent Cmplx","Recreation Complex","St. Laurent Complex/Don Gamble Community Centre","525 Côté St","45.436301372751885","-75.64781757795141","https://ottawa.ca/en/recreation-and-parks/recreation-facilities/facility-listing/st-laurent-complex"
"McNabb Arena","Arena","McNabb Arena","180 Percy","45.40907297518962","-75.7019207548262","https://ottawa.ca/en/recreation-and-parks/recreation-facilities/facility-listing/mcnabb-community-centre"
"Carlsbad Springs Community Centre","Community Center","Carlsbad Springs Community Centre","6020 Piperville Rd","45.365464728471125","-75.46409169442234","https://ottawa.ca/en/residents/rural-residents/rural-recreation#rural-facilities-contact-information"
"Metcalfe Larry Robinson Arena","Arena","Metcalfe CC & Larry Robinson Arena","2785 8th Line Rd","45.229907218975974","-75.46839252437212","https://ottawa.ca/en/recreation-and-parks/recreation-facilities/facility-listing/larry-robinson-arena"
"Deborah Anne Kirwan Pool","Pool - Indoor","Deborah Anne Kirwan Pool","1300 Kitchener Ave","45.36736978942179","-75.65760964484133","https://ottawa.ca/en/recreation-and-parks/recreation-facilities/facility-listing/deborah-anne-kirwan-pool"
"Roger Sénécal Arena","Arena","Bob MacQuarrie Recreation Complex - Orléans","1490 Youville Dr","45.46649721604909","-75.5447897719646","https://ottawa.ca/en/recreation-and-parks/recreation-facilities/facility-listing/bob-macquarrie-recreation-complex-orleans"
"Richmond Lions Park Canteen Building & Picnic Shelter","Field House","Richmond Lions Park Canteen Building & Picnic Shelter","3302 Huntley Rd","45.19816643680697","-75.84307761233626",""
"Nepean Sportsplex: Minto Field Kiosk","Field House","Nepean Sportsplex: Minto Field Kiosk","1701 Woodroffe Ave","45.3270034175782","-75.74266496473659","https://ottawa.ca/en/recreation-and-parks/recreation-facilities/facility-listing/nepean-sportsplex"
"Heron Rd Multi-Service Cntr.","Community Center","Heron Rd Multi-Service Cntr.","1480 Heron Rd","45.37899872763739","-75.65398913780228","https://ottawa.ca/en/recreation-and-parks/recreation-facilities/facility-listing/heron-road-community-centre"
"Dulude Arena","Arena","J. Alph. Dulude Arena","941 Clyde Ave","45.37440223799622","-75.7466378691835","https://ottawa.ca/en/recreation-and-parks/recreation-facilities/facility-listing/ja-dulude-arena"
"Ron Kolbus Lakeside Centre","Community Center","Ron Kolbus Lakeside Centre","102 Greenview Ave","45.363739638105706","-75.80133900513559","https://ottawa.ca/en/recreation-and-parks/recreation-facilities/facility-listing/ron-kolbus-lakeside-centre"
"Glen Cairn Community Centre","Community Center","Glen Cairn Community Centre","186 Morrena Rd","45.2960744792528","-75.88514798893094","https://ottawa.ca/en/recreation-and-parks/recreation-facilities/facility-listing/glen-cairn-community-centre"
"Surgenor Barrhaven GMC Arena Rink B","Arena","Walter Baker Sports Centre","100 Malvern Dr","45.28012265714702","-75.7618229754749","https://ottawa.ca/en/recreation-and-parks/recreation-facilities/facility-listing/walter-baker-sports-centre"
"Dovercourt Recreation Centre","Recreation Complex","Dovercourt Recreation Centre","411 Dovercourt Ave","45.38343021403706","-75.75290152521563","https://ottawa.ca/en/recreation-and-parks/recreation-facilities/facility-listing/dovercourt-recreation-centre"
"Osgoode Community Centre","Community Center","Osgoode Recreation Complex","5630 Osgoode Main St","45.14726783214002","-75.60164948588258","https://ottawa.ca/en/residents/rural-residents/rural-recreation#rural-facilities-contact-information"
"Lowertown CC","Community Center","Lowertown Cmplx","40 Cobourg St","45.434568009977674","-75.68106933353906","https://ottawa.ca/en/recreation-and-parks/recreation-facilities/facility-listing/lowertown-pool"
"Miracle League Field House and Canteen","Field House","Miracle League Field House and Canteen","3659 Navan Rd","45.42742347025454","-75.4919950191489",""
"Carleton Heights CC","Community Center","Carleton Heights CC","1665 Apeldoorn Ave","45.35952058293434","-75.70289258374159","https://ottawa.ca/en/recreation-and-parks/recreation-facilities/facility-listing/carleton-heights-community-centre"
"Earl Armstrong Arena","Arena","Earl Armstrong Arena","2020 Ogilvie Rd","45.43745916718622","-75.60131848903973","https://ottawa.ca/en/recreation-and-parks/recreation-facilities/facility-listing/earl-armstrong-arena"
"CardelRec Recreation Complex (Goulbourn)","Recreation Complex","CardelRec Recreation Complex (Goulbourn)","1500 Shea Rd","45.263421991620085","-75.90793646543152","https://ottawa.ca/en/recreation-and-parks/recreation-facilities/facility-listing/cardelrec-recreation-complex-goulbourn"
"Lowertown CC","Community Center","Lowertown Cmplx","40 Cobourg St","45.434674042323344","-75.68136506072722","https://ottawa.ca/en/recreation-and-parks/recreation-facilities/facility-listing/lowertown-pool"
"South Fallingbrook Community Centre","Community Center","South Fallingbrook Community Centre","998 Valin St","45.470957900346484","-75.46148727539442","https://ottawa.ca/en/recreation-and-parks/recreation-facilities/facility-listing/south-fallingbrook-community-centre"
"St Lukes Community Centre: Bethell Fieldhouse","Community Center","St Lukes Community Centre: Bethell Fieldhouse","166 Frank St","45.41528221432819","-75.68657399310617","https://ottawa.ca/en/recreation-and-parks/recreation-facilities#community-buildings"
"R.J. Kennedy Arena","Arena","R.J. Kennedy Memorial Centre","1115 Dunning Rd","45.5146526627649","-75.40364136041484","https://ottawa.ca/en/recreation-and-parks/recreation-facilities/facility-listing/rj-kennedy-arena"
"Linden Lea Community Centre","Community Center","Linden Lea Community Centre","15 Rockcliffe Way","45.44453521769292","-75.67492205784525","https://ottawa.ca/en/recreation-and-parks/recreation-facilities/facility-listing/lindenlea-community-centre"
"Ottawa Stadium","Stadium","Ottawa Stadium","300 Coventry Rd","45.419863206274684","-75.65400969395093","https://ottawa.ca/en/recreation-and-parks/recreation-facilities/facility-listing/ottawa-stadium-rcgt-park"
"Howard Darwin Centennial Arena","Arena","Howard Darwin Centennial Arena","1765 Merivale Rd","45.34207108002627","-75.72626950975388","https://ottawa.ca/en/recreation-and-parks/recreation-facilities/facility-listing/howard-darwin-centennial-arena"
"Lois Kemp Arena","Arena","Lois Kemp Arena","200 Glen Park Dr","45.43037990740524","-75.56310757943452","https://ottawa.ca/en/recreation-and-parks/recreation-facilities/facility-listing/lois-kemp-arena-blackburn"
"Richmond Arena","Arena","Richmond Arena & CC","6095 Perth St","45.19584127670037","-75.83794169682027","https://ottawa.ca/en/recreation-and-parks/recreation-facilities/facility-listing/richmond-arena"
"Lowertown Cmplx Indoor Pool","Pool - Indoor","Lowertown Cmplx","40 Cobourg St","45.43417544770096","-75.68143966221831","https://ottawa.ca/en/recreation-and-parks/recreation-facilities/facility-listing/lowertown-pool"
"Manor Park Community Centre","Community Center","Manor Park Community Centre","100 Braemar St","45.45098879076768","-75.65707090989407","https://ottawa.ca/en/recreation-and-parks/recreation-facilities/facility-listing/manor-park-community-centre"
"McNabb Community Centre","Community Center","McNabb Community Centre","180 Percy","45.40921992168435","-75.7023746924039","https://ottawa.ca/en/recreation-and-parks/recreation-facilities/facility-listing/mcnabb-community-centre"
"Michele Heights CC","Community Center","Michele Heights CC","2955 Michele Dr","45.3545952740214","-75.80196919666359","https://ottawa.ca/en/recreation-and-parks/recreation-facilities/facility-listing/michele-heights-community-centre"