OBJECTID,BOARD,CATEGORY,NAME,NUM,STREET,PHONE,FULL_BOARD,CATEGORY_FR,BOARD_FR,NAME_FR,FULL_BOARD_FR,GlobalID,LONGITUDE,LATITUDE
4801,OCSB,Elementary/Secondary,St. Peter High School,750,boul. Charlemagne Blvd,613-837-9377,Ottawa Catholic School Board,Élémentaire/Secondaire,OCSB,École secondaire St. Peter,Ottawa Catholic School Board,{DF5542B8-439D-4E71-B1E3-DA63BEC2D36F},-75.47696382929996,45.47515567411176
4802,OCSB,Elementary,St. Andrew School,201,prom. Crestway Dr,613-843-0050,Ottawa Catholic School Board,Élémentaire,OCSB,École St. Andrew,Ottawa Catholic School Board,{625E7531-78D3-4D13-B8AC-95630367061F},-75.7090038073481,45.284770197188166
4803,OCSB,Elementary/Secondary,Holy Trinity Catholic High School,180,ch. Katimavik Rd,613-591-9955,Ottawa Catholic School Board,Élémentaire/Secondaire,OCSB,École secondaire catholique Holy Trinity,Ottawa Catholic School Board,{01D02F61-3450-4155-8CE4-98F819B2B17D},-75.90165941192525,45.30807427025535
4804,OCSB,Elementary,St. Thomas More School,1620,prom. Blohm Dr,613-739-7131,Ottawa Catholic School Board,Élémentaire,OCSB,École St. Thomas More,Ottawa Catholic School Board,{E052CC8D-6F6E-4A31-B32F-82D93096DC61},-75.60619510944224,45.374728614365544
4805,OCSB,Elementary,Assumption School,236,rue Lévis St,613-746-4822,Ottawa Catholic School Board,Élémentaire,OCSB,École Assumption,Ottawa Catholic School Board,{FF6D3BD4-7CA2-4DA4-BE02-FAE593BCB002},-75.66004221166382,45.43506256491582
4806,OCSB,Elementary,St. Kateri Tekakwitha School,6400,prom. Beausejour Dr,613-830-2454,Ottawa Catholic School Board,Élémentaire,OCSB,École St. Kateri Tekakwitha,Ottawa Catholic School Board,{FDA11B79-D80A-4C13-86CF-FB6EA97EE627},-75.5234928662466,45.4585245604862
4807,OCSB,Elementary,St. Emily School,500,prom. Chapman Mills Dr,613-825-4300,Ottawa Catholic School Board,Élémentaire,OCSB,École St.Emily,Ottawa Catholic School Board,{B97F0F69-D34B-49EB-8854-457B3060B737},-75.72465522910348,45.271498955800446
4808,OCSB,Elementary,St. George School,130,av. Keyworth Ave,613-728-8291,Ottawa Catholic School Board,Élémentaire,OCSB,Écoel St. George,Ottawa Catholic School Board,{D845D907-EA75-4C77-8D6E-4134E0ACC464},-75.74785927433933,45.404609487266086
4809,OCSB,Elementary,St. Leonard School,5344,ch. Long Island Rd,613-692-3521,Ottawa Catholic School Board,Élémentaire,OCSB,École St. Leonard,Ottawa Catholic School Board,{DD28EC3D-1BEF-4EC4-93F9-60ABBE91BC6A},-75.69158049732235,45.237245179062484
4810,OCSB,Elementary,St. Philip School,79,rue Maitland St. S,613-838-2466,Ottawa Catholic School Board,Élémentaire,OCSB,École St. Philip,Ottawa Catholic School Board,{C1E36174-042F-4E2B-80DB-FDE62D642FC8},-75.8358708887492,45.18524249753278
4811,OCSB,Elementary,St. Stephen School,1145,rue Stittsville Main St,613-831-8844,Ottawa Catholic School Board,Élémentaire,OCSB,École St. Stephen,Ottawa Catholic School Board,{8C5AA105-EA68-491F-936A-5B835CB83403},-75.93129014573921,45.274682292864675
4812,OCSB,Elementary,St. Rita School,1,av. Inverness Ave,613-224-6341,Ottawa Catholic School Board,Élémentaire,OCSB,École St. Rita,Ottawa Catholic School Board,{C2FB8194-7925-41E9-8B61-34363B0675DB},-75.7112775780795,45.359930402405666
4813,OCSB,Elementary,St. Augustine School,1009,rue Arnot St,613-225-8020,Ottawa Catholic School Board,Élémentaire,OCSB,École St. Augustine,Ottawa Catholic School Board,{CEB745DD-F188-4B29-B2CC-3AE7508CF119},-75.71178714742442,45.368294274619885
4814,OCSB,Elementary/Secondary,St. Mark High School,1040,ch. Dozois Rd,613-692-2551,Ottawa Catholic School Board,Élémentaire/Secondaire,OCSB,École secondaire St. Mark ,Ottawa Catholic School Board,{6A3F6F93-0B23-418D-8590-6F4900082A59},-75.64857939602473,45.24401221636838
4815,OCSB,Elementary,St. Isidore School,1105,ch. March Rd,613-592-1798,Ottawa Catholic School Board,Élémentaire,OCSB,École St. Isidore,Ottawa Catholic School Board,{F697A97B-5EE9-4268-BF6D-F8953832A0CE},-75.94915305533239,45.36709827507132
4816,OCSB,Elementary,Blessed Carlo Virtual School,570,ch. West Hunt Club Road,613-695-0562,Ottawa Catholic School Board,Élémentaire,OCSB,École virtuelle Blessed Carlo,Ottawa Catholic School Board,{20A3ED4A-9E90-42DE-8D8E-2881468B5C8A},-75.72740329772847,45.33271351894881
4817,OCSB,Secondary,St. Josephine Virtual High School,570,ch. West Hunt Club Road,613-695-3127,Ottawa Catholic School Board,Secondaire,OCSB,École secondaire virtuelle St. Josephine,Ottawa Catholic School Board,{B87CD216-6D4E-486A-87F2-9B10CA4F3EAF},-75.72748762348253,45.33273022037334
4818,OCSB,Elementary,St. Elizabeth Ann Seton School,41,prom. Weybridge Dr,613-825-3596,Ottawa Catholic School Board,Élémentaire,OCSB,École St. Elizabeth Ann Seton,Ottawa Catholic School Board,{F7C0342B-8929-4A7A-BD8B-A192232750F2},-75.769471989982,45.27111617367244
4819,OCSB,Elementary,St. Marguerite d'Youville School,89,prom. Lorry Greenberg Dr,613-737-1141,Ottawa Catholic School Board,Élémentaire,OCSB,École St. Margureite d'Youville,Ottawa Catholic School Board,{00FF81B4-C0E1-4E5B-B5EE-46856CB99CF5},-75.62541191222094,45.367628281914236
4820,OCSB,Elementary,St. Gregory School,148,rue Meadowlands Dr W,613-224-3011,Ottawa Catholic School Board,Élémentaire,OCSB,École St. Gregory,Ottawa Catholic School Board,{AB51E13F-7907-4B68-BCBD-244FB713E69F},-75.75105305017739,45.343687230587975
4821,OCSB,Elementary,St. Anne School,500,prom. Stonehaven Dr,613-271-0308,Ottawa Catholic School Board,Élémentaire,OCSB,École St. Anne,Ottawa Catholic School Board,{70044D9B-CA80-41B3-A1CE-C646F2007B73},-75.84411139805681,45.28215060998762
4822,OCSB,Secondary,All Saints High School,5115,av. Kanata Ave,613-271-4254,Ottawa Catholic School Board,Secondaire,OCSB,École secondaire All Saints,Ottawa Catholic School Board,{053210E3-02B9-4C81-978B-23865AA5ED3D},-75.92494938910289,45.32178782739146
4823,OCSB,Secondary,St. Joseph High School,3333,ch. Greenbank Road,613-823-4797,Ottawa Catholic School Board,Secondaire,OCSB,École secondaire St. Joseph,Ottawa Catholic School Board,{AA0DD0A0-54B7-4AA9-81CA-0A33ED1807B5},-75.74091597542113,45.26262918000597
4824,OCSB,Secondary,Immaculata High School,140,rue Main St,613-237-2001,Ottawa Catholic School Board,Secondaire,OCSB,École secondaire Immaculata,Ottawa Catholic School Board,{B7BB0143-C382-4F20-BE42-349BCDAD0112},-75.6805832892748,45.41033925399169
4825,OCSB,Elementary,Chapel Hill Catholic School,1534,prom. Forest Valley Dr,613-837-3773,Ottawa Catholic School Board,Élémentaire,OCSB,École catholique Chapel Hill,Ottawa Catholic School Board,{3A0B46A3-F6A9-4EF5-884A-4C58253AB5AB},-75.54046878651477,45.451926866171284
4826,OCSB,Elementary,Convent Glen Catholic School,6212,boul. Jeanne D'arc Blvd,613-824-8541,Ottawa Catholic School Board,Élémentaire,OCSB,École catholique Convent Glen,Ottawa Catholic School Board,{4C73B76A-981C-4540-936C-72C4C8F9986F},-75.54752514469968,45.473293943887626
4827,OCSB,Elementary,Corpus Christi School,798,rue Lyon St South,613-232-9743,Ottawa Catholic School Board,Élémentaire,OCSB,École Corpus Christi,Ottawa Catholic School Board,{55B2095F-891B-48AE-877F-442D990E77AA},-75.69092992930875,45.401470585597586
4828,OCSB,Elementary,St. Francis of Assisi School,795,ch. Watters Rd,613-830-3215,Ottawa Catholic School Board,Élémentaire,OCSB,École St. Francis-of-Assisi,Ottawa Catholic School Board,{5885668E-7F55-471A-831D-69470AEC129A},-75.47973872790755,45.478913247289306
4829,OCSB,Elementary,St. Gabriel School,400,prom. Keyrock Dr,613-271-6181,Ottawa Catholic School Board,Élémentaire,OCSB,École St.Gabriel,Ottawa Catholic School Board,{22906226-5F0B-4597-BCF2-53E97620D1A6},-75.93051253797813,45.324661528863544
4830,OCSB,Elementary,St. Gemma School,1760,av. McMaster Ave,613-731-8841,Ottawa Catholic School Board,Élémentaire,OCSB,École St. Gemma,Ottawa Catholic School Board,{C299EBE2-B592-439E-AE25-C3DC50EE94E9},-75.64669684878608,45.38673925180015
4831,OCSB,Elementary,St. Isabel School,785,ch. Goulbourn Forced Road,613-271-9542,Ottawa Catholic School Board,Élémentaire,OCSB,École St. Isabel,Ottawa Catholic School Board,{5E3540B5-3F29-43F8-A355-646F53BBC278},-75.94108213357738,45.33688582338989
4832,OCSB,Elementary,St. James School,50,prom. Stonehaven Dr,613-599-6600,Ottawa Catholic School Board,Élémentaire,OCSB,École St. James,Ottawa Catholic School Board,{A314E7D6-5258-48DA-9DCB-F412DC8CE98F},-75.86087315007977,45.29124726886686
4833,OCSB,Elementary,St. Jerome School,4330,ch. Spratt Rd,613-822-1116,Ottawa Catholic School Board,Élémentaire,OCSB,École St. Jerome,Ottawa Catholic School Board,{7447A1DF-7C03-4D03-A879-7D8B552C08A1},-75.68968371358308,45.27672586853806
4834,OCSB,Elementary,St. John XXIII School,165,ch. Knoxdale Rd,613-226-6223,Ottawa Catholic School Board,Élémentaire,OCSB,École St. John-XXIII,Ottawa Catholic School Board,{C7CA0836-0830-4746-B906-D876FAC1FAE6},-75.76864583726295,45.32787042409866
4835,OCSB,Elementary,St. John the Apostle School,30,av. Costello Ave,613-828-0644,Ottawa Catholic School Board,Élémentaire,OCSB,École St. John the Apostle,Ottawa Catholic School Board,{8DC4A4CE-A5FE-4A9A-9141-D58CB0382B68},-75.7935622492968,45.33390290167492
4836,OCSB,Elementary,Divine Infant School,8100,boul. Jeanne D'arc Blvd,613-824-1060,Ottawa Catholic School Board,Élémentaire,OCSB,École Divine Infant,Ottawa Catholic School Board,{49F2BC54-B453-40DF-B463-67D9C4F886E9},-75.51359049522293,45.486680267485255
4837,OCSB,Intermediate,Frank Ryan Catholic Intermediate School,128,prom. Chesterton Dr,613-224-8833,Ottawa Catholic School Board,Intermédiaire,OCSB,École catholique de l’intermédiaire Frank Ryan,Ottawa Catholic School Board,{F42BA535-3E91-46B9-9C7D-38F1438C7459},-75.72226418959994,45.35172582044085
4838,OCSB,Elementary,Georges Vanier Catholic School,40,prom. Varley Dr,613-592-4371,Ottawa Catholic School Board,Élémentaire,OCSB,École catholique Georges Vanier,Ottawa Catholic School Board,{2238004E-CC96-4226-88A2-C34E87B90586},-75.9072713959143,45.3322171944677
4839,OCSB,Elementary,Guardian Angels School,4,prom. Baywood Dr,613-836-7423,Ottawa Catholic School Board,Élémentaire,OCSB,École Guardian Angels,Ottawa Catholic School Board,{1F5CD86C-439C-4547-99B7-BB39C12177B9},-75.90621462500059,45.24889718583784
4840,OCSB,Elementary,Holy Cross School,2820,prom. Springland Dr,613-733-5887,Ottawa Catholic School Board,Élémentaire,OCSB,École Holy Cross,Ottawa Catholic School Board,{623A0D66-3A65-48CA-BA5C-15E4B587B8F5},-75.68501237618929,45.363298889513956
4841,OCSB,Elementary,Holy Family School,245,prom. Owl Dr,613-521-0475,Ottawa Catholic School Board,Élémentaire,OCSB,École Holy Family,Ottawa Catholic School Board,{DD48FB59-3597-4F38-8D5C-9A1D2E9C67D0},-75.66323814525519,45.35353119195994
4842,OCSB,Elementary,Holy Redeemer School,75,prom. McCurdy Dr,613-591-3256,Ottawa Catholic School Board,Élémentaire,OCSB,École Holy Redeemer,Ottawa Catholic School Board,{B2FEA3F4-B275-4F62-A96E-943C5F381EB1},-75.90003041327725,45.302963364932104
4843,OCSB,Elementary,Holy Spirit School,1383,rue Stittsville Main St,613-831-1853,Ottawa Catholic School Board,Élémentaire,OCSB,École Holy Spirit,Ottawa Catholic School Board,{2A273619-E854-451B-9BBB-722C72D6AD46},-75.92592868481492,45.26387185670019
4844,OCSB,Elementary/Secondary,Lester B. Pearson Catholic High School,2072,crois. Jasmine  Cr,613-741-4525,Ottawa Catholic School Board,Élémentaire/Secondaire,OCSB,École secondaire catholique Lester B. Pearson,Ottawa Catholic School Board,{8B7E3BB5-6AAB-4BFD-94FD-CD52B372B592},-75.59593556287172,45.44348211382835
4845,OCSB,Elementary,St. Martin de Porres School,20,prom. Mckitrick Dr,613-836-4754,Ottawa Catholic School Board,Élémentaire,OCSB,École St. Martin de Porres,Ottawa Catholic School Board,{B0A91DF6-B8B5-453B-B6C5-8A51F4A3B1C3},-75.8843775829635,45.29258377137534
4846,OCSB,Elementary,St. Mary School,5536,rue Bank St,613-822-2985,Ottawa Catholic School Board,Élémentaire,OCSB,École St. Mary,Ottawa Catholic School Board,{8260982A-E40F-431F-917F-C1DF6BCD1379},-75.57115209431343,45.279917970949334
4847,OCSB,Elementary/Secondary,St. Matthew High School,6550,prom. Bilberry Dr,613-837-3161,Ottawa Catholic School Board,Élémentaire/Secondaire,OCSB,École secondaire St. Matthew,Ottawa Catholic School Board,{D2C14A80-6480-4C16-AA28-19B7E749D9DE},-75.53254150806865,45.4803468905286
4848,OCSB,Elementary,St. Monica School,2000,ch. Merivale Rd,613-226-5174,Ottawa Catholic School Board,Élémentaire,OCSB,École St. Monica,Ottawa Catholic School Board,{7B301F7E-8836-416E-A6AE-E5C389276C55},-75.71810986858478,45.322622941873085
4849,OCSB,Elementary/Secondary,St. Mother Teresa High School,440,prom. Longfields Dr,613-823-1663,Ottawa Catholic School Board,Élémentaire/Secondaire,OCSB,École secondaire St. Mother Teresa,Ottawa Catholic School Board,{52841279-6DD0-48A8-8971-F5C077E4CCA7},-75.7394172899815,45.28498724749651
4850,OCSB,Secondary,Sacred Heart High School,5870,rue Abbott St,613-831-6643,Ottawa Catholic School Board,Secondaire,OCSB,École secondaire Sacred Heart,Ottawa Catholic School Board,{BC9330BB-8114-4053-A18E-EB54FA238AD9},-75.91011755068685,45.26368197161011
4851,OCSB,Elementary,St. Anthony School,391,rue Booth St,613-235-0340,Ottawa Catholic School Board,Élémentaire,OCSB,École St. Anthony,Ottawa Catholic School Board,{9A0FDBEB-1F7A-4377-97FC-5A9964370A0C},-75.70841204125637,45.40631384593108
4852,OCSB,Elementary,St. Patrick School,68,prom. Larkin Dr,613-825-4012,Ottawa Catholic School Board,Élémentaire,OCSB,École St. Patrick ,Ottawa Catholic School Board,{019F2437-25EC-47CC-8472-B18464406A0E},-75.76083313982963,45.283537020186245
4853,OCSB,Secondary,St. Patrick's High School,2525,prom. Alta Vista Dr,613-733-0501,Ottawa Catholic School Board,Secondaire,OCSB,École secondaire St. Patrick's,Ottawa Catholic School Board,{01A1224E-E40A-4BC4-8C95-8507C8C24264},-75.66005903890571,45.37823990626085
4854,OCSB,Elementary/Secondary,St. Paul High School,2675,av. Draper Av,613-820-9705,Ottawa Catholic School Board,Élémentaire/Secondaire,OCSB,École secondaire St. Paul,Ottawa Catholic School Board,{33C8CBA4-730D-48AC-9F53-5CDFDBE78A02},-75.79266646995671,45.34173335767676
4855,OCSB,Elementary,St. Rose of Lima School,50,prom. Bayshore Dr,613-828-5158,Ottawa Catholic School Board,Élémentaire,OCSB,École St. Rose of Lima,Ottawa Catholic School Board,{D8D3E35E-113D-4F8C-8CCA-CCEEB65CE0FD},-75.80685656361184,45.350685290823726
4856,OCSB,Special Education,M.F. McHugh Education Centre,437,rue Donald St,613-747-6885,Ottawa Catholic School Board,Éducation Spéciale,OCSB,Centre éducatif M.F. McHugh,Ottawa Catholic School Board,{D6593E30-E2D5-4E7C-BF62-37C41D37B2F4},-75.64855361886765,45.42915938127089
4857,OCSB,Elementary,Monsignor Paul Baxter School,333,prom. Beatrice Dr.,613-825-7544,Ottawa Catholic School Board,Élémentaire,OCSB,École Monsignor Paul Baxter,Ottawa Catholic School Board,{4C7D57C0-A857-4924-9AC8-9AC338F0E0F6},-75.72850803778005,45.28087610481096
4858,OCSB,Secondary,Notre Dame High School,710,av. Broadview Ave,613-722-6565,Ottawa Catholic School Board,Secondaire,OCSB,École secondaire Notre-Dame,Ottawa Catholic School Board,{90E26406-1DBD-445D-A904-0D04EE7E5A9E},-75.75623216028553,45.378703830267874
4859,OCSB,Elementary,St. Daniel School,1313,rue Field St,613-225-4603,Ottawa Catholic School Board,Élémentaire,OCSB,École St. Daniel,Ottawa Catholic School Board,{607961AA-9A04-470F-B585-871E4C24A486},-75.76299895462346,45.35448351790038
4860,OCSB,Elementary,St. Elizabeth School,1366,av. Coldrey Ave,613-728-4744,Ottawa Catholic School Board,Élémentaire,OCSB,École St. Elizabeth,Ottawa Catholic School Board,{24EA0FD0-DB66-4F05-B1B3-833507EE8355},-75.7365198935085,45.38195332941933
4861,OCSB,Elementary,St. Cecilia School,3490,ch. Cambrian Rd,613-692-6164,Ottawa Catholic School Board,Élémentaire,OCSB,École St. Cecilia,Ottawa Catholic School Board,{3A065298-71C0-4606-98F7-D73A3C7C71A0},-75.73212777316627,45.25410030716505
4862,OCSB,Elementary,St. John Paul II School,1500,prom. Beaverpond Dr,613-744-3591,Ottawa Catholic School Board,Élémentaire,OCSB,École St. John-Paul II,Ottawa Catholic School Board,{AF2BB8E1-B82E-4361-A0C6-F7065772BE6A},-75.60162529874354,45.422558438642696
4863,OCSB,Elementary,St. Theresa School,2000,boul. Portobello Blvd,613-837-4114,Ottawa Catholic School Board,Élémentaire,OCSB,École St. Theresa,Ottawa Catholic School Board,{B677FA61-D6A9-4F8B-9D7A-1729808B7383},-75.46731948407032,45.463659347950674
4864,OCSB,Elementary,St. Benedict School,2525,ch. River Mist Rd,613-692-1005,Ottawa Catholic School Board,Élémentaire,OCSB,École St. Benedict,Ottawa Catholic School Board,{7BF27695-DA7A-41D6-AE94-9BC5F352792D},-75.73513454581331,45.241649268851816
4865,OCSB,Elementary,St. Bernard School,1722,rue St. Bernard St,613-521-5894,Ottawa Catholic School Board,Élémentaire,OCSB,École St. Bernard,Ottawa Catholic School Board,{FD35651D-FB06-4509-AD7A-1172328110DE},-75.62492063886341,45.351298152195746
4866,OCSB,Elementary,St. Brigid School,200,ch. Springfield Rd,613-746-4888,Ottawa Catholic School Board,Élémentaire,OCSB,École St. Brigid,Ottawa Catholic School Board,{B263D323-8DD8-42F4-9BFD-818903D11C8E},-75.67839463122162,45.445784863843635
4867,OCSB,Elementary,St. Catherine School,2717,ch. 8th Line Rd,613-821-1002,Ottawa Catholic School Board,Élémentaire,OCSB,École St. Catherine,Ottawa Catholic School Board,{8D76099D-ECB0-44F6-92EE-11A83F0A9E91},-75.47039685082395,45.232850693930196
4868,OCSB,Elementary,St. Clare School,2133,prom. Gardenway Dr,613-834-6334,Ottawa Catholic School Board,Élémentaire,OCSB,École St. Clare,Ottawa Catholic School Board,{AE6350F9-7F85-4CE1-A89B-B277A4193C8D},-75.47444611835822,45.46931971655021
4869,OCSB,Elementary,St. Dominic School,2300,prom. Esprit Dr,613-424-3760,Ottawa Catholic School Board,Élémentaire,OCSB,École St. Dominic,Ottawa Catholic School Board,{39921EDE-D39F-4791-891D-1FE600C48870},-75.46988177929794,45.45092224693615
4870,OCSB,Secondary,St. Francis Xavier High School,3740,ch.Spratt Rd,613-822-7900,Ottawa Catholic School Board,Secondaire,OCSB,École secondaire St. Francis-Xavier,Ottawa Catholic School Board,{6873F960-1587-45AE-A06A-6958A8BC2B01},-75.66894927809876,45.290578659479586
4871,OCSB,Elementary,Thomas D'Arcy McGee Catholic School,635,prom. La Verendrye Dr,613-749-2251,Ottawa Catholic School Board,Élémentaire,OCSB,École catholique Thomas D'Arcy McGee,Ottawa Catholic School Board,{583B4373-1DA9-4DFB-ACAC-FBB3F263D3CE},-75.60434690300028,45.45414598584632
4872,OCDSB,Elementary,Farley Mowat Public School,75,prom. Waterbridge Dr,613-825-3006,Ottawa-Carleton District School Board,Élémentaire,OCDSB,École publique Farley Mowat,Ottawa-Carleton District School Board,{83D1FF49-A318-45B1-BAB1-0D7C771E15EE},-75.70861716705991,45.2820017726888
4873,OCDSB,Intermediate,Henry Munro Middle School,2105,av. Kender Ave,613-748-0060,Ottawa-Carleton District School Board,Intermédiaire,OCDSB,École intermédiaire Henry Munro,Ottawa-Carleton District School Board,{BF8FD051-7607-4A9E-9EF6-0FF04F7D2F41},-75.5963235443446,45.45793895592978
4874,OCDSB,Elementary,Featherston Drive Public School,1801,prom. Featherston Dr,613-731-3357,Ottawa-Carleton District School Board,Élémentaire,OCDSB,École publique de la promenade Featherston,Ottawa-Carleton District School Board,{1BDC8B3B-DC16-45FC-9E3E-EC034B30FEC9},-75.64574845152657,45.383710202330974
4875,OCDSB,Elementary,Viscount Alexander Public School,55,av. Mann Ave,613-239-2213,Ottawa-Carleton District School Board,Élémentaire,OCDSB,École publique Viscount Alexander,Ottawa-Carleton District School Board,{544397B0-BEB9-432D-9CF5-BDEC4049CEFA},-75.67503052312762,45.420256684001515
4876,OCDSB,Elementary,Knoxdale Public School,170,ch. Greenbank Rd,613-828-0010,Ottawa-Carleton District School Board,Élémentaire,OCDSB,École publique Knoxdale,Ottawa-Carleton District School Board,{5F68204B-DF05-41EB-B003-56EC903C1FB1},-75.78168899070943,45.32808633747362
4877,OCDSB,Elementary,Chapman Mills Public School,260,man Leamington Way,613-823-3336,Ottawa-Carleton District School Board,Élémentaire,OCDSB,École publique Chapman Mills,Ottawa-Carleton District School Board,{7F5274B2-6F82-4A5C-8168-F2DA12F982ED},-75.73092134831612,45.26863504139052
4878,OCDSB,Elementary,Berrigan Elementary School,199,prom. Berrigan Dr,613-825-0092,Ottawa-Carleton District School Board,Élémentaire,OCDSB,École élémentaire Berrigan,Ottawa-Carleton District School Board,{158277B5-6137-4A16-830B-49A547AF8245},-75.73813522788272,45.28045430836844
4879,OCDSB,Elementary,Castlefrank Elementary School,55,prom. McCurdy Dr,613-592-8071,Ottawa-Carleton District School Board,Élémentaire,OCDSB,École élémentaire Castlefrank,Ottawa-Carleton District School Board,{9823BA4B-9896-4F13-BDB0-E64B7D734857},-75.89784497568436,45.30517975970113
4880,OCDSB,Elementary,Blossom Park Public School,3810,rue Sixth St,613-521-4299,Ottawa-Carleton District School Board,Élémentaire,OCDSB,École publique Blossom Park,Ottawa-Carleton District School Board,{3911C645-B01E-4AD9-9BFA-D1F9E017890F},-75.62357418911834,45.35076182578469
4881,OCDSB,Elementary,Elgin Street Public School,310,rue Elgin St,613-239-2231,Ottawa-Carleton District School Board,Élémentaire,OCDSB,École publique de la rue Elgin,Ottawa-Carleton District School Board,{30E84698-FB08-46D6-BA0D-48A86C94B235},-75.68969693408911,45.41613625785902
4882,OCDSB,Elementary,W.O. Mitchell Elementary School,80,prom. Steeple Chase Dr,613-271-1806,Ottawa-Carleton District School Board,Élémentaire,OCDSB,École élémentaire W.O. Mitchell,Ottawa-Carleton District School Board,{435E89A1-FBFE-4139-9CBA-A3B698691BDA},-75.85709124363196,45.29937759635691
4883,OCDSB,Elementary,Glen Ogilvie Public School,46,prom. Centre Park Dr,613-824-4014,Ottawa-Carleton District School Board,Élémentaire,OCDSB,École publique Glen Ogilvie,Ottawa-Carleton District School Board,{ADFCBDD3-BD36-4B22-B6AC-279BD31318EB},-75.57065952378862,45.43471267312888
4884,OCDSB,Elementary,Richmond Public School,3499,rue McBean St,613-838-2371,Ottawa-Carleton District School Board,Élémentaire,OCDSB,École publique Richmond,Ottawa-Carleton District School Board,{605D06C1-500B-4FB4-8E06-7E86BA420621},-75.83544491662461,45.1920207893207
4885,OCDSB,Elementary,Stephen Leacock Public School,25,prom. Leacock Dr,613-592-2261,Ottawa-Carleton District School Board,Élémentaire,OCDSB,École publique Stephen Leacock,Ottawa-Carleton District School Board,{2372A766-CE3A-4EDA-8678-42AC783D9501},-75.90258783963603,45.32507857603287
4886,OCDSB,Elementary,W. Erskine Johnston Public School,50,prom. Varley Dr,613-592-4492,Ottawa-Carleton District School Board,Élémentaire,OCDSB,École publique W. Erskine Johnston,Ottawa-Carleton District School Board,{5D431307-9609-4EDD-B67A-3AB0A9A43ABF},-75.9091329989321,45.33286727202538
4887,OCDSB,Elementary,Glen Cairn Public School,182,ch. Morrena Rd,613-836-2342,Ottawa-Carleton District School Board,Élémentaire,OCDSB,École publique Glen Cairn,Ottawa-Carleton District School Board,{93012336-440F-4804-B6DB-5BA0D21EF8E6},-75.88418610706069,45.29650118829002
4888,OCDSB,Elementary,Manor Park Public School,100,rue Braemar St,613-746-8131,Ottawa-Carleton District School Board,Élémentaire,OCDSB,École publique Manor Park ,Ottawa-Carleton District School Board,{BF73583C-8C02-40B2-AE23-F92F35D9190B},-75.65587932072084,45.44993704067703
4889,OCDSB,Elementary,Maple Ridge Elementary School,1000,rue Valin St,613-834-1927,Ottawa-Carleton District School Board,Élémentaire,OCDSB,École élémentaire Maple Ridge,Ottawa-Carleton District School Board,{26381143-A1FD-4D33-9A30-FED4A8C7A287},-75.46154245890233,45.47093010829749
4890,OCDSB,Elementary,General Vanier Public School,1025,av. Harkness Ave,613-731-3631,Ottawa-Carleton District School Board,Élémentaire,OCDSB,École publique Général Vanier,Ottawa-Carleton District School Board,{8AF7AC34-DE04-4C0B-8054-6E5C6A536B08},-75.67480957889022,45.36768903564203
4891,OCDSB,Elementary,Jack Donohue Public School,101,rue Penrith St,613-271-9776,Ottawa-Carleton District School Board,Élémentaire,OCDSB,École publique Jack Donohue,Ottawa-Carleton District School Board,{502EE047-23F8-4A2C-AC4B-40328D023E20},-75.94197233078629,45.35375299447341
4892,OCDSB,Secondary,John McCrae Secondary School,103,prom. Malvern Dr,613-823-0367,Ottawa-Carleton District School Board,Secondaire,OCDSB,École secondaire John McCrae,Ottawa-Carleton District School Board,{9BD9FA26-18DD-4C86-BC77-2A17178214DC},-75.762284407697,45.27927172576785
4893,OCDSB,Elementary,South March Public School,1032,ch. Klondike Rd,613-595-0543,Ottawa-Carleton District School Board,Élémentaire,OCDSB,École publique South March,Ottawa-Carleton District School Board,{6BF51E52-039C-4873-B468-660387C7BA34},-75.92759076033,45.3573010719769
4894,OCDSB,Elementary,Westwind Public School,111,prom. Hartsmere Dr,613-831-7840,Ottawa-Carleton District School Board,Élémentaire,OCDSB,École publique Westwind,Ottawa-Carleton District School Board,{092B47C3-EFBB-45F0-A610-66CE5C6E04ED},-75.90698713841569,45.24661117030955
4895,OCDSB,Elementary,Connaught Public School,1149,av. Gladstone Ave,613-728-4671,Ottawa-Carleton District School Board,Élémentaire,OCDSB,École publique Connaught,Ottawa-Carleton District School Board,{559B9C1B-2628-4A5D-A181-DCEC879D189F},-75.7259138191222,45.40041027979558
4896,OCDSB,Elementary,Robert Bateman Public School,1250,prom. Blohm Dr,613-737-3169,Ottawa-Carleton District School Board,Élémentaire,OCDSB,École publique Robert Bateman ,Ottawa-Carleton District School Board,{A4DF10E8-8E76-4EE0-BD8E-D82637F260E3},-75.62034087123813,45.368614038177434
4897,OCDSB,Elementary,Mary Honeywell Elementary School,54,prom. Kennevale Dr,613-825-4834,Ottawa-Carleton District School Board,Élémentaire,OCDSB,École élémentaire Mary Honeywell,Ottawa-Carleton District School Board,{7868E05C-D31F-4682-9A87-2642C7E7CE34},-75.76714209340996,45.26890198034034
4898,OCDSB,Elementary,Osgoode Public School,5590,"rue Osgoode Main St, Box 70",613-826-2550,Ottawa-Carleton District School Board,Élémentaire,OCDSB,École publique Osgoode ,Ottawa-Carleton District School Board,{0A521FCC-FD28-4D70-94A4-62CD8108021C},-75.60508472437742,45.145951325510836
4899,OCDSB,Elementary,Castor Valley Elementary School,2630,ch. Grey’s Creek Rd,613-821-1272,Ottawa-Carleton District School Board,Élémentaire,OCDSB,École élémentaire Castor Valley,Ottawa-Carleton District School Board,{AE7BDBE1-E057-445E-80D6-40D92FF58C92},-75.5177888444668,45.21584018447591
4900,OCDSB,Elementary,Barrhaven Public School,80,prom. Larkin  Dr,613-825-2691,Ottawa-Carleton District School Board,Élémentaire,OCDSB,École publique Barrhaven ,Ottawa-Carleton District School Board,{482B6C7B-0311-4F16-848F-451594E32751},-75.76403355421765,45.281000563772444
4901,OCDSB,Elementary,Jockvale Elementary School,101,prom. Malvern Dr,613-825-1224,Ottawa-Carleton District School Board,Élémentaire,OCDSB,École élémentaire Jockvale,Ottawa-Carleton District School Board,{0C2576E9-6910-472E-9D34-9DC2794C2C25},-75.7601600591367,45.27938571372215
4902,OCDSB,Elementary,Bayshore Public School,145,crois. Woodridge  Cr,613-828-8698,Ottawa-Carleton District School Board,Élémentaire,OCDSB,École publique Bayshore,Ottawa-Carleton District School Board,{8DC7D027-3936-43E4-97ED-A8FEB8E644BF},-75.81044597007745,45.349732558795544
4903,OCDSB,Alternate Program,Norman Johnston Secondary Alternate Program,2401,crois. Cleroux Cr,613-841-7510,Ottawa-Carleton District School Board,Éducation Alternative,OCDSB,Programme secondaire alternatif Norman Johnston,Ottawa-Carleton District School Board,{E8A9ADA0-E74C-4DA3-9695-4CAEA3CA27A4},-75.54905336135597,45.43682507976549
4904,OCDSB,Elementary,Roberta Bondar Public School,159,prom. Lorry Greenberg Dr,613-736-7334,Ottawa-Carleton District School Board,Élémentaire,OCDSB,École publique Roberta Bondar,Ottawa-Carleton District School Board,{91629B09-8C92-4CD1-9F22-BF508E2AC62D},-75.62745289083466,45.366178897644865
4905,OCDSB,Elementary,A. Lorne Cassidy Elementary School,27,rue Hobin St,613-831-3434,Ottawa-Carleton District School Board,Élémentaire,OCDSB,École élémentaire A.-Lorne-Cassidy,Ottawa-Carleton District School Board,{3C701B5D-096F-49DD-B3CD-11F5C507E9BB},-75.93317828678713,45.26258226432462
4906,OCDSB,Elementary,Stonecrest Elementary School,3791,ch. Stonecrest Rd,613-832-5527,Ottawa-Carleton District School Board,Élémentaire,OCDSB,École élémentaire Stonecrest,Ottawa-Carleton District School Board,{E7A26287-ADC9-4D4E-89D0-03BA9B6D814B},-76.11510885847478,45.435918314400105
4907,OCDSB,Elementary,Roch Carrier Elementary School,401,prom. Stonehaven Dr,613-254-8400,Ottawa-Carleton District School Board,Élémentaire,OCDSB,École élémentaire Roch-Carrier,Ottawa-Carleton District School Board,{C019CBD9-B44A-4427-92B8-C225717A49C0},-75.84668757315389,45.28382028759754
4908,OCDSB,Elementary,Avalon Public School,2080,boul. Portobello Blvd,613-834-7313,Ottawa-Carleton District School Board,Élémentaire,OCDSB,École publique Avalon,Ottawa-Carleton District School Board,{498CBBCF-E2C3-4D8B-A6DF-60AC3A865194},-75.46653827226832,45.45821655864218
4909,OCDSB,Secondary,Brookfield High School,824,ch. Brookfield Rd,613-733-0610,Ottawa-Carleton District School Board,Secondaire,OCDSB,École secondaire Brookfield,Ottawa-Carleton District School Board,{571EB81A-AB07-4B4A-8F03-A5B33A10005D},-75.68465222003232,45.372534860462046
4910,OCDSB,Special Education,Crystal Bay Centre for Special Education,31,prom. Moodie Dr,613-828-5376,Ottawa-Carleton District School Board,Éducation Spéciale,OCDSB,Centre d'éducation spéciale Crystal Bay ,Ottawa-Carleton District School Board,{A7F543B9-4E78-447D-BA55-009AC6F60D15},-75.84409538468856,45.349238747152086
4911,OCDSB,Elementary,Cambridge Street Community Public School,250,rue Cambridge St  N,613-239-2216,Ottawa-Carleton District School Board,Élémentaire,OCDSB,École publique communautaire de la rue Cambridge,Ottawa-Carleton District School Board,{913A7929-AF98-453B-817F-DDDE48220A52},-75.70552317069374,45.408230121907394
4912,OCDSB,Intermediate,Sir Winston Churchill Public School,49,av. Mulvagh Ave,613-224-2336,Ottawa-Carleton District School Board,Intermédiaire,OCDSB,École publique Sir Winston Churchill ,Ottawa-Carleton District School Board,{E72A2FCB-F47B-49C0-B519-0EDB937403FB},-75.72837094678285,45.35424134289887
4913,OCDSB,Elementary,Steve MacLean Public School,4175,ch. Spratt Rd,613-822- 0341,Ottawa-Carleton District School Board,Élémentaire,OCDSB,École publique Steve MacLean ,Ottawa-Carleton District School Board,{3F653D09-7673-430A-8EC5-379DD1981570},-75.6854249490431,45.28150601909654
4914,OCDSB,Elementary,Stittsville Public School,40,prom. Granite Ridge Dr,613-836-2818,Ottawa-Carleton District School Board,Élémentaire,OCDSB,École publique Stittsville,Ottawa-Carleton District School Board,{4B11260A-C769-4DF7-BD43-0EBF19DBE7C6},-75.90852066501361,45.271015266885264
4915,OCDSB,Elementary,Trillium Elementary School,1515,boul. Varennes Blvd,613-841-7393,Ottawa-Carleton District School Board,Élémentaire,OCDSB,École élémentaire Trillium,Ottawa-Carleton District School Board,{5818B199-DD2F-4EBC-A098-E1C806251EDF},-75.47264030970273,45.47947768586696
4916,OCDSB,Elementary,Vimy Ridge Public School,4180,prom. Kelly Farm Dr,613-425-4400,Ottawa-Carleton District School Board,Élémentaire,OCDSB,École publique de Vimy Ridge,Ottawa-Carleton District School Board,{85AAC6E9-4CEA-446E-B3AE-B7633C89CA11},-75.60153327712247,45.31680502284282
4917,OCDSB,Secondary,Ridgemont High School,2597,prom. Alta Vista Dr,613-733-4860,Ottawa-Carleton District School Board,Secondaire,OCDSB,École secondaire Ridgemont ,Ottawa-Carleton District School Board,{EB23ADE7-53A0-4138-A62E-86BF32BFED62},-75.65913904907043,45.376132291147684
4918,OCDSB,Elementary,Terry Fox Elementary School,6400,boul. Jeanne D'Arc Blvd,613-837-3251,Ottawa-Carleton District School Board,Élémentaire,OCDSB,École élémentaire Terry-Fox,Ottawa-Carleton District School Board,{50A82D91-8FEE-49CD-8EBE-AE05FCAB4A03},-75.5398122959085,45.477854586663916
4919,OCDSB,Elementary,Vincent Massey Public School,745,ch. Smyth Rd,613-733-5955,Ottawa-Carleton District School Board,Élémentaire,OCDSB,École publique Vincent-Massey,Ottawa-Carleton District School Board,{0312D36C-8835-423B-BA90-8E8DFBBFD303},-75.63665354467076,45.40056635872666
4920,OCDSB,Elementary,W.E. Gowling Public School,250,av. Anna Ave,613-728-3537,Ottawa-Carleton District School Board,Élémentaire,OCDSB,École publique W.E. Gowling,Ottawa-Carleton District School Board,{5D813FD1-BEF7-489E-87B6-3982FEFD2D7D},-75.73186991266228,45.382457099052004
4921,OCDSB,Elementary,York Street Public School,310,rue York St,613-239-2214,Ottawa-Carleton District School Board,Élémentaire,OCDSB,École publique de la rue York,Ottawa-Carleton District School Board,{A88D8A18-64BC-411A-9D00-FDD1F306509B},-75.68294878428492,45.432006254681006
4922,OCDSB,Secondary,Adult High School,300,rue Rochester St,613-239-2707,Ottawa-Carleton District School Board,Secondaire,OCDSB,École secondaire pour adultes,Ottawa-Carleton District School Board,{0FB30C72-7728-4BC2-9E9A-A377A45F540E},-75.71029203188971,45.4047218286674
4923,OCDSB,Secondary,Cairine Wilson Secondary School,975,boul. Orléans Blvd,613-824-4411,Ottawa-Carleton District School Board,Secondaire,OCDSB,École secondaire Cairine-Wilson,Ottawa-Carleton District School Board,{5543C720-BF50-4DB8-9D9F-2A28001945A2},-75.53994064719629,45.482354713672976
4924,OCDSB,Secondary,Canterbury High School,900,av. Canterbury Ave,613-731-1191,Ottawa-Carleton District School Board,Secondaire,OCDSB,École secondaire Canterbury,Ottawa-Carleton District School Board,{94585759-0BB2-4764-B2A8-0590D5466ABE},-75.62601428202628,45.388031685654404
4925,OCDSB,Secondary,Bell High School,40,ch. Cassidy Rd,613-828-9101,Ottawa-Carleton District School Board,Secondaire,OCDSB,École secondaire Bell,Ottawa-Carleton District School Board,{5BB485E5-2470-47A8-877F-886C6CCA16CC},-75.8095120240159,45.32641442696761
4926,OCDSB,Secondary,Colonel By Secondary School,2381,ch. Ogilvie Rd,613-745-9411,Ottawa-Carleton District School Board,Secondaire,OCDSB,École secondaire Colonel By,Ottawa-Carleton District School Board,{0709A7C8-BF90-4F17-B231-13E42DFE7661},-75.6002535129142,45.45506765976251
4927,OCDSB,Elementary,Arch Street Public School,2129,rue Arch St,613-733-0205,Ottawa-Carleton District School Board,Élémentaire,OCDSB,École publique de la rue Arch,Ottawa-Carleton District School Board,{CE9FADEA-A37C-4CB8-BA34-74360FBB2D83},-75.63018305962932,45.39184284555296
4928,OCDSB,Secondary,Ottawa Technical Secondary School,485,rue Donald St,613-745-0347,Ottawa-Carleton District School Board,Secondaire,OCDSB,École secondaire technique d'Ottawa,Ottawa-Carleton District School Board,{BB54C7DF-5713-4629-81E7-AC23624E4636},-75.64634735383491,45.4295419496396
4929,OCDSB,Elementary,Bells Corners Public School,3770,ch. Old Richmond Rd,613-828-3100,Ottawa-Carleton District School Board,Élémentaire,OCDSB,École publique Bells Corners,Ottawa-Carleton District School Board,{23622D75-92AE-4A9E-AA28-D02541BCDA04},-75.82524859797539,45.32471747175961
4930,OCDSB,Elementary,Bayview Public School,185,prom. Owl Dr,613-733-4726,Ottawa-Carleton District School Board,Élémentaire,OCDSB,École publique Bayview,Ottawa-Carleton District School Board,{2A525254-6DD6-4FE9-BF41-24D5691C17B1},-75.66561166491573,45.35527649576761
4931,OCDSB,Elementary,Briargreen Public School,19,crois. Parkfield Cr,613-828-5027,Ottawa-Carleton District School Board,Élémentaire,OCDSB,École publique Briargreen,Ottawa-Carleton District School Board,{817B2AB6-30D0-473A-9D63-58E72165AED0},-75.77751377488076,45.33778904947714
4932,OCDSB,Elementary,Bridlewood Community Elementary School,63,prom. Bluegrass Dr,613-591-3683,Ottawa-Carleton District School Board,Élémentaire,OCDSB,École élémentaire Bridlewood Community,Ottawa-Carleton District School Board,{76748529-1E41-440E-AF0A-F99E73C6692D},-75.86090123680545,45.28514384405088
4933,OCDSB,Secondary,Sir Wilfrid Laurier Secondary School,1515,ch. Tenth Line Rd,613-834-4500,Ottawa-Carleton District School Board,Secondaire,OCDSB,École secondaire Sir Wilfrid Laurier,Ottawa-Carleton District School Board,{F731078F-F76C-4737-BB98-3C04EF8B0ABF},-75.4938820247263,45.47319867542351
4934,OCDSB,Secondary,South Carleton High School,3673,rue McBean St,613-838-2212,Ottawa-Carleton District School Board,Secondaire,OCDSB,École secondaire South Carleton,Ottawa-Carleton District School Board,{EC27001E-BED9-4A0B-BC63-3B82836B6566},-75.82807512276234,45.186577925518236
4935,OCDSB,Secondary,Woodroffe High School,2410,prom. Georgina Dr,613-820-7186,Ottawa-Carleton District School Board,Secondaire,OCDSB,École secondaire Woodroffe,Ottawa-Carleton District School Board,{6012EAAD-5E6F-457F-AB51-A496BDA572AB},-75.78026502174524,45.36238130851639
4936,OCDSB,Elementary,Carleton Heights Public School,1660,prom. Prince Of Wales Dr,613-224-7922,Ottawa-Carleton District School Board,Élémentaire,OCDSB,École publique Carleton Heights,Ottawa-Carleton District School Board,{2AF3BC5C-F64A-47F4-9076-B0680B8B32D4},-75.70104045256015,45.36092844449885
4937,OCDSB,Elementary,Carson Grove Elementary School,1401,ch. Matheson Rd,613-745-0195,Ottawa-Carleton District School Board,Élémentaire,OCDSB,École élémentaire Carson Grove,Ottawa-Carleton District School Board,{9CF3D692-9603-4684-83DC-F925DA80290B},-75.62274324478558,45.43693088977177
4938,OCDSB,Alternate Program,Frederick Banting Secondary Alternate Program,1453,rue Stittsville Main St,613-591-7678,Ottawa-Carleton District School Board,Éducation Alternative,OCDSB,Programme alternatif Frederick Banting (Stittsville),Ottawa-Carleton District School Board,{6971298C-7D76-4CD7-9A03-D47E7C45C260},-75.92241344236086,45.26067448496764
4939,OCDSB,Secondary,Glebe Collegiate Institute,212,av. Glebe Ave,613-239-2424,Ottawa-Carleton District School Board,Secondaire,OCDSB,École secondaire supérieure Glebe,Ottawa-Carleton District School Board,{75C043B2-7422-4EBA-89A0-64E7A4F93CC0},-75.69703212843991,45.40161831253784
4940,OCDSB,Secondary,Gloucester High School,2060,ch. Ogilvie Rd,613-745-7176,Ottawa-Carleton District School Board,Secondaire,OCDSB,École secondaire Gloucester,Ottawa-Carleton District School Board,{82875916-D610-4128-9199-994D574E5865},-75.59886353081045,45.43875176202551
4941,OCDSB,Secondary,Hillcrest High School,1900,ch. Dauphin Rd,613-733-1755,Ottawa-Carleton District School Board,Secondaire,OCDSB,École secondaire Hillcrest,Ottawa-Carleton District School Board,{64556EB9-0696-4EE2-A919-373FE52FF2D0},-75.63913973552583,45.39834452553892
4942,OCDSB,Secondary,Lisgar Collegiate Institute,29,rue Lisgar St,613-239-2696,Ottawa-Carleton District School Board,Secondaire,OCDSB,Institut collégial Lisgar,Ottawa-Carleton District School Board,{F1F87A85-DDD1-4735-BC9D-E39B47928808},-75.68798784254867,45.42089024130263
4943,OCDSB,Secondary,Longfields-Davidson Heights Secondary School,149,prom. Berrigan Dr,613-843-7722,Ottawa-Carleton District School Board,Secondaire,OCDSB,École secondaire Longfields-Davidson Heights ,Ottawa-Carleton District School Board,{F6934587-0745-44A6-A6BA-5514511F8C6E},-75.74039891233012,45.27973175386278
4944,OCDSB,Secondary,Merivale High School,1755,ch. Merivale Rd,613-224-1807,Ottawa-Carleton District School Board,Secondaire,OCDSB,École secondaire Merivale,Ottawa-Carleton District School Board,{689882D3-84C3-446C-BC8F-24F9AA390FA2},-75.7276359865399,45.34351025992419
4945,OCDSB,Secondary,Nepean High School,574,av. Broadview Ave,613-722-6551,Ottawa-Carleton District School Board,Secondaire,OCDSB,École secondaire Nepean,Ottawa-Carleton District School Board,{5C92575E-FD39-40FC-B631-ADFBC5C8C6AD},-75.7591283736773,45.38377965327053
4946,OCDSB,Secondary,Sir Guy Carleton Secondary School,55,prom. Centrepointe Dr,613-723-5136,Ottawa-Carleton District School Board,Secondaire,OCDSB,École secondaire Sir Guy Carleton,Ottawa-Carleton District School Board,{A2FD5939-69DD-4D2F-87C8-DA032BEC6F21},-75.7657848477118,45.346928904547234
4947,OCDSB,Secondary,Osgoode Township High School,2800,ch. 8th Line Rd,613-821-2241,Ottawa-Carleton District School Board,Secondaire,OCDSB,École secondaire du Canton d'Osgoode,Ottawa-Carleton District School Board,{55D7F4AF-FFFB-4042-A528-179869DAA6C4},-75.4700668942302,45.22882594001923
4948,OCDSB,Elementary,Queen Mary Street Public School,557,rue Queen Mary St,613-749-1692,Ottawa-Carleton District School Board,Élémentaire,OCDSB,École publique de la rue Queen Mary,Ottawa-Carleton District School Board,{81EAE72D-9C47-42B7-97DD-BC0381659CD3},-75.64240925910526,45.42628210401959
4949,OCDSB,Elementary,Riverview Alternative,260,crois. Knox Cr,613-733-6898,Ottawa-Carleton District School Board,Élémentaire,OCDSB,École alternative Riverview,Ottawa-Carleton District School Board,{74D1DEAE-3589-4128-8984-CCCC9FE5B03B},-75.65480410290276,45.40575909831549
4950,OCDSB,Elementary,Robert E. Wilson Public School,373,av. McArthur Ave,613-745-9489,Ottawa-Carleton District School Board,Élémentaire,OCDSB,École publique Robert E. Wilson,Ottawa-Carleton District School Board,{82D6B8DA-7157-4180-BD2B-188503BD99DD},-75.65115649818317,45.43270023286756
4951,OCDSB,Elementary,Robert Hopkins Public School,2011,av. Glenfern Ave,613-745-2119,Ottawa-Carleton District School Board,Élémentaire,OCDSB,École publique Robert Hopkins,Ottawa-Carleton District School Board,{FE4C65A9-1FEB-405D-A764-E31B86877DB0},-75.60454371130261,45.45706297152065
4952,OCDSB,Elementary,Rockcliffe Park Public School,350,ch. Buena Vista Rd,613-749-5387,Ottawa-Carleton District School Board,Élémentaire,OCDSB,École publique Rockcliffe Park,Ottawa-Carleton District School Board,{64F6B7C0-1D04-4A37-9661-141F429E57A7},-75.67817989883443,45.45002149521849
4953,OCDSB,Elementary,Roland Michener Public School,100,prom. Penfield Dr,613-592-2126,Ottawa-Carleton District School Board,Élémentaire,OCDSB,École publique Roland-Michener,Ottawa-Carleton District School Board,{FA5E4E94-159D-4F98-ADCE-2CC3B0838F47},-75.89317597391032,45.32839107181262
4954,OCDSB,Elementary,Sawmill Creek Elementary School,3400,av. D’Aoust Ave,613-521-5922,Ottawa-Carleton District School Board,Élémentaire,OCDSB,École élémentaire Sawmill Creek,Ottawa-Carleton District School Board,{73B9094D-1C7F-4ED5-97C0-47A7AB947BAF},-75.63352495597962,45.3495291952164
4955,OCDSB,Elementary,Severn Avenue Public School,2553,av. Severn Ave,613-829-8082,Ottawa-Carleton District School Board,Élémentaire,OCDSB,École publique de l'avenue Severn,Ottawa-Carleton District School Board,{6991A0B0-DCEA-48C9-9351-ED73EFED2AEC},-75.78341960498577,45.35718195408367
4956,OCDSB,Elementary,Agincourt Road Public School,1250,ch. Agincourt Rd,613-225-2750,Ottawa-Carleton District School Board,Élémentaire,OCDSB,École publique Agincourt,Ottawa-Carleton District School Board,{A0EE7B9B-951B-4AFA-9C20-2F4C47A80B64},-75.75210775496595,45.36077845252487
4957,OCDSB,Elementary,Alta Vista Public School,1349,av. Randall  Ave,613-733-7124,Ottawa-Carleton District School Board,Élémentaire,OCDSB,École publique Alta Vista,Ottawa-Carleton District School Board,{F5293A32-C060-4421-84ED-7D9187DCF3FD},-75.66523181229783,45.383855033021504
4958,OCDSB,Special Education,Clifford Bowey Public School,1300,av. Kitchener Ave,613-737-4401,Ottawa-Carleton District School Board,Éducation Spéciale,OCDSB,École publique Clifford Bowey,Ottawa-Carleton District School Board,{C6293D7E-FC58-424D-AFC8-0423B003738C},-75.65687657285709,45.36769305395377
4959,OCDSB,Intermediate,Cedarview Middle School,2760,ch. Cedarview Rd,613-825-2185,Ottawa-Carleton District School Board,Intermédiaire,OCDSB,École intermédiaire Cedarview,Ottawa-Carleton District School Board,{554011A7-E829-4F34-A9BF-706E377D62CF},-75.78021933792147,45.277287591865196
4960,OCDSB,Elementary,Charles H. Hulse Public School,2605,prom. Alta Vista Dr,613-521-8535,Ottawa-Carleton District School Board,Élémentaire,OCDSB,École publique Charles H. Hulse,Ottawa-Carleton District School Board,{AC1CE13A-3228-4617-A2AA-EAE9B8416E93},-75.66007970644546,45.37468147147397
4961,OCDSB,Elementary,Centennial Public School,376,rue Gloucester St,613-239-2277,Ottawa-Carleton District School Board,Élémentaire,OCDSB,École publique Centennial,Ottawa-Carleton District School Board,{81252D78-70F7-4114-9B82-0A0ED9D2AF72},-75.70456028720194,45.414988570054064
4962,OCDSB,Elementary,D. Roy Kennedy Public School,919,av. Woodroffe Ave,613-728-1993,Ottawa-Carleton District School Board,Élémentaire,OCDSB,École publique D. Roy Kennedy ,Ottawa-Carleton District School Board,{5E4A3644-62A4-4EFE-A18E-8453D44A60F0},-75.76964706803761,45.36517557461769
4963,OCDSB,Elementary,Convent Glen Elementary School,1708,prom. Grey Nuns Dr,613-824-8177,Ottawa-Carleton District School Board,Élémentaire,OCDSB,École élémentaire Convent Glen,Ottawa-Carleton District School Board,{7B4FE9B9-F966-4A7C-A58F-6098EC7E6168},-75.53654578887178,45.46986363216339
4964,OCDSB,Elementary,Devonshire Community Public School,100,av. Breezehill Ave,613-729-3169,Ottawa-Carleton District School Board,Élémentaire,OCDSB,École publique communautaire Devonshire,Ottawa-Carleton District School Board,{724526A1-8A6C-4DDA-9D4B-066E4DF4CC7D},-75.71889564832,45.4054699669651
4965,OCDSB,Elementary,Dunlop Public School,1310,ch. Pebble Rd,613-521-4611,Ottawa-Carleton District School Board,Élémentaire,OCDSB,École publique Dunlop,Ottawa-Carleton District School Board,{C2637407-5DC3-4096-B932-854FFA2E6072},-75.64996875559598,45.36094710060373
4966,OCDSB,Elementary,Dunning-Foubert Elementary School,1610,prom. Prestwick Dr,613-824-5800,Ottawa-Carleton District School Board,Élémentaire,OCDSB,École élémentaire Dunning-Foubert,Ottawa-Carleton District School Board,{34911684-B8E0-4E86-9989-FF3D68392D32},-75.4986220697646,45.466949942150364
4967,OCDSB,Intermediate,Emily Carr Middle School,2681,ch. Innes Rd,613-824-5455,Ottawa-Carleton District School Board,Intermédiaire,OCDSB,École intermédiaire Emily Carr,Ottawa-Carleton District School Board,{B51B210B-6DB9-4E8B-ACA9-52B1343D8F6B},-75.56262035029238,45.4344560399776
4968,OCDSB,Elementary,Elmdale Public School,49,rue Iona St,613-728-4653,Ottawa-Carleton District School Board,Élémentaire,OCDSB,École publqiue Elmdale,Ottawa-Carleton District School Board,{14DE8A40-A2DD-4D0A-A50A-3EFF5ED9FEA8},-75.73592453864721,45.39430818540678
4969,OCDSB,Elementary,Fallingbrook Community Elementary School,679,crois. Deancourt Cr,613-830-8817,Ottawa-Carleton District School Board,Élémentaire,OCDSB,"École élémentaire Fallingbrook Community
",Ottawa-Carleton District School Board,{E2BA2141-CDC7-443A-8CB4-8839B0E4C7D6},-75.48647112126167,45.48145304
4970,OCDSB,Elementary,Fielding Drive Public School,777,prom. Fielding Dr,613-731-4928,Ottawa-Carleton District School Board,Élémentaire,OCDSB,École publique de la promenade Fielding,Ottawa-Carleton District School Board,{7895BC09-D84C-483D-95A9-F7AD77355C9A},-75.67789476008853,45.36204212119035
4971,OCDSB,Secondary,Sir Robert Borden High School,131,ch. Greenbank Rd,613-829-5320,Ottawa-Carleton District School Board,Secondaire,OCDSB,École secondaire Sir Robert Borden,Ottawa-Carleton District School Board,{77801410-2821-4CDE-9BA4-AA8D111D7A03},-75.78120411335674,45.33232157683693
4972,OCDSB,Elementary,Half Moon Bay Public School,3525,av. River Run Ave,613-692-5454,Ottawa-Carleton District School Board,Élémentaire,OCDSB,École publique Half Moon Bay,Ottawa-Carleton District School Board,{9FBBB87E-2851-43A0-BCD6-A363ECFC52CC},-75.746267884559,45.25292263739117
4973,OCDSB,Elementary,Summerside Public School,2350,boul. Portobello Blvd,613-424-3208,Ottawa-Carleton District School Board,Élémentaire,OCDSB,École publique Summerside,Ottawa-Carleton District School Board,{14DAE549-58A3-4347-B834-5862C33188F5},-75.46318590695168,45.45065407627647
4974,OCDSB,Elementary,First Avenue Public School,73,av. First Ave,613-239-2261,Ottawa-Carleton District School Board,Élémentaire,OCDSB,École publique de l'avenue First,Ottawa-Carleton District School Board,{44AC5BAE-3BA3-4042-9BCB-5AA61C24D91C},-75.68545458356598,45.40638650513402
4975,OCDSB,Elementary,Forest Valley Elementary School,1570,prom. Forest Valley Dr,613-824-0733,Ottawa-Carleton District School Board,Élémentaire,OCDSB,École élémentaire Forest Valley,Ottawa-Carleton District School Board,{3D26F015-5B02-471D-8C33-B2DE029FDD26},-75.53816666315639,45.44930532630047
4976,OCDSB,Intermediate,Glashan Public School,28,av. Arlington Ave,613-239-2264,Ottawa-Carleton District School Board,Intermédiaire,OCDSB,École publique Glashan,Ottawa-Carleton District School Board,{830BB851-C48D-4B9E-B4F7-B0D5E5E9ABC9},-75.69325371104864,45.409528223845626
4977,OCDSB,Intermediate,Goulbourn Middle School,2176,"prom. Huntley Dr, RR#3",613-836-1312,Ottawa-Carleton District School Board,Intermédiaire,OCDSB,École intermédiaire Goulbourn,Ottawa-Carleton District School Board,{E8F047EB-2CF9-497A-BF25-8C18CE5879D3},-75.9016569873723,45.23018871944898
4978,OCDSB,Elementary,Greely Elementary School,7066,ch. Parkway Rd,613-821-2291,Ottawa-Carleton District School Board,Élémentaire,OCDSB,École élémentaire Greely,Ottawa-Carleton District School Board,{450DFBE6-EE06-46B1-A765-BB4C3E2DCFCA},-75.5636011255297,45.26095531516083
4979,OCDSB,Elementary,Hawthorne Public School,2158,boul. St. Laurent Blvd,613-733-6221,Ottawa-Carleton District School Board,Élémentaire,OCDSB,École publique Hawthorne,Ottawa-Carleton District School Board,{FFBEA985-9FE3-484A-9B03-9F777265D353},-75.6202652232097,45.392297853926124
4980,OCDSB,Elementary,Henry Larsen Elementary School,1750,prom. Sunview Dr,613-830-4634,Ottawa-Carleton District School Board,Élémentaire,OCDSB,École élémentaire Henry Larsen,Ottawa-Carleton District School Board,{06667CDF-1EC7-491A-9CDA-733197572B92},-75.51259358175155,45.460210899547576
4981,OCDSB,Elementary,Heritage Public School,1375,ch. Colonial Rd,613-835-1700,Ottawa-Carleton District School Board,Élémentaire,OCDSB,École publique Heritage,Ottawa-Carleton District School Board,{9ED0D6E7-0612-40C2-8F32-C6CDFC4CA216},-75.41654534685748,45.42150389938928
4982,OCDSB,Elementary,Hilson Avenue Public School,407,av. Hillson Ave,613-728-4607,Ottawa-Carleton District School Board,Élémentaire,OCDSB,École publique de l'avenue Hilson,Ottawa-Carleton District School Board,{5E4CFB90-37AB-41D8-9299-E822C238593C},-75.74447857076876,45.39527898696421
4983,OCDSB,Elementary,Hopewell Avenue Public School,17,av. Hopewell Ave,613-239-2348,Ottawa-Carleton District School Board,Élémentaire,OCDSB,École publique de l'avenue Hopewell,Ottawa-Carleton District School Board,{4D05ECB1-5A60-48F1-B6E9-5A6DC21FBBEF},-75.68374048212122,45.39359303535768
4984,OCDSB,Elementary,Huntley Centennial Public School,118,"prom. Langstaff Dr, Box 100",613-839-2020,Ottawa-Carleton District School Board,Élémentaire,OCDSB,École publique Huntley Centennial,Ottawa-Carleton District School Board,{3F92AAAF-940A-4619-9E15-9D0AE3325FEE},-76.03047741493455,45.346070060279196
4985,OCDSB,Elementary,John Young Elementary School,5,prom. Morton Dr,613-836-5987,Ottawa-Carleton District School Board,Élémentaire,OCDSB,École élémentaire John Young,Ottawa-Carleton District School Board,{DFA4C970-8130-4417-B0F2-C0C8D56BCB9F},-75.88417871751915,45.28975717298553
4986,OCDSB,Elementary,Kanata Highlands Public School,425,prom. Terry Fox Dr,613-591-6098,Ottawa-Carleton District School Board,Élémentaire,OCDSB,École publique Kanata Highlands,Ottawa-Carleton District School Board,{BE0003C8-7207-4A62-BA36-1A362EED7A8A},-75.9382204550184,45.3384623247515
4987,OCDSB,Elementary,Kars on the Rideau Public School,6680,"prom. Dorack Dr, Box10",613-489-2024,Ottawa-Carleton District School Board,Élémentaire,OCDSB,École publique Kars on the Rideau,Ottawa-Carleton District School Board,{585634C0-C05E-42AB-86B2-3368F3CE9A19},-75.65049833671047,45.1524441894993
4988,OCDSB,Elementary,Katimavik Elementary School,64,prom. Chimo Dr,613-592-5462,Ottawa-Carleton District School Board,Élémentaire,OCDSB,École élémentaire Katimavik,Ottawa-Carleton District School Board,{152A3A64-23B5-4C03-B80F-6248C58CF6C5},-75.88962524351096,45.30974514890199
4989,OCDSB,Elementary,Lakeview Public School,35,ch. Corkstown Rd,613-828-8077,Ottawa-Carleton District School Board,Élémentaire,OCDSB,École publique Lakeview,Ottawa-Carleton District School Board,{8D0728D8-C07A-4114-8D5D-658D61A4469C},-75.82367413964151,45.347726448039154
4990,OCDSB,Elementary,Le Phare Elementary School,1965,prom. Naskapi Dr,613-744-2597,Ottawa-Carleton District School Board,Élémentaire,OCDSB,École élémentaire Le Phare,Ottawa-Carleton District School Board,{00EF5479-11D4-478E-AF1D-45CDA9B05B7E},-75.60273015467779,45.449661137188635
4991,OCDSB,Elementary,Manordale Public School,16,rue Carola St,613-226-6393,Ottawa-Carleton District School Board,Élémentaire,OCDSB,École publique Manordale,Ottawa-Carleton District School Board,{E1E5ECEF-5A56-4A98-803F-E1034FDF3C69},-75.7599851760155,45.328667438421604
4992,OCDSB,Elementary,Metcalfe Public School,2701,rue 8th Line Rd,613-821-2261,Ottawa-Carleton District School Board,Élémentaire,OCDSB,École publique Metcalfe,Ottawa-Carleton District School Board,{69F91258-E012-4FF8-BDB1-4E342660FCCA},-75.47084839439142,45.23347658006851
4993,OCDSB,Elementary,Meadowlands Public School,10,rue Fieldrow St,613-224-1733,Ottawa-Carleton District School Board,Élémentaire,OCDSB,École publique Meadowlands,Ottawa-Carleton District School Board,{5524B37B-5449-46A2-A14E-71D6755C1E8B},-75.73676955598721,45.34490422497252
4994,OCDSB,Elementary,Mutchmor Public School,185,av. Fifth Ave,613-239-2267,Ottawa-Carleton District School Board,Élémentaire,OCDSB,École publique Mutchmor,Ottawa-Carleton District School Board,{0A10D387-E880-44EC-A056-0201078A3AA8},-75.69069826996665,45.40090026779442
4995,OCDSB,Elementary,Shingwàkons Public School,480,Prom. Cope Dr,613-828-4736,Ottawa-Carleton District School Board,Élémentaire,OCDSB,École publique Shingwakons,Ottawa-Carleton District School Board,{7169B490-5750-4B20-8A17-D75B594B2748},-75.88018699875695,45.27224414159661
4996,OCDSB,Elementary,Orleans Wood Elementary School,7859,prom. Decarie Dr,613-837-4622,Ottawa-Carleton District School Board,Élémentaire,OCDSB,École élémentaire Orleans Wood,Ottawa-Carleton District School Board,{BB42EA5B-D5F4-4D84-A5C0-8DA4023E4E5B},-75.52839742335613,45.48338193337153
4997,OCDSB,Elementary,Pleasant Park Public School,564,ch. Pleasant Park Rd,613-733-5253,Ottawa-Carleton District School Board,Élémentaire,OCDSB,École publique du Pleasant Park,Ottawa-Carleton District School Board,{404E6960-3DFF-49F4-A3A8-CCAC30BC3D6A},-75.64627625757008,45.39263005434423
4998,OCDSB,Elementary,Queen Elizabeth Public School,689,boul. St. Laurent Blvd,613-746-3246,Ottawa-Carleton District School Board,Élémentaire,OCDSB,École publique Queen Elizabeth,Ottawa-Carleton District School Board,{7A2A31E8-FFB6-4E2D-8128-16287CB5D61F},-75.64438888727665,45.43821974815197
4999,Private,Elementary,March Academy,325,ch. Sandhill Rd,613-592-3398,Private,Élémentaire,Privée,Académie March,Privée,{4A8A876E-73CB-48A2-B208-89EEB7674D93},-75.92708708303503,45.354770027766094
5000,Private,Elementary,Edelweiss Private Academy,31,privé Nadolny Sachs Priv,613-225-9273,Private,Élémentaire,Privée,Académie privée Edelweiss,Privée,{39D49FE1-402C-4C77-A477-AA0C4BEAD9C0},-75.75261529591496,45.37536096026292
5001,Private,Elementary,Ashbury College,362,av. Mariposa Ave,613-749-5954,Private,Élémentaire,Privée,Collège Ashbury,Privée,{034D5404-F700-4F5E-9CA0-6A9E4B2E15EC},-75.67565414168267,45.4478707970082
5002,CÉPEO,Elementary,Le Prélude Public Elementary School,6025,prom. Longleaf Dr,613-834-8411,Conseil des écoles publiques de l'Est de l'Ontario,Élémentaire,CÉPEO,École élémentaire publique Le Prélude,Conseil des écoles publiques de l'Est de l'Ontario,{E95CA283-CB81-4835-BC80-20668780F6CD},-75.53022640764765,45.437578099583426
5003,CÉPEO,Elementary,Michaëlle-Jean Public Elementary School,11,prom. Claridge Dr,613-823-2288,Conseil des écoles publiques de l'Est de l'Ontario,Élémentaire,CÉPEO,École élémentaire publique Michaëlle-Jean,Conseil des écoles publiques de l'Est de l'Ontario,{BECDACC6-71CA-449C-9C8A-4D86C3C612AA},-75.72630273753792,45.28803187749747
5004,CÉPEO,Elementary,Des Sentiers Public Elementary School,2159,rue Nantes St,613-837-9726,Conseil des écoles publiques de l'Est de l'Ontario,Élémentaire,CÉPEO,École élémentaire publique Des Sentiers,Conseil des écoles publiques de l'Est de l'Ontario,{9E57E9A4-66D1-45EB-84FD-C65CFB246E67},-75.4611022951929,45.45931999708634
5005,CÉPEO,Elementary,Gabrielle-Roy Public Elementary School,3395,ave. D'Aoust Ave,613-523-8429,Conseil des écoles publiques de l'Est de l'Ontario,Élémentaire,CÉPEO,École élémentaire publique Gabrielle-Roy,Conseil des écoles publiques de l'Est de l'Ontario,{FB57499A-F963-43C5-BE45-D6D6CFBC1BA4},-75.63453710397991,45.34860172590874
5006,CÉPEO,Elementary,Séraphin-Marion Public Elementary School,2147,av. Loyola Ave,613-748-7636,Conseil des écoles publiques de l'Est de l'Ontario,Élémentaire,CÉPEO,École élémentaire publique Séraphin-Marion,Conseil des écoles publiques de l'Est de l'Ontario,{4D54572C-168D-4E0F-81BD-7895F24F4824},-75.59265623867252,45.45250592962857
5007,CÉPEO,Elementary,Jeanne-Sauvé Public Elementary School,1917,prom. Gardenway Dr,613-824-8160,Conseil des écoles publiques de l'Est de l'Ontario,Élémentaire,CÉPEO,École élémentaire publique Jeanne-Sauvé,Conseil des écoles publiques de l'Est de l'Ontario,{1544C378-BD20-44EE-AF8B-148C386CF28E},-75.485026588064,45.46561087725828
5008,CÉPEO,Secondary,École Secondaire Publique Pierre-de-Blois,1310,prom. Chapman Mills Drive,613-825-4232,Conseil des écoles publiques de l'Est de l'Ontario,Secondaire,CÉPEO,École secondaire publique Pierre-de-Blois,Conseil des écoles publiques de l'Est de l'Ontario,{70608DA2-FD43-4F1C-A361-87D759A1BA8D},-75.75898503759224,45.262329716924974
5009,CÉPEO,Elementary,Michel-Dupuis Public Elementary School,715,av. Brian Good Ave,613-822-2201,Conseil des écoles publiques de l'Est de l'Ontario,Élémentaire,CÉPEO,École élémentaire publique Michel-Dupuis,Conseil des écoles publiques de l'Est de l'Ontario,{62093BC5-4835-48C7-B6FD-B0F9FFCED436},-75.6931089816766,45.26716043120824
5010,CÉPEO,Elementary,Charlotte-Lemieux Public Elementary School,2093,prom. Bel-Air Dr,613-228-2613,Conseil des écoles publiques de l'Est de l'Ontario,Élémentaire,CÉPEO,École élémentaire publique Charlotte-Lemieux,Conseil des écoles publiques de l'Est de l'Ontario,{33426D0C-3F9B-405D-A624-0CBF4B50CAC7},-75.76312868572352,45.362830187410474
5011,CÉPEO,Secondary,Louis-Riel Public High School,1655,ch. Bearbrook Rd,613-590-2233,Conseil des écoles publiques de l'Est de l'Ontario,Secondaire,CÉPEO,École secondaire publique Louis-Riel,Conseil des écoles publiques de l'Est de l'Ontario,{63AA042B-7A16-4489-805B-76F29839D9AA},-75.57152777605344,45.44154744343464
5012,CÉPEO,Secondary,Gisèle-Lalonde Public High School ,500,boul. Millenium Blvd,613-833-0018,Conseil des écoles publiques de l'Est de l'Ontario,Secondaire,CÉPEO,École secondaire publique Gisèle-Lalonde,Conseil des écoles publiques de l'Est de l'Ontario,{77D347AC-5F3E-43B0-AAFE-E69804FB4551},-75.4449475994861,45.46885890282709
5013,CÉPEO,Secondary,Omer-Deslauriers Public High School,159,prom. Chesterton Dr,613-820-0992,Conseil des écoles publiques de l'Est de l'Ontario,Secondaire,CÉPEO,École secondaire publique Omer-Deslauriers,Conseil des écoles publiques de l'Est de l'Ontario,{0BEA3E1F-A7CC-4F77-A4FD-A65F063AD5AD},-75.71658245232742,45.35004278460569
5014,CÉPEO,Elementary,Marie-Curie Public Elementary School,1485,ch. Heron Rd,613-523-4975,Conseil des écoles publiques de l'Est de l'Ontario,Élémentaire,CÉPEO,École élémentaire publique Marie-Curie,Conseil des écoles publiques de l'Est de l'Ontario,{F70C065B-8DBD-4C50-B6B8-813E6943C263},-75.65500502728574,45.38057404033355
5015,Private,Elementary,Abraar School,70,rue Fieldrow St,613-226-1396,Private,Élémentaire,Privée,École élémentaire Abraar,Privée,{F69C5739-0557-4D0A-B4A9-C69965273817},-75.73988675404055,45.34402587319821
5016,Private,Secondary,Abraar Secondary School,1085,ave. Grenon Ave,613-820-0044,Private,Secondaire,Privée,École secondaire Abraar,Privée,{EE3739E1-9644-42A9-BDCC-3FE73B30D66E},-75.79505217975566,45.35176508435814
5017,Private,Elementary,Académie de la Capitale,3448,ch. Richmond Rd,613-721-3872,Private,Élémentaire,Privée,Académie de la Capitale,Privée,{2EABB241-61CF-42A3-B2A8-5F31062C97DD},-75.8101005319181,45.33750650252298
5018,Private,Elementary,Hamilton Montessori School,2199,terr. Regency Terr,613-596-4013,Private,Élémentaire,Privée,École Montessori chrétienne Bishop Hamilton,Privée,{A958201F-C635-4289-B4A4-936F60D7DF92},-75.77230166695729,45.34925480922499
5019,Private,Secondary,Blyth Academy The Glebe,983,rue Bank Street,613-680-3388,Private,Secondaire,Privée,Académie Blyth,Privée,{F8BA6B22-3856-4F5A-AA4F-FBCCF36898D5},-75.68516264816664,45.39844272739477
5020,Private,Elementary,Ahlul-Bayt Islamic School,3025,ch. Albion Rd N,(613) 526-0774,Private,Élémentaire,Privée,Ahlul-Bayt école islamique,Privée,{945EAA82-C957-40CC-A228-0D9B815A2960},-75.65050146464431,45.3704423605022
5021,Private,Elementary,Al-Furqan Islamic School,2825,av. Dumaurier Ave,613-680-7261,Private,Élémentaire,Privée,École Furqan,Privée,{392608A3-6DAB-4A38-A670-2D4CA7E7EBA3},-75.79451893620976,45.351135266273914
5022,Private,Elementary,Ambassadors Christian School,2031,rue Stittsville Main St,613-400-4022,Private,Élémentaire,Privée,École chrétienne ambassadeurs,Privée,{6FE4A4CF-9E9B-45DA-A4DA-1AC5EB2E9A0B},-75.90708181006686,45.23637359387462
5023,Private,Secondary,Bibleway Ministires Christian Learning Centre,500,Bride Private,613 838-4238,Private,Secondaire,Privée,Ministères du Centre d'apprentissage chrétien des ministères de la Bible,Privée,{44527891-C341-4A68-B7FE-DCC3A84BDEA7},-75.80027920510274,45.26961262158559
5024,Private,Elementary/Secondary,Blue Sky School,95 ,cour Denzil Doyle Crt.,613-884-5437,Private,Élémentaire/Secondaire,Privée,École Ciel bleu,Privée,{ABAC5DE4-18F4-4FC6-B8B1-75DA6B8AE052},-75.87145046310565,45.2893395776763
5025,Private,Secondary,Cedar Ridge High School,275,prom. Michael Cowpland Dr.,613-592-9019,Private,Secondaire,Privée,École secondaire Cedar Ridge,Privée,{6F7ACBAE-94B3-49FE-94B4-CA8248FCD78E},-75.87455505150733,45.2848915278649
5026,Private,Special Education,Centre Jules-Léger,281,av. Lanark Ave,613-761-9300,Private,École d'éducation spéciale,Privée,Centre Jules-Léger,Privée,{FB0CF558-F48F-4B62-BB14-12C7D0780B50},-75.75413004502852,45.39883660541685
5027,Private,Elementary,Providence Academy Antonine Sisters,998,rue Frances Street,613-744-8489,Private,Élémentaire,Privée,Académie Providence ,Privée,{38A97C75-0C87-40D0-93A2-5AA81F402A77},-75.64847280552638,45.42731080267203
5028,Private,Elementary/Secondary,St-Laurent Academy ,641,641 av. Sladen Ave,613-842-8047,Private,Élémentaire/Secondaire,Privée,Académie St-Laurent Inc,Privée,{B7C5E999-15AF-4777-BE0F-C8A4F832EC2F},-75.64326434386466,45.440365223519414
5029,Private,Elementary,Westboro Academy,1000 ,ch. Brookfield Rd E,613-737-9543,Private,Élémentaire,Privée,Académie Westboro,Privée,{6823A35D-2D65-440D-8750-A14CF824B264},-75.6746958791247,45.37392414579593
5030,Private,Elementary/Secondary,Elmwood  School,261,ch. Buena Vista Rd,613-744-7783,Private,Élémentaire/Secondaire,Privée,École Elmwood,Privée,{D2A7332B-46AE-46F8-8245-0924CA750B3D},-75.6798873832888,45.45129350409899
5031,Private,Elementary,Fern Hill School,50,rue Vaughan St,613-746-0255,Private,Élémentaire,Privée,École Fenhill,Privée,{B5B359AA-A7A5-43C9-8346-682BDDEEF814},-75.67789557575878,45.44030853268458
5032,Private,Elementary/Secondary,Heritage Academy,207,av. Bayswater Ave,613-722-0133,Private,Élémentaire/Secondaire,Privée,Académie Heritage,Privée,{638C5D88-6E79-4B96-9049-8C8B12606E8B},-75.71582621369032,45.399350191892516
5033,Private,Elementary,Joan of Arc Academy,2221,ch. Elmira Rd,613-728-6364,Private,Élémentaire,Privée,Académie Joan of Arc,Privée,{9B21BD76-3213-4BA7-8CFC-F4D28DA633E4},-75.77760575877261,45.35445637233329
5034,Private,Elementary,Kanata Montessori,355,prom. Micheal Cowpland Dr,613-592-2189,Private,Élémentaire,Privée,École Montessori Kanata,Privée,{09E1AD1B-6634-42AF-BA23-69ED9FCE6DCE},-75.87699402421612,45.28467153946381
5035,Private,Elementary/Secondary,Lycée Claudel,1635,Place Lycée Pl,613-733-8522,Private,Élémentaire/Secondaire,Privée,Lycée Claudel ,Privée,{BAD9FC46-D711-416B-B097-9D8CF7AF12AB},-75.66359446560588,45.40601691076894
5036,Private,Elementary,Community Christian School,2681,"rue Glen St, RR3",613-821-3669,Private,Élémentaire,Privée,Écoel chrétienne communautaire,Privée,{B6C475B3-FA63-4D72-8B75-1FB348A8D67A},-75.47617180268026,45.23206674246661
5037,Private,Preschool,Educara Montessori Child Care,275,prom. Tartan Dr,613-702-1116,Private,Préscolaire,Privée,Garde d’enfants Educara Montessori,Privée,{6C916C99-0714-4FF2-8FCA-B978FCEA6437},-75.76691873989098,45.26102630844641
5038,Private,Elementary,Ottawa Jewish Community School,31,Priv. Nadolny Sachs Priv,613-722-0020,Private,Élémentaire,Privée,École communautaire juive Ottawa,Privée,{C6D68A01-5B58-4699-B6BB-0EE9C5C355C0},-75.75244579010906,45.37510562798352
5039,Private,Education Centre,Soloway Jewish Community Centre,21,privé Nadolny Sachs Priv,613-798-9818,Private,Centre d'éducation,Privée,Centre communautaire juif Soloway,Privée,{C8D72033-5D91-4759-BC09-DB42EEF15DDA},-75.7518783378188,45.37601908961497
5040,Private,Elementary,Glebe Montessori School,650,rue Lyon St,613-237-3824,Private,Élémentaire,Privée,École Montessori du Glebe,Privée,{428D4B63-5FDB-42A8-80D1-F34E9598B70A},-75.69260906383109,45.403626914788056
5041,Private,Elementary,IBN Batouta Private School,6479,ch. Russell Rd,613-730-6396,Private,Élémentaire,Privée,École IBN Batouta,Privée,{95856CEE-CD54-4814-A1FD-26F8DE699906},-75.45704738803526,45.370202470813894
5042,Private,Elementary/Secondary,Kanata Academy,180,prom. Huntmar Drive,613-599-5399,Private,Élémentaire/Secondaire,Privée,Académie de Kanata,Privée,{4CF04560-136F-4427-AB75-40EFC72F0C2B},-75.9240972786654,45.292497669629235
5043,Private,Intermediate,MacDonald-Cartier Academy,270,rue Crichton St,613-744-8898,Private,Intermédiaire,Privée,Académie MacDonald-Cartier ,Privée,{A5D6A3D3-EE34-4216-9BFC-04EA34C69143},-75.68192196679603,45.43976135497745
5044,Private,Preschool,Montessori by BrightPath,5710,rue Longshadow St,613-692-1969,Private,Préscolaire,Privée,Montessori par BrightPath,Privée,{8B3832E9-9AAC-495F-B138-67C46B68FB2E},-75.64606311789586,45.24489245061562
5045,Private,Elementary,Maryvale Academy,2191,av. Benjamin Ave,613-321-2186,Private,Élémentaire,Privée,Académie Maryvale,Privée,{F9E667EC-D3F6-41CA-B492-1EB24816CCFB},-75.7681024229914,45.36355824068484
5046,Private,Elementary,MindWare Academy,985,av. Pinecrest Ave,613-829-2694,Private,Élémentaire,Privée,Académie MindWare,Privée,{3C64968A-E5FF-42A7-81F3-4E15810B92A4},-75.79153101111567,45.35402818625032
5047,Private,Elementary,OMS Montessori,335,rue Lindsay St,613-521-5185,Private,Élémentaire,Privée,Montessori OMS,Privée,{CC177BB4-03E6-46CF-AD36-835C66A10CB0},-75.65262510263722,45.407391403980064
5048,Private,Elementary/Secondary,OSA Private School,1565,ch. Maple Grove Rd,+16135913580,Private,Élémentaire/Secondaire,Privée,École privée OSA,Privée,{3E340CE3-1269-4DAB-989B-FAAF0AF66450},-75.90878523233953,45.297440857925054
5049,Private,Elementary/Secondary,Revel Academy,100-1550,ave. Laperriere Ave,+16137002132,Private,Élémentaire/Secondaire,Privée,Académie Revel,Privée,{A3255534-6BF2-4CB6-968C-97B8F86B7A91},-75.74389993175826,45.37679762842798
5050,Private,Elementary,Orléans Montessori,2820,ch. Navan Rd,+16132162507,Private,Élémentaire,Privée,Montessori Orléans,Privée,{6FB8E223-99E8-4CF2-A3A2-C0B1A753D99C},-75.53045590474484,45.43331416602413
5051,Private,Elementary,Ottawa Adventist School,2191,av. Benjamin Ave,613-722-3770,Private,Élémentaire,Privée,École adventiste d'Ottawa,Privée,{6586326D-58EB-42C6-9954-7BE13A1BD2CB},-75.7681024229914,45.36355824068484
5052,Private,Elementary,Ottawa Christian School,255,prom. Tartan Dr,613-825-3000,Private,Élémentaire,Privée,École chrétienne d'Ottawa,Privée,{90CAF5E8-6BDA-417B-8B9D-39175482145E},-75.7653029680372,45.26145363459244
5053,Private,Elementary,Ottawa Islamic School,10,rue Coral St,613-727-5066,Private,Élémentaire,Privée,École islamique d'Otatwa,Privée,{C419A197-F97C-45F6-AE24-F6C2140C44EE},-75.72202130580835,45.3652264075208
5054,Private,Elementary/Secondary,Ottawa Victory Christian Academy,1080,rue St. Pierre St,343-880-4004,Private,Élémentaire/Secondaire,Privée,Académie chrétienne de victoire d'Ottawa,Privée,{EE9A3D03-0FD4-4615-BC8A-BB9D3FB70275},-75.52372191418615,45.47507457309189
5055,Private,Elementary,Parkdale Montessori School,555B,av. Parkdale Ave,613-216-7275,Private,Élémentaire,Privée,École Montessori de Parkdale,Privée,{AC1C9BC8-0B70-43B8-8C4A-690FE2757AB2},-75.72605342989374,45.396629351212496
5056,Private,Secondary,Redeemer Christian High School,82,rue Colonnade Rd N,613-723-9262,Private,Secondaire,Privée,École secondaire chrétienne Redeemer,Privée,{13188797-BFC4-4C87-A473-3EC39D9563C7},-75.71005237574495,45.3467124026165
5057,Private,Elementary,St. Timothy's Classical Academy,1061,ch. Pinecrest Road,613-794-1750,Private,Élémentaire,Privée,Académie classique de Saint-Timothée,Privée,{CC177BAC-7B97-49AF-80E9-4B0F00BFD0EB},-75.78978717453668,45.35146633990747
5058,Private,Elementary/Secondary,Tarbiyah Learning Academy,3990,ch. Old Richmond Rd,613-421-1700,Private,Élémentaire/Secondaire,Privée,Académie d'apprentissage de Tarbiyah,Privée,{0CA53352-EC23-4995-A6AD-E7CBCAA61005},-75.82843260553302,45.311613122822756
5059,Private,Elementary,Torah Day School of Ottawa,1119,rue Lazard St,613-274-0110,Private,Élémentaire,Privée,Torah jour scolaire d’Ottawa,Privée,{63EC79DA-3530-41BD-8C7C-FFC3A907A395},-75.76356070350995,45.359909866876606
5060,Private,Elementary,Turnbull School,1132,av. Fisher Ave,613-729-9940,Private,Élémentaire,Privée,École Turnbull,Privée,{FA51FC80-A8D0-4AF3-97F6-48A1A3C9EC8B},-75.72150178672335,45.37845000791051
5061,Private,Elementary,VINCI School,149,rue King George Street,613-842-7557,Private,Élémentaire,Privée,École VINCI,Privée,{34A42E6E-E483-495F-95E0-27F7264574B7},-75.65803482644846,45.42574549500756
5062,Private,Elementary,Westboro Jewish Montessori Preschool,192,av. Switzer Ave,613-729-7712,Private,Élémentaire,Privée,Westboro juif Montessori préscolaire,Privée,{0EDCA6A8-C062-452E-B0DA-2708ACDE5156},-75.74176794212818,45.38527418557207
5063,Private,Elementary,Westboro Montessori School Campus 1,307,ch. Richmond Road,613-321-0788,Private,Élémentaire,Privée,École Montessori de Westboro Campus 1,Privée,{376BE96C-DDF7-4F78-95BE-FD0919A32E49},-75.75253903074397,45.39287317906613
5064,Private,Elementary,Westboro Montessori School Campus 2,387,av. Danforth Ave,613-680-0712,Private,Élémentaire,Privée,École Montessori de Westboro Campus 2,Privée,{5C695453-7AD4-4D82-B1C5-EDFCB99C6AD4},-75.75580858037456,45.39060550037076
5065,OCSB,Elementary,Dr. F. J. McDonald Catholic School,2860,av. Ahearn Ave,613-829-3878,Ottawa Catholic School Board,Élémentaire,OCSB,École catholique  Dr. F. J. McDonald,Ottawa Catholic School Board,{F70366A1-37CE-4CDD-B89E-4B9C99E78CE1},-75.80099753483485,45.36012510894653
5066,OCSB,Elementary,Good Shepherd Catholic School,101,ch. Bearbrook Rd,613-824-4531,Ottawa Catholic School Board,Élémentaire,OCSB,École catholique Good Shepherd,Ottawa Catholic School Board,{DD7570A2-8F1A-4F98-9671-36E22B3602F2},-75.56433959099891,45.43309269193663
5067,OCSB,Elementary,Our Lady Of Fatima School,2135,ch. Knightsbridge Rd,613-722-4075,Ottawa Catholic School Board,Élémentaire,OCSB,École Our Lady of Fatima,Ottawa Catholic School Board,{5D95855B-40B8-477C-9694-A6691DAC5802},-75.77338998670378,45.37762477165838
5068,OCSB,Elementary,Our Lady Of Mount Carmel School,675,ch. Gardenvale Rd,613-745-4884,Ottawa Catholic School Board,Élémentaire,OCSB,École Our-Lady-Of-Mount-Carmel,Ottawa Catholic School Board,{30617038-2A4F-41A6-A42F-3526C0834A43},-75.63581946521766,45.43479991588016
5069,OCSB,Elementary,Our Lady Of Peace School,3877,ch. Old Richmond Rd,613-828-4037,Ottawa Catholic School Board,Élémentaire,OCSB,École Our Lady Of Peace,Ottawa Catholic School Board,{1EB38033-DE7A-4983-B3C5-DDE289C82CAB},-75.82695983738765,45.32131708430487
5070,OCSB,Elementary,Our Lady Of Victory School,1175,rue Soderlind St,613-828-5594,Ottawa Catholic School Board,Élémentaire,OCSB,École Our Lady Of Victory,Ottawa Catholic School Board,{E70654B0-176F-4EB7-BB51-3DE5EC21D1B7},-75.77992025193245,45.34989133448129
5071,OCSB,Elementary,Our Lady Of Wisdom School,1565,rue St. George St,613-824-9700,Ottawa Catholic School Board,Élémentaire,OCSB,École Our Lady Of Wisdom,Ottawa Catholic School Board,{7D06262D-00F5-4AF3-A516-F6E4EBDBC7DC},-75.50083503622936,45.46741617185537
5072,OCSB,Elementary,Prince Of Peace School,1620,ch. Heatherington Rd,613-731-4733,Ottawa Catholic School Board,Élémentaire,OCSB,École Prince-Of-Peace,Ottawa Catholic School Board,{CC5B75E9-4FC7-40A3-8FA6-4D72CBD0B951},-75.6454538651988,45.373823433312346
5073,OCSB,Adult Education,Queen of Angels Adult High School,1461,ch. Heron Rd,+16137313237,Ottawa Catholic School Board,Éducation des adultes,OCSB,École secondaire pour adultes Queen of Angels,Ottawa Catholic School Board,{D532B75D-6E93-4516-8F1E-FDA2BB57F972},-75.65507450658306,45.3798055627555
5074,OCSB,Elementary,St. Bernadette School,60,rue Defence St,+16139074122,Ottawa Catholic School Board,Élémentaire,OCSB,École Sainte-Bernadette,Ottawa Catholic School Board,{F864B916-3F3C-4849-A152-30AB44429482},-75.88506525858485,45.270384483817615
5075,OCSB,Elementary,St. Brother André Catholic School,1923,prom. Elmridge Dr,613-741-0100,Ottawa Catholic School Board,Élémentaire,OCSB,École catholique St. Brother André ,Ottawa Catholic School Board,{3E4AE169-DD3C-43F3-878A-95643EB24373},-75.59962814803421,45.443733837752376
5076,OCSB,Elementary,St. Luke School,2485,crois. Dwight Cr,613-731-3541,Ottawa Catholic School Board,Élémentaire,OCSB,École St. Luke,Ottawa Catholic School Board,{44186952-A199-49AD-973C-DF43E6B50328},-75.61505045806965,45.39481747052758
5077,OCSB,Elementary,St. Luke School,60,prom. Mountshannon Dr,613-825-2520,Ottawa Catholic School Board,Élémentaire,OCSB,École St. Luke (Nepean),Ottawa Catholic School Board,{DCF252CB-3C8A-4DE2-9F68-859A0640B4C4},-75.73513721830128,45.29115023898367
5078,OCSB,Elementary,"St. Michael, Corkery School",1572,ch. Corkery Rd,613-256-3672,Ottawa Catholic School Board,Élémentaire,OCSB,École St. Michael Corkery,Ottawa Catholic School Board,{2C150B9E-0F56-403D-B09D-7E9587633844},-76.10078874446204,45.2841343431404
5079,OCSB,Elementary,"St. Michael, Fitzroy School",159,rue Kedey St,613-623-3114,Ottawa Catholic School Board,Élémentaire,OCSB,"École St. Michael, Fitzroy",Ottawa Catholic School Board,{62B5AA17-BAA4-4DCD-B5C2-EEA7EED00817},-76.2161186207354,45.471577549173126
5080,OCSB,Elementary,"St. Michael, Ottawa School",437,rue Donald St,613-749-1642,Ottawa Catholic School Board,Élémentaire,OCSB,École St. Michael,Ottawa Catholic School Board,{677B4891-ABD4-4796-AEE3-13C01CC44C49},-75.64861790230938,45.429159681985645
5081,OCSB,Elementary/Secondary,St. Pius X Catholic Elementary School & High School,1481,av. Fisher Ave,613-225-8105,Ottawa Catholic School Board,Élémentaire/Secondaire,OCSB,École élémentaire et école secondaire catholique St. Pius X,Ottawa Catholic School Board,{19588DE8-154F-4277-9FB4-A32B488FA551},-75.71252371655005,45.36551408172301
5082,OCSB,Elementary,St. Gianna School,836,ave. Solarium Ave,+13432921192,Ottawa Catholic School Board,Élémentaire,OCSB,École Sainte-Gianna,Ottawa Catholic School Board,{69A1AC24-4313-4DB2-95A7-8E3A7A3A0AF6},-75.69183370275653,45.25894644666125
5083,OCSB,Adult Education,St. Joseph's Adult School,330,rue Lajoie St,+16137416808,Ottawa Catholic School Board,Éducation des adultes,OCSB,École pour adultes Saint-Joseph,Ottawa Catholic School Board,{C49B6BED-D96B-451B-A913-D79C03096371},-75.65878866029553,45.434213362114
5084,OCSB,Elementary,St. Juan Diego School,135,voie Main Halyard Ln,+16136916318,Ottawa Catholic School Board,Élémentaire,OCSB,École Saint-Juan Diego,Ottawa Catholic School Board,{14CD646C-4035-4B06-A893-823C0F252B0A},-75.7595275760064,45.249037479711454
5085,OCSB,Education Centre,St. Mary's Home - Immaculata Achievement Centre,780,rue Église St,,Ottawa Catholic School Board,Centre d'éducation,OCSB,Maison Sainte-Marie - Centre de réussite Immaculata,Ottawa Catholic School Board,{3A7E034F-2EC3-41B2-AFEF-44A2564BCFD6},-75.64878246827953,45.43368952937107
5086,OCSB,Secondary,St. Nicholas Adult High School,893,av. Admiral Ave,613-228-8888,Ottawa Catholic School Board,Secondaire,OCSB,École secondaire pour adultes St. Nicholas,Ottawa Catholic School Board,{285AF14B-61AF-4665-8BF9-12D51013C89B},-75.72904257669661,45.384291021957054
5087,OCSB,Adult Education,St. Patrick's Adult School,290,rue Nepean St,+16135945773,Ottawa Catholic School Board,Éducation des adultes,OCSB,École pour adultes St. Patrick,Ottawa Catholic School Board,{D183E9D7-7EC7-4380-B426-3D22676DE280},-75.70097915242347,45.415872727483695
5088,OCSB,Elementary,St. Veronica School,4140,prom. Kelly Farm Dr,+13432925484,Ottawa Catholic School Board,Élémentaire,OCSB,École Sainte-Véronique,Ottawa Catholic School Board,{21762912-7D35-4C25-833B-C6A75F6ED67C},-75.60374326836701,45.31769942571586
5089,CÉPEO,Secondary,Le Carrefour Adult School,2445,boul. St-Laurent Blvd,613-731-7212,Conseil des écoles publiques de l'Est de l'Ontario,Secondaire,CÉPEO,Écoles des adultes Le Carrefour,Conseil des écoles publiques de l'Est de l'Ontario,{877529F1-6E5B-469F-9EC2-C94692240902},-75.62633157596778,45.38121321541438
5090,CÉPEO,Elementary/Secondary,Le Transit School,2455,boul. St. Laurent Blvd,613-747-3838,Conseil des écoles publiques de l'Est de l'Ontario,Élémentaire/Secondaire,CÉPEO,École Le Transit,Conseil des écoles publiques de l'Est de l'Ontario,{9592E572-7166-4F05-91D6-345718E72AAC},-75.62633157596778,45.38121321541438
5091,CÉPEO,Secondary,L'Alternative Public High School,2720,chem. Richmond Rd,613-745-0369,Conseil des écoles publiques de l'Est de l'Ontario,Secondaire,CÉPEO,École secondaire publique L'Alternative,Conseil des écoles publiques de l'Est de l'Ontario,{69AF0041-D87E-49E6-A812-33CD500D42C0},-75.7926742161294,45.3586028914232
5092,CÉPEO,Elementary,Francojeunesse Public Elementary School,119,rue Osgoode St,613-232-0020,Conseil des écoles publiques de l'Est de l'Ontario,Élémentaire,CÉPEO,École élémentaire publique Francojeunesse,Conseil des écoles publiques de l'Est de l'Ontario,{E4F3FB90-7BE4-4143-852D-ABF94CC699F9},-75.6806264533242,45.424755987382305
5093,CÉPEO,Elementary,Grande-Ourse Public Elementary School,1385,terr. Halton Terrasse,+16132701043,Conseil des écoles publiques de l'Est de l'Ontario,Élémentaire,CÉPEO,École élémentaire publique Grande-Ourse,Conseil des écoles publiques de l'Est de l'Ontario,{AE3FE29F-BADD-44C9-A6F7-54DD46471DC2},-75.93632808649875,45.34867254638503
5094,CÉPEO,Elementary,L'Odyssée Public Elementary School,1770,prom. Grey Nuns Dr,613-834-2097,Conseil des écoles publiques de l'Est de l'Ontario,Élémentaire,CÉPEO,École élémentaire publique L'Odyssée,Conseil des écoles publiques de l'Est de l'Ontario,{1C50E4E1-E3F9-4001-83AC-207D934F8988},-75.53545184746824,45.46860435780855
5095,CÉPEO,Elementary,Louise-Arbour Public Elementary School,175,rue Beech Street,613-729-7134,Conseil des écoles publiques de l'Est de l'Ontario,Élémentaire,CÉPEO,École élémentaire publique Louise-Arbour,Conseil des écoles publiques de l'Est de l'Ontario,{FB6D703D-692C-48A1-B889-28550BF40FCD},-75.71520596112262,45.3992215421443
5096,CÉPEO,Elementary,Mamawi Public Elementary School,20,rue Harrison St,613-596-2130,Conseil des écoles publiques de l'Est de l'Ontario,Élémentaire,CÉPEO,École Élémentaire Publique Mamawi,Conseil des écoles publiques de l'Est de l'Ontario,{5810534F-3A18-4DDC-B2EC-B240BAFD0D4A},-75.78811850179414,45.33681943301316
5097,CÉPEO,Elementary,Public Elementary School Mauril Bélanger,307,rue Montgomery St,613-744-8523,Conseil des écoles publiques de l'Est de l'Ontario,Élémentaire,CÉPEO,École élémentaire publique Mauril-Bélanger,Conseil des écoles publiques de l'Est de l'Ontario,{98728C57-9B15-4AED-9369-031F28035CEB},-75.66725421105654,45.432721289139266
5098,CÉPEO,Elementary,Trille-des-Bois Public Elementary School,140,rue Genest St,613-746-6911,Conseil des écoles publiques de l'Est de l'Ontario,Élémentaire,CÉPEO,École élémentaire publique Trille des Bois,Conseil des écoles publiques de l'Est de l'Ontario,{1D79AC54-CF94-40FD-AF3D-F4A367BA5BA0},-75.66981002224445,45.44059289140194
5099,CÉPEO,Elementary/Secondary,Maurice-Lapointe Public Elementary School,17,rue Bridgestone St,613-591-8585,Conseil des écoles publiques de l'Est de l'Ontario,Élémentaire/Secondaire,CÉPEO,École élémentaire publique Maurice-Lapointe,Conseil des écoles publiques de l'Est de l'Ontario,{BDEBA4D2-5CE8-4DC4-9396-E0822EB101E9},-75.85894479504984,45.278465657040854
5100,CÉPEO,Secondary,De la Salle Public High School,501,rue Old St-Patrick St,613-789-0053,Conseil des écoles publiques de l'Est de l'Ontario,Secondaire,CÉPEO,École secondaire publique De la Salle,Conseil des écoles publiques de l'Est de l'Ontario,{39E4AF2C-B3DB-431E-88BA-A05F0A9B7007},-75.68507050796796,45.434862497972695
5101,OCDSB,Secondary,A.Y. Jackson Secondary School,150,prom. Abbeyhill Dr,613-836-2527,Ottawa-Carleton District School Board,Secondaire,OCDSB,École secondaire A.Y. Jackson,Ottawa-Carleton District School Board,{70655AFB-40AD-4264-BB7A-08C7AC0935FE},-75.87987506596106,45.29512403920361
5102,OCDSB,Elementary,Adrienne Clarkson Public School,170,prom. Stoneway Dr.,613-825-8600,Ottawa-Carleton District School Board,Élémentaire,OCDSB,École publique Adrienne Clarkson,Ottawa-Carleton District School Board,{18023A02-6AD1-49B9-AFBC-E25EA7F2728B},-75.71660511951697,45.28856501171975
5103,OCDSB,Secondary,West Carleton Secondary School,3088,"ch. Dunrobin Rd, RR2",613-832-2773,Ottawa-Carleton District School Board,Secondaire,OCDSB,École secondaire West Carleton,Ottawa-Carleton District School Board,{4E734FAC-5449-4B76-B736-6FFCBD97C222},-76.03464217527161,45.434433931004385
5104,OCDSB,Outdoor Education,Bill Mason Outdoor Education Centre,3088,ch. Dunrobin Rd,613-833-2080,Ottawa-Carleton District School Board,Éducatifs en plein air,OCDSB,Centre éducatif à l'extérieur Bill-Mason,Ottawa-Carleton District School Board,{0A11033B-159C-4AA4-A702-F81E542F69B1},-76.02818038322717,45.43752124584301
5105,OCDSB,Elementary,Broadview Avenue Public School,535,av. Dovercourt Ave,613-728-1721,Ottawa-Carleton District School Board,Élémentaire,OCDSB,École publique Broadview,Ottawa-Carleton District School Board,{D2196327-6A8F-406B-98CF-9222A96F4565},-75.75766440992003,45.38172398266583
5106,OCDSB,Elementary,Churchill Alternative School,345,av. Ravenhill Ave,613-722-4474,Ottawa-Carleton District School Board,Élémentaire,OCDSB,École Alternative Churchill,Ottawa-Carleton District School Board,{10F9602A-2080-4520-98C8-3458B272516E},-75.7533489733637,45.3904321739295
5107,OCDSB,Continuing Education,Continuing Education,440,rue Albert St,613-239-2325,Ottawa-Carleton District School Board,Formation continue,OCDSB,Éducation continue,Ottawa-Carleton District School Board,{55F1964F-6CD7-4EAD-9452-03898DF6721C},-75.70649413992139,45.41697066717529
5108,OCDSB,International,International Student Program Office,440,rue Albert St,613-239-0258,Ottawa-Carleton District School Board,Internationale,OCDSB,Bureau du programme pour étudiants internationaux,Ottawa-Carleton District School Board,{67EB1012-8F0D-484C-AEC7-1F213B2704C9},-75.70695659532461,45.41670024101542
5109,OCDSB,Secondary,Earl Of March Secondary School,4,The Parkway,613-592-3361,Ottawa-Carleton District School Board,Secondaire,OCDSB,École secondaire Earl Of March,Ottawa-Carleton District School Board,{D8829898-8666-4DC3-AE6E-6585762186DC},-75.89425879057738,45.32268094459175
5110,OCDSB,Alternate Program,Elizabeth Wyn Wood Alternate Program (Nepean),20,av. Rossland Ave,613-225-8826,Ottawa-Carleton District School Board,Éducation Alternative,OCDSB,Programme alternatif Elizabeth Wyn Wood,Ottawa-Carleton District School Board,{0E6DC6B7-30D8-4FEB-8F4A-BCBED6ACAA9B},-75.73708930412607,45.35321105654758
5111,OCDSB,Intermediate,Fisher Park Public School / Summit Alternate School,250,av. Holland Ave,613-729-5054,Ottawa-Carleton District School Board,Intermédiaire,OCDSB,Fisher Parc L'école publique / Sommet Alternative école,Ottawa-Carleton District School Board,{1BCAF85A-7E32-45E2-96F8-AC5A3235D74C},-75.73075894998074,45.39525364552804
5112,OCDSB,Elementary,Lady Evelyn Alternative School,63,av. Evelyn Ave,613-239-2404,Ottawa-Carleton District School Board,Élémentaire,OCDSB,École alternative Lady Evelyn,Ottawa-Carleton District School Board,{BF815E74-72AD-4610-AA32-9594BD6550CE},-75.6784246097993,45.411879619508056
5113,OCDSB,Elementary,Manotick  Public School,1075,rue Bridge St,613-692-3311,Ottawa-Carleton District School Board,Élémentaire,OCDSB,École publique Manotick,Ottawa-Carleton District School Board,{9C960200-0936-4A91-9051-AC9637DFE81D},-75.68252591404301,45.22970890219281
5114,OCDSB,Elementary,North Gower/Marlborough Public School,2403,"rue Church St, Box 130",613-489-3375,Ottawa-Carleton District School Board,Élémentaire,OCDSB,École publique North Gower/Marlborough,Ottawa-Carleton District School Board,{41CC769F-2BFC-44FF-9479-9C1C114D08A4},-75.71918990316941,45.12628487469211
5115,OCDSB,Elementary,Pinecrest  Public School,1281,ch. McWatters Rd,613-828-5115,Ottawa-Carleton District School Board,Élémentaire,OCDSB,École publique Pinecrest,Ottawa-Carleton District School Board,{ACF674E0-B2D3-4DB5-926A-18DD8E5712C2},-75.78505105423787,45.34375661450416
5116,OCDSB,Elementary,Regina Street Alternative School,2599,rue Regina St,613-829-8777,Ottawa-Carleton District School Board,Élémentaire,OCDSB,École alternative de la rue Regina,Ottawa-Carleton District School Board,{512F2CD8-E6E9-4061-A7CF-16952434269A},-75.79029508828653,45.3667271274058
5117,OCDSB,Alternate Program,Richard Pfaff Secondary Alternate Program,160,rue Percy St,613-594-8020,Ottawa-Carleton District School Board,Éducation Alternative,OCDSB,Programme secondaire alternatif Richard Pfaff,Ottawa-Carleton District School Board,{B46BBDAE-F872-41D4-B102-D35096FD6860},-75.70269656685502,45.40958141397148
5118,OCDSB,Alternate Program,Urban Aboriginal Alternate Program,440,rue Albert St,613-746-6328,Ottawa-Carleton District School Board,Éducation Alternative,OCDSB,Programme alternatif autochtone urbain (Ottawa),Ottawa-Carleton District School Board,{0F441E87-F630-4268-8872-AF2AE67E3A0E},-75.70628405811242,45.41672661011688
5119,OCDSB,Elementary,Woodroffe Avenue Public School,235,av. Woodroffe Ave,613-722-6585,Ottawa-Carleton District School Board,Élémentaire,OCDSB,École publique de l'avenue Woodroffe,Ottawa-Carleton District School Board,{0A61D4B3-9426-42DF-BD80-6736EEA016ED},-75.77251186285231,45.3744163114601
5120,OCDSB,Elementary/Secondary,Family Reception Centre,300,rue Rochester St,613-239-2416,Ottawa-Carleton District School Board,Élémentaire/Secondaire,OCDSB,Centre d'accueil des familles,Ottawa-Carleton District School Board,{ADC18A6F-2AD9-4C5D-8658-10133C27640E},-75.71024736945041,45.404317591951774
5121,OCDSB,Outdoor Education,MacSkimming Outdoor Ed. Centre,3635,Hwy 174,613-833-2080,Ottawa-Carleton District School Board,Éducatifs en plein air,OCDSB,MacSkimming Outdoor Ed. Centre,Ottawa-Carleton District School Board,{CA201CA2-3C0F-4544-9A70-6B0540DA4085},-75.34854646053435,45.52295869196568
5122,OCDSB,Elementary/Secondary,Maplewood Secondary School,700,Cope Drive,613-270-1688,Ottawa-Carleton District School Board,Élémentaire/Secondaire,OCDSB,École secondaire Maplewood,Ottawa-Carleton District School Board,{7D8A4D06-D78A-4A84-BAA1-318AF9681850},-75.8909177718811,45.267316103324255
5123,OCDSB,Elementary,Mino Mikan Elementary School,820,Miikana Road,613-783-8607,Ottawa-Carleton District School Board,Élémentaire,OCDSB,École primaire Mino Mikan,Ottawa-Carleton District School Board,{C070B159-42BF-4BB8-ADF0-851A4C3E876C},-75.59554643874178,45.310799086132484
5124,OCDSB,Elementary/Secondary,Ottawa-Carleton Virtual School,1645,Woodroffe Avenue,(613)-596-8753,Ottawa-Carleton District School Board,Élémentaire/Secondaire,OCDSB,École virtuelle d'Ottawa-Carleton,Ottawa-Carleton District School Board,{03532576-F567-4B35-B30B-0ECF73B249C3},-75.74723932360558,45.32831987355745
5125,OCDSB,Elementary,Wazoson Public School,989,Kilbirnie Drive,(613)-828-4737,Ottawa-Carleton District School Board,Élémentaire,OCDSB,,Ottawa-Carleton District School Board,{B1C682FA-9161-4839-8A86-485CC626B0F0},-75.73426680828315,45.23957231488014
5126,CECCE,Elementary,Alain-Fortin Catholic Elementary School,676,prom. Lakeridge Dr,613-749-7454,Conseil des écoles catholiques du Centre-Est,Élémentaire,CECCE,École élémentaire catholique Alain-Fortin,Conseil des écoles catholiques du Centre-Est,{1FB95287-6F4A-4142-8D06-9592B5D546D0},-75.4740331736019,45.44746494950038
5127,CECCE,Secondary,Béatrice-Desloges Catholic High School,1999,av. Provence Ave,613-820-3391,Conseil des écoles catholiques du Centre-Est,Secondaire,CECCE,École secondaire catholique Béatrice-Desloges,Conseil des écoles catholiques du Centre-Est,{B6E0FFFA-1C2C-4337-A6B0-99403E29A392},-75.45784651404067,45.468429531318826
5128,CECCE,Elementary,Bernard-Grandmaître Catholic Elementary School,4170,ch. Spratt Rd,613-820-3814,Conseil des écoles catholiques du Centre-Est,Élémentaire,CECCE,École élémentaire catholique Bernard-Grandmaître,Conseil des écoles catholiques du Centre-Est,{09C70EB6-730D-4540-B769-4F78FE04DD97},-75.6822709838435,45.28497275424281
5129,CECCE,Elementary,Catholic Elementary School Rainbow Sky,1830,boul. Portobello Blvd,613-744-0486,Conseil des écoles catholiques du Centre-Est,Élémentaire,CECCE,École élémentaire catholique Arc-en-ciel,Conseil des écoles catholiques du Centre-Est,{4243EE7A-B807-40B3-8A6A-CBE73337EB72},-75.47067938984543,45.47143516083394
5130,CECCE,Elementary,Élisabeth-Bruyère Catholic Elementary School,100,prom. Stonehaven Dr,613-521-0176,Conseil des écoles catholiques du Centre-Est,Élémentaire,CECCE,École élémentaire catholique Élisabeth-Bruyère,Conseil des écoles catholiques du Centre-Est,{37D27DD8-1FD6-42C4-840C-17C48A38133A},-75.8464832863768,45.28730276883931
5131,CECCE,Elementary,Saint-Rémi Catholic Elementary School,100,prom. Walden Dr,613-741-2360,Conseil des écoles catholiques du Centre-Est,Élémentaire,CECCE,École élémentaire catholique Saint-Rémi,Conseil des écoles catholiques du Centre-Est,{39BCAC00-6EF5-481D-B3BE-CF988F94B11D},-75.92288918744039,45.32734853562565
5132,CECCE,Secondary,Pierre-Savard Catholic Secondary School,1110,prom Longfields Dr,613-820-7293,Conseil des écoles catholiques du Centre-Est,Secondaire,CECCE,École secondaire catholique Pierre-Savard,Conseil des écoles catholiques du Centre-Est,{D81C35C2-7A6E-4101-8CA7-991E255ADB6E},-75.73678290585065,45.27275899190164
5133,CECCE,Elementary,Terre-des-Jeunes Catholic Elementary School,1303,rue Fellows Road,613-820-2121,Conseil des écoles catholiques du Centre-Est,Élémentaire,CECCE,École élémentaire catholique Terre-des-Jeunes,Conseil des écoles catholiques du Centre-Est,{523BACA0-998B-4070-BE68-E407CD5A9FF1},-75.76782683154033,45.35208462064943
5134,CECCE,Elementary,Marius-Barbeau Catholic Elementary School,1345,av. Nottinghill Ave,613-737-4404,Conseil des écoles catholiques du Centre-Est,Élémentaire,CECCE,École élémentaire catholique Marius-Barbeau,Conseil des écoles catholiques du Centre-Est,{420FC106-60BF-4125-8A4A-16EC50895918},-75.65672934616853,45.37153814012271
5135,CECCE,Elementary,Laurier-Carrière Catholic Elementary School,14,prom. Four Seasons Dr,613-224-3211,Conseil des écoles catholiques du Centre-Est,Élémentaire,CECCE,École élémentaire catholique Laurier-Carrière,Conseil des écoles catholiques du Centre-Est,{722D4E8B-DDEA-4BF3-819F-FE761CE1028E},-75.71251999842309,45.35233360510117
5136,CECCE,Elementary,La Source Individualized Instruction Catholic Elementary School,1445,prom. Duford Dr,613-744-8346,Conseil des écoles catholiques du Centre-Est,Élémentaire,CECCE,École élémentaire catholique d'enseignement personnalisé La Source,Conseil des écoles catholiques du Centre-Est,{E90F6C1F-286D-40BF-BF73-D974096B5651},-75.50821409351884,45.47254601392309
5137,CECCE,Elementary,Catholic Elementary School Reine des Bois,1450,rue Duford St,613-744-8647,Conseil des écoles catholiques du Centre-Est,Élémentaire,CECCE,École élémentaire catholique Reine-des-Bois,Conseil des écoles catholiques du Centre-Est,{33C7B725-37CD-49B4-8330-E3F40B081C8B},-75.50962767167015,45.472082201559374
5138,CECCE,Elementary,Des Pins Catholic Elementary School,1487,prom. Ridgebrook Dr,613-741-2354,Conseil des écoles catholiques du Centre-Est,Élémentaire,CECCE,École élémentaire catholique des Pins,Conseil des écoles catholiques du Centre-Est,{4740629C-A673-4237-849E-AAEC640E2EFF},-75.60477082786431,45.42162028598059
5139,CECCE,Secondary,Continuing Education,181,rue Donald St,613-741-2304,Conseil des écoles catholiques du Centre-Est,Secondaire,CECCE,Éducation permanente,Conseil des écoles catholiques du Centre-Est,{6753AB13-CCFB-4B82-8AFE-9095EB05E72E},-75.66123142928471,45.427890109990685
5140,CECCE,Elementary,Roger-Saint-Denis Catholic Elementary School,186,crois. Barrow Cres,613-521-3815,Conseil des écoles catholiques du Centre-Est,Élémentaire,CECCE,École élémentaire catholique Roger-Saint-Denis,Conseil des écoles catholiques du Centre-Est,{3346AFB4-538E-4DED-A609-9A0C0E4A8616},-75.88240172502135,45.31139815366275
5141,CECCE,Elementary,Sainte-Geneviève Catholic Elementary School,2198,rue Arch St,613-733-9729,Conseil des écoles catholiques du Centre-Est,Élémentaire,CECCE,École élémentaire catholique Sainte-Geneviève,Conseil des écoles catholiques du Centre-Est,{9E10F5E0-C019-4B42-AB45-ABE16F9BD8D5},-75.63140296370032,45.39012013440039
5142,CECCE,Elementary,Sainte-Anne Catholic Elementary School,235,prom. Beausoleil Dr,613-789-3933,Conseil des écoles catholiques du Centre-Est,Élémentaire,CECCE,École élémentaire catholique Sainte-Anne,Conseil des écoles catholiques du Centre-Est,{232B4C9D-7068-40FE-B6B4-E839B3B8A4FC},-75.68172697129395,45.432227971951704
5143,CECCE,Elementary,Catholic Elementary School St. Kateri,2450,ch. River Mist Road,613-741-6754,Conseil des écoles catholiques du Centre-Est,Élémentaire,CECCE,École élémentaire catholique Sainte-Kateri,Conseil des écoles catholiques du Centre-Est,{7CBAEBC3-3049-42FF-BAF8-A1D8F113B113},-75.73601814309983,45.24533097352075
5144,CECCE,Elementary,Lamoureux Catholic Elementary School - Individualized Instruction,2540,av. Kaladar Ave,613-731-3713,Conseil des écoles catholiques du Centre-Est,Élémentaire,CECCE,École élémentaire catholique Lamoureux - Enseignement personnalisé,Conseil des écoles catholiques du Centre-Est,{DA884CFE-27B7-417E-AE8B-66BB8177945B},-75.67167210855585,45.37387783963229
5145,CECCE,Elementary,Sainte-Marie Catholic Elementary School,2599,ch. Innes Rd,613-745-2722,Conseil des écoles catholiques du Centre-Est,Élémentaire,CECCE,École élémentaire catholique Sainte-Marie,Conseil des écoles catholiques du Centre-Est,{9B545CF8-BEE5-4205-9A3C-B643237AE324},-75.56605322531972,45.431835640514024
5146,CECCE,Elementary,Catholic Elementary School Horizon-Jeunesse,349,rue Olmstead St,613-741-8515,Conseil des écoles catholiques du Centre-Est,Élémentaire,CECCE,École élémentaire catholique Horizon-Jeunesse,Conseil des écoles catholiques du Centre-Est,{9359E55E-A7D2-47D2-9F31-4A4F3B254139},-75.65993228033092,45.431916579316315
5147,CECCE,Elementary,Saint Francis of Assisi Catholic Elementary School,35,av. Melrose Ave,613-729-1463,Conseil des écoles catholiques du Centre-Est,Élémentaire,CECCE,École élémentaire catholique Saint-François-d’Assise,Conseil des écoles catholiques du Centre-Est,{DF5DCE75-DEE9-4522-97FB-86BC31B5B8D7},-75.7239770846073,45.40258560466455
5148,CECCE,Elementary,Montfort Catholic Elementary School,350,rue Den Haag Rd,613-745-3310,Conseil des écoles catholiques du Centre-Est,Élémentaire,CECCE,École élémentaire catholique Montfort,Conseil des écoles catholiques du Centre-Est,{BD524229-9327-4C7A-B280-50B81ED2AEFA},-75.63031082431722,45.44063097924817
5149,CECCE,Elementary,Sainte-Bernadette Catholic Elementary School,3781,rue Sixth St,613-521-0875,Conseil des écoles catholiques du Centre-Est,Élémentaire,CECCE,École élémentaire catholique Sainte-Bernadette,Conseil des écoles catholiques du Centre-Est,{BF17F03E-A755-48DB-B043-229D968A9AAD},-75.62342902945328,45.35196419952324
5150,CECCE,Secondary,Catholic College Franco-Ouest,411,prom. Seyton Dr,613-820-2920,Conseil des écoles catholiques du Centre-Est,Secondaire,CECCE,Collège catholique Franco-Ouest,Conseil des écoles catholiques du Centre-Est,{E5950E35-FE5C-4460-B0FF-DBA293F76B4D},-75.83444005575791,45.31490754891434
5151,CECCE,Secondary,Catholic High School Paul Desmarais,5315,rue. Abbott St E,613-744-2618,Conseil des écoles catholiques du Centre-Est,Secondaire,CECCE,École secondaire catholique Paul-Desmarais,Conseil des écoles catholiques du Centre-Est,{571A8FC9-CC20-4819-BBC7-DC56E0BBEA37},-75.89700993413561,45.27401986102939
5152,CECCE,Elementary,Saint-Jean-Paul II Catholic Elementary School,5473,rue Abbott St Est / East,613-521-7858,Conseil des écoles catholiques du Centre-Est,Élémentaire,CECCE,École élémentaire catholique Saint-Jean-Paul II,Conseil des écoles catholiques du Centre-Est,{CD3DF87E-8E91-4A34-9124-4CC07CA19AC0},-75.90288165161598,45.27054344021316
5153,CECCE,Elementary,Saint-Guillaume Catholic Elementary School,5750,ch. Buckland Rd,613-745-5981,Conseil des écoles catholiques du Centre-Est,Élémentaire,CECCE,École élémentaire catholique Saint-Guillaume,Conseil des écoles catholiques du Centre-Est,{4DAF95CB-2138-4233-8FD6-A3A96F750516},-75.35390743367346,45.35559256686885
5154,CECCE,Elementary,Pierre-Elliott-Trudeau Catholic Elementary School,601,prom. Longfields Drive,613-521-1560,Conseil des écoles catholiques du Centre-Est,Élémentaire,CECCE,École élémentaire catholique Pierre-Elliott-Trudeau,Conseil des écoles catholiques du Centre-Est,{0489A82C-750C-4D8D-9366-CAF241431783},-75.74380826497173,45.28561926883239
5155,CECCE,Elementary,Catholic Elementary School Voyageurs,6030,prom. Voyageur Dr,613-744-8345,Conseil des écoles catholiques du Centre-Est,Élémentaire,CECCE,École élémentaire catholique des Voyageurs,Conseil des écoles catholiques du Centre-Est,{A864B560-3048-4C83-9993-D5BD0C8D90F8},-75.55244725938145,45.47362068448755
5156,CECCE,Elementary,Catholic Elementary School La Verendrye,614,prom. Eastvale Dr,613-749-2349,Conseil des écoles catholiques du Centre-Est,Élémentaire,CECCE,École élémentaire catholique La Vérendrye,Conseil des écoles catholiques du Centre-Est,{D56698AD-A41A-4199-897D-096ADF205F3A},-75.59764226399517,45.46049085324146
5157,CECCE,Elementary,Catholic elementary school -Star Eastern Townships ,6220,prom. Beauséjour Dr,613-744-5713,Conseil des écoles catholiques du Centre-Est,Élémentaire,CECCE,École élémentaire catholique l'Étoile-de-l'Est,Conseil des écoles catholiques du Centre-Est,{2308895C-E243-41A9-96DA-98FEB8019EDA},-75.53246824955889,45.45688344887395
5158,CECCE,Secondary,Franco-Cité Catholic Secondary School,623,ch. Smyth Rd,613-521-4999,Conseil des écoles catholiques du Centre-Est,Secondaire,CECCE,École secondaire catholique Franco-Cité,Conseil des écoles catholiques du Centre-Est,{4A516DDA-FE1D-4DC8-8257-BE4F4915954E},-75.64174179917107,45.40042489806127
5159,CECCE,Elementary,Notre-Dame-des-Champs Elementary Public School,6280,chemin Renaud Rd,613-741-5813,Conseil des écoles catholiques du Centre-Est,Élémentaire,CECCE,École élémentaire catholique Notre-Dame-des-Champs,Conseil des écoles catholiques du Centre-Est,{64D01DAB-D205-42D0-B501-D7319EE7742D},-75.50913515414595,45.432656421399145
5160,CECCE,Secondary,"Catholic College Mer Bleue
",6401,chemin Renaud Road,613-744-4022,Conseil des écoles catholiques du Centre-Est,Secondaire,CECCE,Collège catholique Mer Bleue,Conseil des écoles catholiques du Centre-Est,{6CECAE14-59B8-4ECB-A5EB-54537365CDCB},-75.50482146571117,45.43555298289431
5161,CECCE,Elementary,Jean-Robert-Gauthier Catholic Elementary School,651,prom Chapman Mills Dr,613-820-0757,Conseil des écoles catholiques du Centre-Est,Élémentaire,CECCE,École élémentaire catholique Jean-Robert-Gauthier,Conseil des écoles catholiques du Centre-Est,{8719A672-EEC1-4C70-A5B0-915DCF311F17},-75.73136935880954,45.270327652154656
5162,CECCE,Secondary,Garneau Catholic High School,6588,rue Carrière St,613-820-1750,Conseil des écoles catholiques du Centre-Est,Secondaire,CECCE,École secondaire catholique Garneau,Conseil des écoles catholiques du Centre-Est,{31111D92-82A5-4652-922E-E8A2561C8041},-75.5250667748115,45.4650780922633
5163,CECCE,Elementary,Saint-Joseph d'Orléans Catholic Elementary School,6664,rue Carrière St,613-745-7968,Conseil des écoles catholiques du Centre-Est,Élémentaire,CECCE,École élémentaire catholique Saint-Joseph d'Orléans,Conseil des écoles catholiques du Centre-Est,{263CAFA2-D603-4A7B-BF43-A4726E372F4E},-75.52161503695983,45.46575052838212
5164,CECCE,Secondary,Samuel-Genest Catholic College Secondary School,704,ch. Carson's Rd,613-744-8344,Conseil des écoles catholiques du Centre-Est,Secondaire,CECCE,Collège catholique Samuel-Genest,Conseil des écoles catholiques du Centre-Est,{611DA7CC-AF85-4163-9485-D6490799EEFB},-75.63031054224622,45.44273866604375
5165,CECCE,Elementary,Catholic Elementary School Pioneer,720,prom. Merkley Dr,613-744-2448,Conseil des écoles catholiques du Centre-Est,Élémentaire,CECCE,École élémentaire catholique des Pionniers,Conseil des écoles catholiques du Centre-Est,{4E353956-54B4-4865-AFA3-C998C8348D30},-75.48161095979181,45.47372099231886
5166,CECCE,Secondary,Catholic High School of Innovation,801,"prom Aviation Parkway, Building J",613-842-5319,Conseil des écoles catholiques du Centre-Est,Secondaire,CECCE,École Secondaire Catholique de l'Innovation ,Conseil des écoles catholiques du Centre-Est,{39980B88-F675-4B93-8EA7-E6932977A5B6},-75.62542586575225,45.4400151509371
5167,CECCE,Elementary,Catholic Elementary School Discovery,866,av. Scala Ave,613-744-5894,Conseil des écoles catholiques du Centre-Est,Élémentaire,CECCE,École élémentaire catholique de la Découverte,Conseil des écoles catholiques du Centre-Est,{9AB4DCA7-B06A-46BE-9E08-64D4D2B904F5},-75.46141368450803,45.46514132308896
5168,CECCE,Elementary,Catholic Elementary School in The Heart of Ottawa,88,rue Main St,613-216-0017,Conseil des écoles catholiques du Centre-Est,Élémentaire,CECCE,École élémentaire catholique Au Coeur d'Ottawa,Conseil des écoles catholiques du Centre-Est,{CDE089F3-CD95-47BD-B1AC-BCD229D66DB1},-75.68009146165674,45.41165035508536
5169,CECCE,Elementary,George-Étienne-Cartier Catholic Elementary School,880,prom. Thorndale Dr,613-731-6007,Conseil des écoles catholiques du Centre-Est,Élémentaire,CECCE,École élémentaire catholique George-Étienne-Cartier,Conseil des écoles catholiques du Centre-Est,{97372871-7A96-4D2E-82F3-D5DD15DB116C},-75.67298538621242,45.36383246581113
5170,CECCE,Elementary,Édouard-Bond Individualized Instruction Catholic Elementary School,920,av. Parkhaven Ave,613-820-4045,Conseil des écoles catholiques du Centre-Est,Élémentaire,CECCE,École élémentaire catholique d'enseignement personnalisé Édouard-Bond,Conseil des écoles catholiques du Centre-Est,{340ECE07-D7CD-4438-A8D6-81F3D335ED41},-75.7768931665802,45.363170010645106
5171,CECCE,Elementary,Jonathan-Pitre Catholic Elementary School,925,av. Ralph Hennessy Ave,,Conseil des écoles catholiques du Centre-Est,Élémentaire,CECCE,École élémentaire catholique Jonathan-Pitre,Conseil des écoles catholiques du Centre-Est,{38F91796-D55C-4380-9940-25F22F765042},-75.67970693240949,45.27127261569468
5172,CECCE,Elementary,Sainte-Thérèse-d'Avila Catholic Elementary School,9575,ch. Marionville Rd,613-745-0282,Conseil des écoles catholiques du Centre-Est,Élémentaire,CECCE,École élémentaire catholique Sainte-Thérèse-d'Avila,Conseil des écoles catholiques du Centre-Est,{7CE850FF-60D1-420E-890A-2527616386A5},-75.35491939033258,45.181762810116595
5173,Private,Barber School,Hair Fellas School of Barbers,1292,Wellington Street West,+16136959299,Private,École de coiffure,Privée,École de barbier Hair Fellas,Privée,{3641BE59-8264-48A4-8448-8353E12ECEC2},-75.73557290031576,45.398773690077704
5174,Private,Tutoring Service,Kumon Math and Reading Centre of Ottawa - Hunt Club,4,Lorry Greenberg Drive,+16138002020,Private,Service de tutorat,Privée,Centre de mathématiques et de lecture Kumon d'Ottawa - Hunt Club,Privée,{CF24534C-B89D-49D5-A67B-976665B07D4E},-75.62086361437667,45.36910816228409
5175,Private,Beauty School,Gina's College Of Advanced Aesthetics,215,Dalhousie Street,+1-613-789-7875,Private,École de beauté,Privée,,Privée,{BBF63927-65B4-484E-8478-AB30CA3F7A2D},-75.69339349519507,45.431771691509645
5176,Private,Tutoring Service,Kumon Math and Reading Centre of Stittsville,108-1300,"1300 Stittsville Main St Unit 108, ",+16138312577,Private,Service de tutorat,Privée,,Privée,{2D907309-8D94-41DC-9185-FD955628A33D},-75.93041049834501,45.265535427182
5177,Private,Language School,Graybridge Malkam,5-1309,Carling Avenue,+16137617440,Private,École de langues,Privée,,Privée,{E37DF295-A4D6-45E8-BAF0-6B2205A05BF6},-75.73429720008585,45.387570600238014
5178,CECCE,Elementary,Catholic Elementary School Our Place,665,prom. des Aubépine Dr ,613-744-1486,Conseil des écoles catholiques du Centre-Est,Élémentaire,CECCE,École élémentaire catholique Notre-Place,Conseil des écoles catholiques du Centre-Est,{81CE1C9E-DAF5-4F7C-A00F-89D1E9B31907},-75.48521636974418,45.44703724145699
5179,Private,Education Centre,Out to Play Environmental Education Centre,,Davidson's Side Rd,+16138081381,Private,Centre d'éducation,Privée,,Privée,{B1139391-F596-49C3-BB86-53C6E001DFE6},-75.86345629969671,45.354724699524716
5180,Private,Education Centre,UCMAS Abacus & Mental Math School,1303-605,Longfields Dr,,Private,Centre d'éducation,Privée,,Privée,{1E4490D5-FA37-44EC-8D6A-4E4E1188E821},-75.7450555317263,45.284854725511494
5181,Private,Education Centre,Beaverbrook Math Academy,1002,Beaverbrook Road,+1-613-435-6284,Private,Centre d'éducation,Privée,,Privée,{2B57746C-33FF-435B-9FC7-1E832F83C3B0},-75.90089050075444,45.32891460028336
5182,Private,Tutoring Service,Kumon Math and Reading Centre of Kanata - North,1023,Teron Road,+16132700440,Private,Service de tutorat,Privée,,Privée,{A94CA87B-66A0-478C-B7F1-F096C0298CD0},-75.90023239587562,45.33044284537396
5183,Private,Education Centre,March Montessori School,1030,Cameron Harvey Drive,+16135929244,Private,Centre d'éducation,Privée,,Privée,{4890A1A3-734D-4163-B426-6C7D539B194B},-75.9553502009992,45.37693859420854
5184,Private,Music School,Kanata Music Centre,121-105,Schneider Road,+16135192552,Private,École de musique,Privée,,Privée,{0BEDEA13-F9EC-4C96-AA9F-87D5747FDAAD},-75.90300422853315,45.34105143811271
5185,Private,Language School,Franco Langues,105,Schneider Road,+16132621822,Private,École de langues,Privée,,Privée,{BB6F90A9-0FCF-402B-8BBB-A8A7028DC098},-75.90324431676754,45.34068794599467
5186,Private,Dance School,Step by Step School of Dance,1120,Morrison Drive,+16135962922,Private,École de danse,Privée,,Privée,{C6D98A66-494F-4F84-B935-731497CB8F33},-75.79599199990085,45.34570219979874
5187,Private,Dance School,Denise Smith Dance Studio,1140,Tighe Street,+16136924653,Private,École de danse,Privée,,Privée,{AAF11629-9F68-43BC-BF3E-A7F6C0B58104},-75.68360560457289,45.2252767478222
5188,Private,Dance School,Universe DanceArt,484,Hazeldean Rd,+16137000743,Private,École de danse,Privée,,Privée,{FFAA02C6-8D9C-478E-8E70-CC657938E2EF},-75.89009692551045,45.295898800581206
5189,Private,Elementary/Secondary,Astolot Education Centre,2211,prom. Thurston Drive,(613) 260-5996,Private,Élémentaire/Secondaire,Privée,Centre d'éducation Astolot ,Privée,{EAB96B9A-4A11-496D-A54F-2DC38607A2AB},-75.61958327165334,45.38099949975849
5190,Private,Music School,Music for Young Children,1240,Teron Road,+18005611692,Private,École de musique,Privée,,Privée,{C75A1152-6E27-4A73-AAEF-B6152BC030AA},-75.90437001002313,45.33667986318595
5191,Private,Training Centre,YOW Canada Inc.,1306,Algoma Road,+18666882845,Private,Centre de formation,Privée,,Privée,{4F5937E9-D357-4DF1-B49B-D444712571C6},-75.61723464071608,45.416885076063046
5192,Private,Driving School,Crossroads Truck & Career Academy,1392,Cyrville Road,+18665291113,Private,École de conduite,Privée,,Privée,{D1AD4E83-E4F4-4B66-8D55-4509B03EB81B},-75.62182212307303,45.42042558156506
5193,OCDSB,Transition Program,Storefront School,1400,St-Laurent Boulevard,+1-613-749-9550,Ottawa-Carleton District School Board,Programme de transition,OCDSB,,Ottawa-Carleton District School Board,{A3464F31-5E59-40CA-B999-48D4DE1DD69E},-75.64140369755263,45.4205252809984
5194,Private,Religion School,Ottawa Torah Institute,1400,Coldrey Avenue,+1-613-244-9119,Private,École de religion,Privée,École secondaire Ottawa Torah Institute,Privée,{E41C696A-A83F-40DD-BFAF-8FF994B27149},-75.73901520046707,45.38046090006363
5195,Private,Language School,Fast Forward French,150,Terence Matthews Crescent,+16135994226,Private,École de langues,Privée,,Privée,{A2F15820-D68F-4F09-94A4-2BDF6EA17BA2},-75.8734567146471,45.28749990621778
5196,Private,Language School,Academie De Formation Linguistique,1505,Laperriere Avenue,+16137226539,Private,École de langues,Privée,,Privée,{206B86A8-0BB7-4CC5-B7B9-E8D3438B6BCC},-75.74276020052976,45.37801399980134
5198,Private,Elementary/Secondary,Peak Centre Academy,340,"prom. Terry Fox Dr Unit 100, ",613-737-7325,Private,Élémentaire/Secondaire,Privée,Académie de Peak Centre,Privée,{D97A4E7C-FE2B-478F-84A2-28CF07AEAC25},-75.91487580727089,45.35297534292904
5199,Private,Health and Safety Tr,TheFirstAidGuy.ca,1580,Merivale Road,+16132252727,Private,Formation en santé et sécurité,Privée,,Privée,{7090F4D9-931F-40ED-8CD4-9E72F0CA6418},-75.734479069405,45.351180995109026
5201,Private,Education Centre,École Alanwar School,1644,Bank Street,+16137332222,Private,Centre d'éducation,Privée,,Privée,{4E2F6D42-0001-47BB-8BFF-F6A9B7CC3177},-75.6675145787585,45.37562728829542
5202,Private,Education Centre,Kollel of Ottawa,1762,Carling Avenue,+16137294368,Private,Centre d'éducation,Privée,,Privée,{C9C6EE27-8A2C-4CD7-A778-3BDA94EE609C},-75.75319828905961,45.37741189177392
5203,Private,Martial Arts School,Ottawa Chito-Kai Karate School Inc,1794,Courtwood Crescent,+16132336333,Private,École d'arts martiaux,Privée,,Privée,{B5890838-49D3-49D6-88AA-096716647C1B},-75.7500588397367,45.36982935052936
5204,Private,Health and Safety Tr,Canadian Group Emergency Training,119-1803,St. Joseph Boulevard,+16132376778,Private,Formation en santé et sécurité,Privée,,Privée,{9B130191-4DDA-4E86-A049-74DE3F8191C1},-75.54759831876778,45.462122749811236
5205,Private,Waldorf School,Polaris School and Centre,1805,de Gaspé,+1-613-296-7989,Private,École Waldorf,Privée,,Privée,{61D77729-7322-43EC-9760-201578B22785},-75.65308130037614,45.45551359972828
5206,Private,Beauty School,Versailles Academy Of Make-Up Arts-Esthetics-Hair,1930,Bank Street,+16135214155,Private,École de beauté,Privée,,Privée,{F0875C8E-A623-4821-B040-88157262F816},-75.66306861519476,45.36728934946316
5207,Private,Technical School,Finishing Trades Institute,199,Colonnade Road South,+16132285222,Private,École technique,Privée,,Privée,{461E1D42-880A-47A8-A67D-21074CE8A764},-75.71391771052986,45.34138284412759
5208,Private,Cooking School,C'est Bon Cooking,200,Dalhousie Street,+16137228687,Private,École de cuisine,Privée,,Privée,{1A55E6BA-007B-4338-9258-73744D57F9A5},-75.69401729071824,45.43193072671586
5209,Private,Music School,School Of Rock,2003,St. Joseph Boulevard,+16138418118,Private,École de musique,Privée,,Privée,{7CBD2195-6622-4E9F-8F00-7C6D395CCEDA},-75.53885833089085,45.46520560724802
5210,Private,After School Program,Probots Ottawa,2141,Thurston Drive,+16137696248,Private,Programme parascolaire,Privée,,Privée,{A91777D6-6A6F-409D-81A9-F5242876597E},-75.62451077443019,45.37884153916898
5211,Private,Dance School,The Loft School Of Art & Dance,215,Terence Matthews Crescent,+16132712757,Private,École de danse,Privée,,Privée,{303FF4EF-849E-43EC-A687-212AB3B02BAD},-75.87390318542818,45.285906135354374
5212,Private,Arts School,Zichan International Arts School,3010,Moodie Dr,+16132867728,Private,École des arts,Privée,,Privée,{96281604-24F5-4432-8DA0-9CB07B58EF4D},-75.79819979566284,45.25693952364983
5213,Private,Health and Safety Tr,Advanced Consulting and Training,28,Capital Drive,+16132255169,Private,Formation en santé et sécurité,Privée,,Privée,{7F6557A8-54B3-41B1-AEBB-14580A9B18B8},-75.72015798072017,45.322906858526224
5215,Private,Training Centre,Beva Learning Institute,4473,Innes Rd,+16136931250,Private,Centre de formation,Privée,,Privée,{EAA3164D-69A8-48A1-843D-F4B09E375C0D},-75.48602819074117,45.461711799257024
5216,Private,Elementary/Secondary,Canada Knowledge Academy,6479,Russell Rd,+16137105005,Private,Élémentaire/Secondaire,Privée,,Privée,{B41624DE-213F-459A-96F6-A4BE4425B2F7},-75.45697298597017,45.370059796923414
5217,Private,Education Centre,Canadian National Institute of Health,303,Dalhousie Street,+16137262644,Private,Centre d'éducation,Privée,,Privée,{5C7E13EE-E00E-4EE4-A760-83A0AE06DC1D},-75.69136430068123,45.42947029927768
5218,Private,Religion School,Chesterton Academy,415,Piccadilly Avenue North,+1-613-729-2247,Private,École de religion,Privée,,Privée,{506B71F7-7601-484A-9D17-EA75FBE948F6},-75.739393922106,45.396336844428426
5219,Private,Religion School,Our Lady of Mount Carmel School,225,Donald St,+1-819-328-7265,Private,École de religion,Privée,École Notre-Dame du Mont Carmel,Privée,{A33E15E8-E746-41A5-9C19-FBAEBB47E781},-75.65890599374639,45.428228950861886
5220,Private,Health and Safety Tr,First Aid 4U Training Ottawa East,430-700,Industrial Avenue,6133144299,Private,Formation en santé et sécurité,Privée,,Privée,{DC191AF8-3586-49E4-9B89-5EF7755DCC5D},-75.63999905494347,45.41006714883766
5221,Private,Health and Safety Tr,First Aid 4U Training Ottawa Central,311,O'Connor St,6133144299,Private,Formation en santé et sécurité,Privée,,Privée,{C96FAD6F-945A-4B84-87D4-1886602094DF},-75.69209272118893,45.41388765070712
5222,Private,Music School,Nepean School of Music,900,Greenbank Road,+16138250557,Private,École de musique,Privée,,Privée,{E7840D7B-4052-4343-AB3C-EEE8745CB0C7},-75.75664916722357,45.28527447937023
5223,Private,Tutoring Service,Kumon Math and Reading Centre of Kanata - South,430,Hazeldean Road,+16139630362,Private,Service de tutorat,Privée,,Privée,{8F937AF1-5B88-4CC4-9E84-85EE8AAF0F6D},-75.88220959155174,45.3010828169433
5224,Private,Health and Safety Tr,First Aid 4U Training Ottawa West,205-1956,Robertson Road,+16137025385,Private,Formation en santé et sécurité,Privée,,Privée,{C37622AD-03F0-40FD-9F73-551D7625AFAF},-75.8237067745375,45.32494162237841
5225,Private,Driving School,North American Transport Driving Academy,2473,Sheffield Road,+16135614675,Private,École de conduite,Privée,,Privée,{9B5035B6-3788-4D8C-8F41-22DE397AEDC3},-75.60866407240677,45.4097191863936
5227,Private,Circus School,Ottawa Circus School,16-800,Industrial Avenue,6134169569,Private,École de cirque,Privée,,Privée,{7BD85537-5F56-453B-B999-C1B186E282AB},-75.63391120909391,45.40788769359939
5228,Private,Health and Safety Tr,First Aid 4U Training Ottawa South,4-38,Auriga Drive,+16134829343,Private,Formation en santé et sécurité,Privée,,Privée,{CF9CD92D-29F0-44AC-8153-DAC8E67FE14E},-75.70549493754267,45.33111238474896
5229,Private,Tutoring Service,Oxford Learning Kanata,226-329,March Road,+16138018132,Private,Service de tutorat,Privée,,Privée,{64DE9AF9-C791-49CD-AF66-9C0AF5DB5BB3},-75.90766689179455,45.33479388732758
5230,Private,Fashion School,Richard Robinson Fashion Design Academy,419,Sussex Drive,+16132415233,Private,École de mode,Privée,,Privée,{B7F25D9A-DC47-424B-96D0-ACF745133114},-75.69612958388743,45.42911307496519
5231,Private,Dance School,Rising Stars Academy,74,Jamie Ave,+16132256820,Private,École de danse,Privée,,Privée,{B4B4FAE6-9749-4B0D-A090-D734E54D0F07},-75.71670669921266,45.33570402477792
5232,Private,Dance School,School Of Modern Dance Kanata,65,Denzil Doyle Court,+16134122063,Private,École de danse,Privée,,Privée,{4D5AA2D3-5FA2-4E63-8879-71DF1D7C0A55},-75.87135139959106,45.288683200210315
5233,Private,Tutoring Service,BEDMAS Academy,18,Bon Echo Crescent,+16135012728,Private,Service de tutorat,Privée,,Privée,{9362CDC7-48AF-4A1B-BAB3-6581981ACA46},-75.85181081613618,45.29933778745071
5234,Private,Secondary,The Element,201-425,Marché Way,613-862-8578,Private,Secondaire,Privée,L'Elément,Privée,{4A5A61A3-6C55-493D-82E6-9BC8DE0F70AA},-75.68280344316015,45.4008237344338
5235,Private,Education Centre,The Portia Learning Centre - ABA Therapy,50,Steacie Drive,+16135919966,Private,Centre d'éducation,Privée,,Privée,{374DA207-0F3D-4956-ABA8-38276A4D2148},-75.91096063485237,45.33575711514615
5236,Private,Secondary,Torah High Ottawa,261,Centrepointe Drive,+1-613-889-3283,Private,Secondaire,Privée,,Privée,{9342A5ED-CBDD-41D5-AF95-494D14434056},-75.77172940508702,45.33911185199406
5237,Private,Health and Safety Tr,Urban Combat Systems,70,Bongard Avenue,+16138804897,Private,Formation en santé et sécurité,Privée,,Privée,{0BAD6F2E-842D-4219-B636-F4A290DDC45A},-75.71433354786137,45.33130819013308
5239,Private,Music School,Barrhaven Music Acadamy,2900,Woodroffe Avenue,+1-613-459-6027,Private,École de musique,Privée,,Privée,{7FE2A3D9-00C6-4263-8B2A-7425B366608A},-75.72914745949761,45.29265972952991
5240,Private,Dance School,Canadian School of Dance,35,Larkin Drive,+1-613-825-0907,Private,École de danse,Privée,,Privée,{D2BA0AAF-08E0-458F-A45E-CFAB945EE27B},-75.75734900333893,45.285839424205854
5244,Private,Tutoring Service,Barrhaven STEM Learning Centre,1,Tartan Drive,+1-613-825-2100,Private,Service de tutorat,Privée,,Privée,{E2638715-3864-4251-B5C6-487E71FC206C},-75.75409849529741,45.26972031066086
5246,Private,Technical School,HiMark Occupational Skills Training Centre,2508,Del Zotto Avenue,+16138220188,Private,École technique,Privée,,Privée,{4D665D8A-AAEE-45AF-A9D7-62DA53213BD7},-75.62666040876911,45.31101771348707
5247,OCDSB,Elementary,J. H. Putman Public School,2051,Bel-Air Drive,+1-613-225-4646,Ottawa-Carleton District School Board,Élémentaire,OCDSB,École publique J. H. Putman,Ottawa-Carleton District School Board,{8609DF0B-AB6B-45D6-AC2F-76606DD18CE9},-75.76073218446307,45.36421379847025
5248,Private,Music School,Kanata Music Acadamy,5-701,Eagleson Road,+16135918638,Private,École de musique,Privée,,Privée,{AA2C99AA-0695-4228-953F-26374D47062B},-75.86679057563846,45.287487553590736
5249,Private,Tutoring Service,Kumon Math and Reading Centre of Ottawa - Alta Vista,1500,Bank Street,+16136274891,Private,Service de tutorat,Privée,,Privée,{3D30E4D2-2B74-4276-B723-00C0109AB6EC},-75.67036174862731,45.38073210355761
5250,Private,Tutoring Service,Kumon Math and Reading Centre of Ottawa - Centrepointe,261,Centrepointe Drive,+1-613-864-9384,Private,Service de tutorat,Privée,,Privée,{87766F66-AF23-4A98-8658-18F40A3715D0},-75.7712815374257,45.33867487259069
5251,Private,Tutoring Service,Kumon Math and Reading Centre of Ottawa - Barrhaven,896,Greenbank Road,+1-613-825-4040,Private,Service de tutorat,Privée,,Privée,{BE4A3042-8C9F-4188-9357-F73A340B0906},-75.75617442286728,45.2857123226001
5252,Private,Tutoring Service,Kumon Math and Reading Centre of Ottawa - Merivale,1508,Merivale Road,+16135196966,Private,Service de tutorat,Privée,,Privée,{B9866392-99DB-4EBD-8F30-02BF6344486B},-75.73758963070502,45.356382720170565
5253,Private,Education Centre,Centre des métiers Minto – Campus Alphonse-Desjardins de La Cité,8700,Jeanne-d'Arc Boulevard North,+16137422483,Private,Centre d'éducation,Privée,,Privée,{848FD5C5-D8C1-4ABC-9055-D3061B227A93},-75.48595844015261,45.49451634019503
5254,Private,Music School,Manotick School of Music,1136,Clapp Lane,+16136922824,Private,École de musique,Privée,,Privée,{E54D6A4F-8AEB-4677-ACBF-7F74605156E2},-75.68448476508021,45.22640498232653
5255,Private,Business School,MasterZ Studio,256,Gracewood Crescent,+16135210708,Private,École de commerce,Privée,,Privée,{F2D1D24B-9A86-4678-A0A1-15C9704DFF9A},-75.61422634272967,45.31548646987647
5256,Private,Flight School,Ottawa Flying Club,20,Lindbergh Private,+1-613-523-2142,Private,École de pilotage,Privée,,Privée,{BBB42FDB-BA06-4F02-9586-2E320D8C7C4A},-75.68718285862933,45.33494040303952
5257,Private,Arts School,Ottawa School of Art,35,George Street,+1-613-241-7471,Private,École des arts,Privée,,Privée,{A8CF1884-103F-4B26-AA96-1AC6896BBDE4},-75.69302255566141,45.426940888785985
5263,Private,Beauty School,West End Academy,150-1642,Merivale Road,+16138281818,Private,École de beauté,Privée,,Privée,{1A5A8FC4-547B-44FE-95E7-B9033528D0FC},-75.73153962279356,45.34559031752268
5265,Private,Preschool,Zida Academy,1,Henry Goulburn Way,+16138363636,Private,Préscolaire,Privée,,Privée,{6D53ADBA-814C-47F1-AAC0-215791F393E3},-75.92191192731079,45.256766918419935
5441,OCDSB,Secondary,Riverside South Secondary School,4601,Spratt Road,+16137876121,Ottawa-Carleton District School Board,Secondaire,OCDSB,École secondaire Riverside South,Ottawa-Carleton District School Board,{AE837675-1D99-46A5-BC61-A424E5DC583C},-75.68864978233546,45.27193834924714
